{"type":"FeatureCollection","crs":{"type":"name","properties":{"name":"EPSG:4326"}},"features":[{"type":"Feature","id":1,"geometry":{"type":"Point","coordinates":[-73.952112999915,40.7664920002057]},"properties":{"FID":1,"dataSource":"NYC Open Data - POPS","Address":"525 EAST 72 STREET, New York, NY 10021","UniqueID":"M080080","OBJECTID_1":27,"Park_Name":"525 East 72 Street","Borough":"MN","Building_N":"One East River Place","Year":"1988-01-01 00:00:00","Use_":"Seating","Use_Subcat":"Midblock","Size__Acre":0.112580348944,"Size__Sq_F":4904,"Ownership":"Private","Ownership_":"POPS","Links":"https://apops.mas.org/pops/m080080/"}},{"type":"Feature","id":2,"geometry":{"type":"Point","coordinates":[-73.9826940000281,40.7646859996592]},"properties":{"FID":2,"dataSource":"NYC Open Data - POPS","Address":"230 WEST 55 STREET, New York, NY 10019","UniqueID":"M050020","OBJECTID_1":31,"Park_Name":"230 West 55 Street","Borough":"MN","Building_N":"La Premiere","Year":"1979-01-01 00:00:00","Use_":"Seating","Use_Subcat":"Midblock","Size__Acre":0.119719926538,"Size__Sq_F":5215,"Ownership":"Private","Ownership_":"POPS","Links":"https://apops.mas.org/pops/m050020/"}},{"type":"Feature","id":3,"geometry":{"type":"Point","coordinates":[-73.9678200002928,40.7525619999364]},"properties":{"FID":3,"dataSource":"NYC Open Data - POPS","Address":"845 FIRST AVENUE, New York, NY 10017","UniqueID":"M060018","OBJECTID_1":47,"Park_Name":"845 First Avenue","Borough":"MN","Building_N":"Trump World Tower","Year":"2000-01-01 00:00:00","Use_":"Seating","Use_Subcat":"Midblock","Size__Acre":0.153673094582,"Size__Sq_F":6694,"Ownership":"Private","Ownership_":"POPS","Links":"https://apops.mas.org/pops/m060018/"}},{"type":"Feature","id":4,"geometry":{"type":"Point","coordinates":[-73.9789599996043,40.7440209999692]},"properties":{"FID":4,"dataSource":"NYC Open Data - POPS","Address":"200 EAST 32 STREET, New York, NY 10016","UniqueID":"M060085","OBJECTID_1":34,"Park_Name":"200 East 32 Street","Borough":"MN","Building_N":"Future","Year":"1992-01-01 00:00:00","Use_":"Seating","Use_Subcat":"Midblock","Size__Acre":0.132124655647,"Size__Sq_F":5755.35,"Ownership":"Private","Ownership_":"POPS","Links":"https://apops.mas.org/pops/m060085/"}},{"type":"Feature","id":5,"geometry":{"type":"Point","coordinates":[-74.008118999792,40.7050410001421]},"properties":{"FID":5,"dataSource":"NYC Open Data - POPS","Address":"75 WALL STREET, New York, NY 10005","UniqueID":"M010045","OBJECTID_1":49,"Park_Name":"75 Wall Street","Borough":"MN","Building_N":"Barclays Bank","Year":"1987-01-01 00:00:00","Use_":"Seating","Use_Subcat":"Midblock","Size__Acre":0.161099632691,"Size__Sq_F":7017.5,"Ownership":"Private","Ownership_":"POPS","Links":"https://apops.mas.org/pops/m010045/"}},{"type":"Feature","id":6,"geometry":{"type":"Point","coordinates":[-73.9825529998211,40.7659739997004]},"properties":{"FID":6,"dataSource":"NYC Open Data - POPS","Address":"1755 BROADWAY, New York, NY 10019","UniqueID":"M050084","OBJECTID_1":28,"Park_Name":"1755 Broadway","Borough":"MN","Building_N":"Symphony House","Year":"1987-01-01 00:00:00","Use_":"Seating","Use_Subcat":"Midblock","Size__Acre":0.113725665748,"Size__Sq_F":4953.89,"Ownership":"Private","Ownership_":"POPS","Links":"https://apops.mas.org/pops/m050084/"}},{"type":"Feature","id":7,"geometry":{"type":"Point","coordinates":[-73.9912360000413,40.729513000025]},"properties":{"FID":7,"dataSource":"NYC Open Data - POPS","Address":"26 ASTOR PLACE, New York, NY 10003","UniqueID":"M020007","OBJECTID_1":22,"Park_Name":"26 Astor Place","Borough":"MN","Building_N":"Astor Place","Year":"2005-01-01 00:00:00","Use_":"Seating","Use_Subcat":"Midblock","Size__Acre":0.103259871442,"Size__Sq_F":4498,"Ownership":"Private","Ownership_":"POPS","Links":"https://apops.mas.org/pops/m020007/"}},{"type":"Feature","id":8,"geometry":{"type":"Point","coordinates":[-73.9748479997353,40.7482030003682]},"properties":{"FID":8,"dataSource":"NYC Open Data - POPS","Address":"222 EAST 39 STREET, New York, NY 10016","UniqueID":"M060017","OBJECTID_1":21,"Park_Name":"222 East 39 Street","Borough":"MN","Building_N":"The Nash","Year":"1972-01-01 00:00:00","Use_":"Seating","Use_Subcat":"Midblock","Size__Acre":0.100354683196,"Size__Sq_F":4371.45,"Ownership":"Private","Ownership_":"POPS","Links":"https://apops.mas.org/pops/m060017/"}},{"type":"Feature","id":9,"geometry":{"type":"Point","coordinates":[-73.9483249996989,40.781993000077]},"properties":{"FID":9,"dataSource":"NYC Open Data - POPS","Address":"300 EAST 93 STREET, New York, NY 10128","UniqueID":"M080062","OBJECTID_1":13,"Park_Name":"300 East 93 Street","Borough":"MN","Building_N":"Waterford","Year":"1987-01-01 00:00:00","Use_":"Seating","Use_Subcat":"Midblock","Size__Acre":0.0807162534435,"Size__Sq_F":3516,"Ownership":"Private","Ownership_":"POPS","Links":"https://apops.mas.org/pops/m080062/"}},{"type":"Feature","id":10,"geometry":{"type":"Point","coordinates":[-73.9605450002515,40.7684060003367]},"properties":{"FID":10,"dataSource":"NYC Open Data - POPS","Address":"211 EAST 70 STREET, New York, NY 10021","UniqueID":"M080082","OBJECTID_1":6,"Park_Name":"211 East 70 Street","Borough":"MN","Building_N":" ","Year":"1975-01-01 00:00:00","Use_":"Seating","Use_Subcat":"Midblock","Size__Acre":0.0461432506887,"Size__Sq_F":2010,"Ownership":"Private","Ownership_":"POPS","Links":"https://apops.mas.org/pops/m080082/"}},{"type":"Feature","id":11,"geometry":{"type":"Point","coordinates":[-73.9667949997894,40.7578490000314]},"properties":{"FID":11,"dataSource":"NYC Open Data - POPS","Address":"245 EAST 54 STREET, New York, NY 10022","UniqueID":"M060057","OBJECTID_1":35,"Park_Name":"245 East 54 Street","Borough":"MN","Building_N":"Brevard","Year":"1974-01-01 00:00:00","Use_":"Seating","Use_Subcat":"Midblock","Size__Acre":0.132127640037,"Size__Sq_F":5755.48,"Ownership":"Private","Ownership_":"POPS","Links":"https://apops.mas.org/pops/m050052/"}},{"type":"Feature","id":12,"geometry":{"type":"Point","coordinates":[-73.9836370003472,40.7474059995873]},"properties":{"FID":12,"dataSource":"NYC Open Data - POPS","Address":"172 MADISON AVENUE, New York, NY 10016","UniqueID":"M050111","OBJECTID_1":14,"Park_Name":"172 Madison Avenue","Borough":"MN","Building_N":" ","Year":"2017-01-01 00:00:00","Use_":"Seating","Use_Subcat":"Midblock","Size__Acre":0.0829201101928,"Size__Sq_F":3612,"Ownership":"Private","Ownership_":"POPS","Links":"https://apops.mas.org/pops/m050111/"}},{"type":"Feature","id":13,"geometry":{"type":"Point","coordinates":[-73.9758760003771,40.7500799996923]},"properties":{"FID":13,"dataSource":"NYC Open Data - POPS","Address":"622 THIRD AVENUE, New York, NY 10017","UniqueID":"M060026","OBJECTID_1":33,"Park_Name":"622 Third Avenue","Borough":"MN","Building_N":"Grand Central Plaza","Year":"1971-01-01 00:00:00","Use_":"Seating","Use_Subcat":"Midblock","Size__Acre":0.128126492195,"Size__Sq_F":5581.19,"Ownership":"Private","Ownership_":"POPS","Links":"https://apops.mas.org/pops/m060026/"}},{"type":"Feature","id":14,"geometry":{"type":"Point","coordinates":[-74.0054079997793,40.7253060002717]},"properties":{"FID":14,"dataSource":"NYC Open Data - POPS","Address":"246 SPRING STREET, New York, NY 10013","UniqueID":"M020006","OBJECTID_1":5,"Park_Name":"246 Spring Street","Borough":"MN","Building_N":"The Dominick","Year":"2010-01-01 00:00:00","Use_":"Seating","Use_Subcat":"Midblock","Size__Acre":0.039738292011,"Size__Sq_F":1731,"Ownership":"Private","Ownership_":"POPS","Links":"https://apops.mas.org/pops/m020006/"}},{"type":"Feature","id":15,"geometry":{"type":"Point","coordinates":[-73.9792880003409,40.7458950000542]},"properties":{"FID":15,"dataSource":"NYC Open Data - POPS","Address":"150 EAST 34 STREET, New York, NY 10016","UniqueID":"M060005","OBJECTID_1":23,"Park_Name":"150 East 34 Street","Borough":"MN","Building_N":"Dumont Plaza","Year":"1987-01-01 00:00:00","Use_":"Seating","Use_Subcat":"Midblock","Size__Acre":0.10441046832,"Size__Sq_F":4548.12,"Ownership":"Private","Ownership_":"POPS","Links":"https://apops.mas.org/pops/m060005/"}},{"type":"Feature","id":16,"geometry":{"type":"Point","coordinates":[-73.9749479998503,40.7522459997531]},"properties":{"FID":16,"dataSource":"NYC Open Data - POPS","Address":"425 LEXINGTON AVENUE, New York, NY 10017","UniqueID":"M060088","OBJECTID_1":43,"Park_Name":"425 Lexington Avenue","Borough":"MN","Building_N":" ","Year":"1987-01-01 00:00:00","Use_":"Seating","Use_Subcat":"Midblock","Size__Acre":0.151301193756,"Size__Sq_F":6590.68,"Ownership":"Private","Ownership_":"POPS","Links":"https://apops.mas.org/pops/m060088/"}},{"type":"Feature","id":17,"geometry":{"type":"Point","coordinates":[-73.9732770001334,40.7604300003443]},"properties":{"FID":17,"dataSource":"NYC Open Data - POPS","Address":"535 MADISON AVENUE, New York, NY 10022","UniqueID":"M050024","OBJECTID_1":26,"Park_Name":"535 Madison Avenue","Borough":"MN","Building_N":"Warburg Dillon Read","Year":"1982-01-01 00:00:00","Use_":"Seating","Use_Subcat":"Midblock","Size__Acre":0.111783746556,"Size__Sq_F":4869.3,"Ownership":"Private","Ownership_":"POPS","Links":"https://apops.mas.org/pops/m050115/"}},{"type":"Feature","id":18,"geometry":{"type":"Point","coordinates":[-73.980111999669,40.7444760002672]},"properties":{"FID":18,"dataSource":"NYC Open Data - POPS","Address":"155 EAST 31 STREET, New York, NY 10016","UniqueID":"M060003","OBJECTID_1":30,"Park_Name":"155 East 31 Street","Borough":"MN","Building_N":"Windsor Court","Year":"1987-01-01 00:00:00","Use_":"Seating","Use_Subcat":"Midblock","Size__Acre":0.115358126722,"Size__Sq_F":5025,"Ownership":"Private","Ownership_":"POPS","Links":"https://apops.mas.org/pops/m060003/"}},{"type":"Feature","id":19,"geometry":{"type":"Point","coordinates":[-74.0063449998219,40.7091119999189]},"properties":{"FID":19,"dataSource":"NYC Open Data - POPS","Address":"130 WILLIAM STREET, New York, NY 10038","UniqueID":"M010060","OBJECTID_1":32,"Park_Name":"130 William Street","Borough":"MN","Building_N":" ","Year":" ","Use_":"Seating","Use_Subcat":"Midblock","Size__Acre":0.122061524334,"Size__Sq_F":5317,"Ownership":"Private","Ownership_":"POPS","Links":"https://apops.mas.org/pops/m010060/"}},{"type":"Feature","id":20,"geometry":{"type":"Point","coordinates":[-74.0085960002052,40.7384419998984]},"properties":{"FID":20,"dataSource":"NYC Open Data - POPS","Address":"99 JANE STREET, New York, NY 10014","UniqueID":"M020004","OBJECTID_1":48,"Park_Name":"99 Jane Street","Borough":"MN","Building_N":" ","Year":"1999-01-01 00:00:00","Use_":"Seating","Use_Subcat":"Midblock","Size__Acre":0.160697887971,"Size__Sq_F":7000,"Ownership":"Private","Ownership_":"POPS","Links":"https://apops.mas.org/pops/m020004/"}},{"type":"Feature","id":21,"geometry":{"type":"Point","coordinates":[-73.9786359999514,40.6882530002758]},"properties":{"FID":21,"dataSource":"NYC Open Data - POPS","Address":"230 ASHLAND PLACE, Brooklyn, NY 11217","UniqueID":"K020007","OBJECTID_1":17,"Park_Name":"230 Ashland Place","Borough":"BK","Building_N":"Forte","Year":"2007-01-01 00:00:00","Use_":"Seating","Use_Subcat":"Midblock","Size__Acre":0.0909090909091,"Size__Sq_F":3960,"Ownership":"Private","Ownership_":"POPS","Links":"https://apops.mas.org/pops/k020007/"}},{"type":"Feature","id":22,"geometry":{"type":"Point","coordinates":[-73.9796400003856,40.7402470003988]},"properties":{"FID":22,"dataSource":"NYC Open Data - POPS","Address":"240 EAST 27 STREET, New York, NY 10016","UniqueID":"M060014","OBJECTID_1":51,"Park_Name":"240 East 27 Street","Borough":"MN","Building_N":"Parc East Tower Apartments","Year":"1977-01-01 00:00:00","Use_":"Seating","Use_Subcat":"Midblock","Size__Acre":0.171854912764,"Size__Sq_F":7486,"Ownership":"Private","Ownership_":"POPS","Links":"https://apops.mas.org/pops/m060014/"}},{"type":"Feature","id":23,"geometry":{"type":"Point","coordinates":[-74.0059699996157,40.710450999614]},"properties":{"FID":23,"dataSource":"NYC Open Data - POPS","Address":"33 BEEKMAN STREET, New York, NY 10038","UniqueID":"M010055","OBJECTID_1":12,"Park_Name":"33 Beekman Street","Borough":"MN","Building_N":" ","Year":"2016-01-01 00:00:00","Use_":"Seating","Use_Subcat":"Midblock","Size__Acre":0.0691460055096,"Size__Sq_F":3012,"Ownership":"Private","Ownership_":"POPS","Links":"https://apops.mas.org/pops/m010055/"}},{"type":"Feature","id":24,"geometry":{"type":"Point","coordinates":[-73.9717970002313,40.7615000002249]},"properties":{"FID":24,"dataSource":"NYC Open Data - POPS","Address":"432 PARK AVENUE, New York, NY 10022","UniqueID":"M050112","OBJECTID_1":40,"Park_Name":"432 Park Avenue","Borough":"MN","Building_N":"432 Park Avenue","Year":"2017-01-01 00:00:00","Use_":"Seating","Use_Subcat":"Midblock","Size__Acre":0.145562213039,"Size__Sq_F":6340.69,"Ownership":"Private","Ownership_":"POPS","Links":"https://apops.mas.org/pops/m050112/"}},{"type":"Feature","id":25,"geometry":{"type":"Point","coordinates":[-73.9648429997046,40.7644990000289]},"properties":{"FID":25,"dataSource":"NYC Open Data - POPS","Address":"188 EAST 64 STREET, New York, NY 10065","UniqueID":"M080004","OBJECTID_1":29,"Park_Name":"188 East 64 Street","Borough":"MN","Building_N":"Royale","Year":"1987-01-01 00:00:00","Use_":"Seating","Use_Subcat":"Midblock","Size__Acre":0.11391184573,"Size__Sq_F":4962,"Ownership":"Private","Ownership_":"POPS","Links":"https://apops.mas.org/pops/m080004/"}},{"type":"Feature","id":26,"geometry":{"type":"Point","coordinates":[-73.9877969997317,40.7708980001427]},"properties":{"FID":26,"dataSource":"NYC Open Data - POPS","Address":"200 WEST 60 STREET, New York, NY 10023","UniqueID":"M070026","OBJECTID_1":50,"Park_Name":"200 West 60 Street","Borough":"MN","Building_N":"Concerto","Year":"1991-01-01 00:00:00","Use_":"Recreation","Use_Subcat":"Playground","Size__Acre":0.168044077135,"Size__Sq_F":7320,"Ownership":"Private","Ownership_":"POPS","Links":"https://apops.mas.org/pops/m070026/"}},{"type":"Feature","id":27,"geometry":{"type":"Point","coordinates":[-73.9818509998237,40.7568200002429]},"properties":{"FID":27,"dataSource":"NYC Open Data - POPS","Address":"1166 SIXTH AVENUE, New York, NY 10036","UniqueID":"M050052","OBJECTID_1":36,"Park_Name":"1166 Sixth Avenue","Borough":"MN","Building_N":" ","Year":"1972-01-01 00:00:00","Use_":"Seating","Use_Subcat":"Midblock","Size__Acre":0.132219926538,"Size__Sq_F":5759.5,"Ownership":"Private","Ownership_":"POPS","Links":"https://apops.mas.org/pops/m060057/"}},{"type":"Feature","id":28,"geometry":{"type":"Point","coordinates":[-73.9698529996162,40.7502850001527]},"properties":{"FID":28,"dataSource":"NYC Open Data - POPS","Address":"3 UNITED NATIONS PLAZA, New York, NY 10017","UniqueID":"M060060","OBJECTID_1":45,"Park_Name":"3 United Nations Plaza","Borough":"MN","Building_N":"UNICEF House","Year":"1987-01-01 00:00:00","Use_":"Seating","Use_Subcat":"Midblock","Size__Acre":0.153053259871,"Size__Sq_F":6667,"Ownership":"Private","Ownership_":"POPS","Links":"https://apops.mas.org/pops/m060060/"}},{"type":"Feature","id":29,"geometry":{"type":"Point","coordinates":[-73.9832949998643,40.7699889995927]},"properties":{"FID":29,"dataSource":"NYC Open Data - POPS","Address":"30 WEST 61 STREET, New York, NY 10023","UniqueID":"M070020","OBJECTID_1":39,"Park_Name":"30 West 61 Street","Borough":"MN","Building_N":"Beaumont","Year":"1983-01-01 00:00:00","Use_":"Seating","Use_Subcat":"Midblock","Size__Acre":0.140055785124,"Size__Sq_F":6100.83,"Ownership":"Private","Ownership_":"POPS","Links":"https://apops.mas.org/pops/m070020/"}},{"type":"Feature","id":30,"geometry":{"type":"Point","coordinates":[-74.0081949996994,40.7073630002023]},"properties":{"FID":30,"dataSource":"NYC Open Data - POPS","Address":"10 LIBERTY STREET, New York, NY 10005","UniqueID":"M010038","OBJECTID_1":25,"Park_Name":"10 Liberty Street","Borough":"MN","Building_N":"Liberty Tower","Year":"2002-01-01 00:00:00","Use_":"Seating","Use_Subcat":"Midblock","Size__Acre":0.111478420569,"Size__Sq_F":4856,"Ownership":"Private","Ownership_":"POPS","Links":"https://apops.mas.org/pops/m010038/"}},{"type":"Feature","id":31,"geometry":{"type":"Point","coordinates":[-73.9890829996806,40.7456769998937]},"properties":{"FID":31,"dataSource":"NYC Open Data - POPS","Address":"1185 BROADWAY, New York, NY 10001","UniqueID":"M050113","OBJECTID_1":20,"Park_Name":"1185 Broadway","Borough":"MN","Building_N":" ","Year":" ","Use_":"Seating","Use_Subcat":"Midblock","Size__Acre":0.0960514233242,"Size__Sq_F":4184,"Ownership":"Private","Ownership_":"POPS","Links":"https://apops.mas.org/pops/m050113/"}},{"type":"Feature","id":32,"geometry":{"type":"Point","coordinates":[-73.9488280004118,40.7710279998424]},"properties":{"FID":32,"dataSource":"NYC Open Data - POPS","Address":"515 EAST 79 STREET, New York, NY 10075","UniqueID":"M080071","OBJECTID_1":37,"Park_Name":"515 East 79 Street","Borough":"MN","Building_N":"Austen House","Year":"1982-01-01 00:00:00","Use_":"Seating","Use_Subcat":"Midblock","Size__Acre":0.136951790634,"Size__Sq_F":5965.62,"Ownership":"Private","Ownership_":"POPS","Links":"https://apops.mas.org/pops/m080071/"}},{"type":"Feature","id":33,"geometry":{"type":"Point","coordinates":[-73.9817519997549,40.7515879999863]},"properties":{"FID":33,"dataSource":"NYC Open Data - POPS","Address":"445 FIFTH AVENUE, New York, NY 10016","UniqueID":"M050062","OBJECTID_1":7,"Park_Name":"445 Fifth Avenue","Borough":"MN","Building_N":"Fifth Avenue Tower","Year":"1985-01-01 00:00:00","Use_":"Seating","Use_Subcat":"Midblock","Size__Acre":0.0519513314968,"Size__Sq_F":2263,"Ownership":"Private","Ownership_":"POPS","Links":"https://apops.mas.org/pops/m050062/"}},{"type":"Feature","id":34,"geometry":{"type":"Point","coordinates":[-73.9736540004317,40.7485399997213]},"properties":{"FID":34,"dataSource":"NYC Open Data - POPS","Address":"250 EAST 40 STREET, New York, NY 10016","UniqueID":"M060019","OBJECTID_1":41,"Park_Name":"250 East 40 Street","Borough":"MN","Building_N":"Highpoint","Year":"1988-01-01 00:00:00","Use_":"Seating","Use_Subcat":"Midblock","Size__Acre":0.147543617998,"Size__Sq_F":6427,"Ownership":"Private","Ownership_":"POPS","Links":"https://apops.mas.org/pops/m060019/"}},{"type":"Feature","id":35,"geometry":{"type":"Point","coordinates":[-73.9614610002249,40.7639760001923]},"properties":{"FID":35,"dataSource":"NYC Open Data - POPS","Address":"304 EAST 65 STREET, New York, NY 10065","UniqueID":"M080021","OBJECTID_1":19,"Park_Name":"304 East 65 Street","Borough":"MN","Building_N":"Rio","Year":"1987-01-01 00:00:00","Use_":"Seating","Use_Subcat":"Midblock","Size__Acre":0.0930670339761,"Size__Sq_F":4054,"Ownership":"Private","Ownership_":"POPS","Links":"https://apops.mas.org/pops/m080021/"}},{"type":"Feature","id":36,"geometry":{"type":"Point","coordinates":[-73.9860920002455,40.760894000158]},"properties":{"FID":36,"dataSource":"NYC Open Data - POPS","Address":"235 WEST 48 STREET, New York, NY 10036","UniqueID":"M050081","OBJECTID_1":46,"Park_Name":"235 West 48 Street","Borough":"MN","Building_N":"Ritz","Year":"1989-01-01 00:00:00","Use_":"Seating","Use_Subcat":"Midblock","Size__Acre":0.153590909091,"Size__Sq_F":6690.42,"Ownership":"Private","Ownership_":"POPS","Links":"https://apops.mas.org/pops/m050081/"}},{"type":"Feature","id":37,"geometry":{"type":"Point","coordinates":[-73.9744759996676,40.7602579996071]},"properties":{"FID":37,"dataSource":"NYC Open Data - POPS","Address":"520 MADISON AVENUE, New York, NY 10022","UniqueID":"M050025","OBJECTID_1":8,"Park_Name":"520 Madison Avenue","Borough":"MN","Building_N":" ","Year":"1982-01-01 00:00:00","Use_":"Seating","Use_Subcat":"Midblock","Size__Acre":0.0599173553719,"Size__Sq_F":2610,"Ownership":"Private","Ownership_":"POPS","Links":"https://apops.mas.org/pops/m050025/"}},{"type":"Feature","id":38,"geometry":{"type":"Point","coordinates":[-73.969059999919,40.7546350002052]},"properties":{"FID":38,"dataSource":"NYC Open Data - POPS","Address":"255 EAST 49 STREET, New York, NY 10017","UniqueID":"M060050","OBJECTID_1":24,"Park_Name":"255 East 49 Street","Borough":"MN","Building_N":"Sterling Plaza","Year":"1985-01-01 00:00:00","Use_":"Seating","Use_Subcat":"Midblock","Size__Acre":0.109260560147,"Size__Sq_F":4759.39,"Ownership":"Private","Ownership_":"POPS","Links":"https://apops.mas.org/pops/m060050/"}},{"type":"Feature","id":39,"geometry":{"type":"Point","coordinates":[-73.982198999684,40.7509650000348]},"properties":{"FID":39,"dataSource":"NYC Open Data - POPS","Address":"425 FIFTH AVENUE, New York, NY 10016","UniqueID":"M050103","OBJECTID_1":11,"Park_Name":"425 Fifth Avenue","Borough":"MN","Building_N":" ","Year":"2003-01-01 00:00:00","Use_":"Seating","Use_Subcat":"Midblock","Size__Acre":0.066120523416,"Size__Sq_F":2880.21,"Ownership":"Private","Ownership_":"POPS","Links":"https://apops.mas.org/pops/m050103/"}},{"type":"Feature","id":40,"geometry":{"type":"Point","coordinates":[-73.9836269998861,40.7433739998103]},"properties":{"FID":40,"dataSource":"NYC Open Data - POPS","Address":"407 PARK AVENUE SOUTH, New York, NY 10016","UniqueID":"M050093","OBJECTID_1":15,"Park_Name":"407 Park Avenue South","Borough":"MN","Building_N":"Ascot","Year":"1984-01-01 00:00:00","Use_":"Seating","Use_Subcat":"Midblock","Size__Acre":0.084620523416,"Size__Sq_F":3686.07,"Ownership":"Private","Ownership_":"POPS","Links":"https://apops.mas.org/pops/m050093/"}},{"type":"Feature","id":41,"geometry":{"type":"Point","coordinates":[-73.9759520002846,40.7493589997181]},"properties":{"FID":41,"dataSource":"NYC Open Data - POPS","Address":"600 THIRD AVENUE, New York, NY 10016","UniqueID":"M060010","OBJECTID_1":42,"Park_Name":"600 Third Avenue","Borough":"MN","Building_N":" ","Year":"1970-01-01 00:00:00","Use_":"Seating","Use_Subcat":"Midblock","Size__Acre":0.151120982553,"Size__Sq_F":6582.83,"Ownership":"Private","Ownership_":"POPS","Links":"https://apops.mas.org/pops/m060010/"}},{"type":"Feature","id":42,"geometry":{"type":"Point","coordinates":[-73.9733309999257,40.7515809996635]},"properties":{"FID":42,"dataSource":"NYC Open Data - POPS","Address":"685 THIRD AVENUE, New York, NY 10017","UniqueID":"M060041","OBJECTID_1":18,"Park_Name":"685 Third Avenue","Borough":"MN","Building_N":" ","Year":"1975-01-01 00:00:00","Use_":"Seating","Use_Subcat":"Midblock","Size__Acre":0.0918273645546,"Size__Sq_F":4000,"Ownership":"Private","Ownership_":"POPS","Links":"https://apops.mas.org/pops/m060041/"}},{"type":"Feature","id":43,"geometry":{"type":"Point","coordinates":[-73.9528400001658,40.7796150001322]},"properties":{"FID":43,"dataSource":"NYC Open Data - POPS","Address":"201 EAST 87 STREET, New York, NY 10128","UniqueID":"M080049","OBJECTID_1":9,"Park_Name":"201 East 87 Street","Borough":"MN","Building_N":"Claridge House","Year":"1975-01-01 00:00:00","Use_":"Seating","Use_Subcat":"Midblock","Size__Acre":0.0619582185491,"Size__Sq_F":2698.9,"Ownership":"Private","Ownership_":"POPS","Links":"https://apops.mas.org/pops/m080049"}},{"type":"Feature","id":44,"geometry":{"type":"Point","coordinates":[-73.9630139998961,40.7561509999687]},"properties":{"FID":44,"dataSource":"NYC Open Data - POPS","Address":"415 EAST 54 STREET, New York, NY 10022","UniqueID":"M060076","OBJECTID_1":44,"Park_Name":"415 East 54 Street","Borough":"MN","Building_N":"St. James Tower","Year":"1983-01-01 00:00:00","Use_":"Seating","Use_Subcat":"Midblock","Size__Acre":0.151928374656,"Size__Sq_F":6618,"Ownership":"Private","Ownership_":"POPS","Links":"https://apops.mas.org/pops/m060076/"}},{"type":"Feature","id":45,"geometry":{"type":"Point","coordinates":[-74.0137139997013,40.7091610003799]},"properties":{"FID":45,"dataSource":"NYC Open Data - POPS","Address":"123 WASHINGTON STREET, New York, NY 10006","UniqueID":"M010051","OBJECTID_1":38,"Park_Name":"123 Washington Street","Borough":"MN","Building_N":"W Downtown Hotel & Residences","Year":"2010-01-01 00:00:00","Use_":"Seating","Use_Subcat":"Midblock","Size__Acre":0.137235996327,"Size__Sq_F":5978,"Ownership":"Private","Ownership_":"POPS","Links":"https://apops.mas.org/pops/m010051/"}},{"type":"Feature","id":46,"geometry":{"type":"Point","coordinates":[-73.972442000298,40.7551380000187]},"properties":{"FID":46,"dataSource":"NYC Open Data - POPS","Address":"141 EAST 48 STREET, New York, NY 10017","UniqueID":"M060028","OBJECTID_1":10,"Park_Name":"141 East 48 Street","Borough":"MN","Building_N":"Cosmopolitan","Year":"1985-01-01 00:00:00","Use_":"Seating","Use_Subcat":"Midblock","Size__Acre":0.0633799357208,"Size__Sq_F":2760.83,"Ownership":"Private","Ownership_":"POPS","Links":"https://apops.mas.org/pops/m060028/"}},{"type":"Feature","id":47,"geometry":{"type":"Point","coordinates":[-73.9732210002489,40.7472420001183]},"properties":{"FID":47,"dataSource":"NYC Open Data - POPS","Address":"311 EAST 38 STREET, New York, NY 10016","UniqueID":"M060023","OBJECTID_1":16,"Park_Name":"311 East 38 Street","Borough":"MN","Building_N":"Whitney","Year":"1984-01-01 00:00:00","Use_":"Seating","Use_Subcat":"Midblock","Size__Acre":0.0888698347107,"Size__Sq_F":3871.17,"Ownership":"Private","Ownership_":"POPS","Links":"https://apops.mas.org/pops/m060023/"}},{"type":"Feature","id":48,"geometry":{"type":"Point","coordinates":[-73.9681756039209,40.8017469190851]},"properties":{"FID":48,"dataSource":"NYC Open Data - Parks Properties","Address":"Broadway, W. 106 St., W. End Ave.","UniqueID":"100004226","OBJECTID_1":127,"Park_Name":"Straus Park","Borough":"MN","Building_N":" ","Year":"05/01/1895","Use_":"Seating","Use_Subcat":"Standalone","Size__Acre":0.072,"Size__Sq_F":3136.32,"Ownership":"Public","Ownership_":"NYC Parks","Links":" "}},{"type":"Feature","id":49,"geometry":{"type":"Point","coordinates":[-73.8885878655375,40.8266125279459]},"properties":{"FID":49,"dataSource":"NYC Open Data - Parks Properties","Address":"Bryant Ave., Westchester Ave., Longfellow Ave.","UniqueID":"100003725","OBJECTID_1":61,"Park_Name":"Bryant Triangle","Borough":"BX","Building_N":" ","Year":"01/15/1893","Use_":"Seating","Use_Subcat":"Standalone","Size__Acre":0.17,"Size__Sq_F":7405.2,"Ownership":"Public","Ownership_":"NYC Parks","Links":" "}},{"type":"Feature","id":50,"geometry":{"type":"Point","coordinates":[-73.8023729114806,40.6776543271855]},"properties":{"FID":50,"dataSource":"NYC Open Data - Parks Properties","Address":"Van Wyck Exwy. Sr. Rd. E., 139 St., Fooch Blvd.","UniqueID":"100000180","OBJECTID_1":83,"Park_Name":"Foch Sitting Area","Borough":"QN","Building_N":" ","Year":"1946-03-06 00:00:00","Use_":"Seating","Use_Subcat":"Standalone","Size__Acre":0.051,"Size__Sq_F":2221.56,"Ownership":"Public","Ownership_":"NYC Parks","Links":" "}},{"type":"Feature","id":51,"geometry":{"type":"Point","coordinates":[-73.9907614691664,40.7287869980216]},"properties":{"FID":51,"dataSource":"NYC Open Data - Parks Properties","Address":"3 Av To 4 Av, E 6 St To E 7 St","UniqueID":"100004049","OBJECTID_1":67,"Park_Name":"Cooper Triangle","Borough":"MN","Building_N":" ","Year":"12/23/1828","Use_":"Seating","Use_Subcat":"Standalone","Size__Acre":0.165,"Size__Sq_F":7187.4,"Ownership":"Public","Ownership_":"NYC Parks","Links":" "}},{"type":"Feature","id":52,"geometry":{"type":"Point","coordinates":[-73.9835191675755,40.7147820671387]},"properties":{"FID":52,"dataSource":"NYC Open Data - Parks Properties","Address":"Grand St, E Broadway and Willet St","UniqueID":"100003740","OBJECTID_1":55,"Park_Name":"Ahearn Park","Borough":"MN","Building_N":" ","Year":"02/24/1825","Use_":"Seating","Use_Subcat":"Midblock","Size__Acre":0.094,"Size__Sq_F":4094.64,"Ownership":"Public","Ownership_":"NYC Parks","Links":" "}},{"type":"Feature","id":53,"geometry":{"type":"Point","coordinates":[-73.9051714872743,40.8451842062861]},"properties":{"FID":53,"dataSource":"NYC Open Data - Parks Properties","Address":"Cross Bronx Exwy Service Rd N bet. Topping Av and Clay Av","UniqueID":"100005054","OBJECTID_1":112,"Park_Name":"Peace Park","Borough":"BX","Building_N":" ","Year":"1957-03-28 00:00:00","Use_":"Recreation","Use_Subcat":"Playground","Size__Acre":0.141,"Size__Sq_F":6141.96,"Ownership":"Public","Ownership_":"NYC Parks","Links":" "}},{"type":"Feature","id":54,"geometry":{"type":"Point","coordinates":[-73.9233511142625,40.8383091707317]},"properties":{"FID":54,"dataSource":"NYC Open Data - Parks Properties","Address":"Shakespeare Av at W 168 St and Wodycrest Av","UniqueID":"100005127","OBJECTID_1":102,"Park_Name":"Martin Luther King Triangle 168th St","Borough":"BX","Building_N":" ","Year":"1913-05-01 00:00:00","Use_":"Seating","Use_Subcat":"Standalone","Size__Acre":0.117,"Size__Sq_F":5096.52,"Ownership":"Public","Ownership_":"NYC Parks","Links":" "}},{"type":"Feature","id":55,"geometry":{"type":"Point","coordinates":[-73.9413946612346,40.5834736541859]},"properties":{"FID":55,"dataSource":"NYC Open Data - Parks Properties","Address":"E. 27 St. and Emmons Ave.","UniqueID":"100004232","OBJECTID_1":133,"Park_Name":"Tucker Place","Borough":"BK","Building_N":" ","Year":"1953-03-26 00:00:00","Use_":"Seating","Use_Subcat":"Midblock","Size__Acre":0.155,"Size__Sq_F":6751.8,"Ownership":"Public","Ownership_":"NYC Parks","Links":" "}},{"type":"Feature","id":56,"geometry":{"type":"Point","coordinates":[-73.9883182872591,40.7486118375663]},"properties":{"FID":56,"dataSource":"NYC Open Data - Parks Properties","Address":"Broadway, Av of the Americas, bet. W. 32 St. and W. 33 St.","UniqueID":"100005133","OBJECTID_1":89,"Park_Name":"Greeley Square Park","Borough":"MN","Building_N":" ","Year":"10/19/1846","Use_":"Seating","Use_Subcat":"Standalone","Size__Acre":0.144,"Size__Sq_F":6272.64,"Ownership":"Public","Ownership_":"NYC Parks","Links":" "}},{"type":"Feature","id":57,"geometry":{"type":"Point","coordinates":[-73.9618330056886,40.6825594076906]},"properties":{"FID":57,"dataSource":"NYC Open Data - Parks Properties","Address":"Grand Ave. bet. Putnam Ave. and Fulton St.","UniqueID":"100008301","OBJECTID_1":109,"Park_Name":"Putnam Triangle","Borough":"BK","Building_N":" ","Year":"2010-08-20 00:00:00","Use_":"Seating","Use_Subcat":"Standalone","Size__Acre":0.013,"Size__Sq_F":566.28,"Ownership":"Public","Ownership_":"NYC Parks","Links":" "}},{"type":"Feature","id":58,"geometry":{"type":"Point","coordinates":[-73.8935878667866,40.7706334411804]},"properties":{"FID":58,"dataSource":"NYC Open Data - Parks Properties","Address":"21 Ave., 20 Ave., bet. 76 St. and 77 St.","UniqueID":"100000473","OBJECTID_1":63,"Park_Name":"Carlos R. Lillo Park","Borough":"QN","Building_N":" ","Year":"2005-10-25 00:00:00","Use_":"Seating","Use_Subcat":"Standalone","Size__Acre":0.099,"Size__Sq_F":4312.44,"Ownership":"Public","Ownership_":"NYC Parks","Links":" "}},{"type":"Feature","id":59,"geometry":{"type":"Point","coordinates":[-73.8583303605577,40.7437721413713]},"properties":{"FID":59,"dataSource":"NYC Open Data - Parks Properties","Address":"Corona Ave. bet. 104 St. and 106 St., 50 Av.","UniqueID":"100000341","OBJECTID_1":68,"Park_Name":"Corona Health Sanctuary","Borough":"QN","Building_N":" ","Year":"2004-04-26 00:00:00","Use_":"Recreation","Use_Subcat":"Playground","Size__Acre":0.101,"Size__Sq_F":4399.56,"Ownership":"Public","Ownership_":"NYC Parks","Links":" "}},{"type":"Feature","id":60,"geometry":{"type":"Point","coordinates":[-73.896566940312,40.7486544213645]},"properties":{"FID":60,"dataSource":"NYC Open Data - Parks Properties","Address":"Broadway, 69 St., 37 Ave.","UniqueID":"100000198","OBJECTID_1":115,"Park_Name":"Pigeon Paradise","Borough":"QN","Building_N":" ","Year":"1924-10-01 00:00:00","Use_":"Seating","Use_Subcat":"Standalone","Size__Acre":0.071,"Size__Sq_F":3092.76,"Ownership":"Public","Ownership_":"NYC Parks","Links":" "}},{"type":"Feature","id":61,"geometry":{"type":"Point","coordinates":[-73.9426777419841,40.8283389438872]},"properties":{"FID":61,"dataSource":"NYC Open Data - Parks Properties","Address":"Convent Ave., 151 St. and St. Nicholas Ave.","UniqueID":"100004666","OBJECTID_1":66,"Park_Name":"Convent Garden","Borough":"MN","Building_N":" ","Year":"1985-12-26 00:00:00","Use_":"Seating","Use_Subcat":"Standalone","Size__Acre":0.134,"Size__Sq_F":5837.04,"Ownership":"Public","Ownership_":"NYC Parks","Links":" "}},{"type":"Feature","id":62,"geometry":{"type":"Point","coordinates":[-73.9943037683042,40.7132898922148]},"properties":{"FID":62,"dataSource":"NYC Open Data - Parks Properties","Address":"Henry St., Market St., E. Broadway","UniqueID":"100004756","OBJECTID_1":126,"Park_Name":"Sophie Irene Loeb","Borough":"MN","Building_N":" ","Year":"1924-10-30 00:00:00","Use_":"Recreation","Use_Subcat":"Playground","Size__Acre":0.122,"Size__Sq_F":5314.32,"Ownership":"Public","Ownership_":"NYC Parks","Links":" "}},{"type":"Feature","id":63,"geometry":{"type":"Point","coordinates":[-73.9818904539812,40.7735468255256]},"properties":{"FID":63,"dataSource":"NYC Open Data - Parks Properties","Address":"Broadway To Columbus Ave, W. 66 St.","UniqueID":"100004575","OBJECTID_1":120,"Park_Name":"Richard Tucker Park","Borough":"MN","Building_N":" ","Year":"06/08/1872","Use_":"Seating","Use_Subcat":"Standalone","Size__Acre":0.051,"Size__Sq_F":2221.56,"Ownership":"Public","Ownership_":"NYC Parks","Links":" "}},{"type":"Feature","id":64,"geometry":{"type":"Point","coordinates":[-73.9814921937098,40.779183381308]},"properties":{"FID":64,"dataSource":"NYC Open Data - Parks Properties","Address":"Broadway, Amsterdam Ave. and W. 73 St.","UniqueID":"100004106","OBJECTID_1":135,"Park_Name":"Verdi Square","Borough":"MN","Building_N":" ","Year":"11/14/1887","Use_":"Seating","Use_Subcat":"Standalone","Size__Acre":0.095,"Size__Sq_F":4138.2,"Ownership":"Public","Ownership_":"NYC Parks","Links":" "}},{"type":"Feature","id":65,"geometry":{"type":"Point","coordinates":[-74.0016089064259,40.7303188501349]},"properties":{"FID":65,"dataSource":"NYC Open Data - Parks Properties","Address":"S/e Corner Minetta Lane and Ave. of Americas","UniqueID":"100004867","OBJECTID_1":103,"Park_Name":"Minetta Green","Borough":"MN","Building_N":" ","Year":"1955-07-21 00:00:00","Use_":"Seating","Use_Subcat":"Midblock","Size__Acre":0.056,"Size__Sq_F":2439.36,"Ownership":"Public","Ownership_":"NYC Parks","Links":" "}},{"type":"Feature","id":66,"geometry":{"type":"Point","coordinates":[-73.9898167232631,40.7135882036328]},"properties":{"FID":66,"dataSource":"NYC Open Data - Parks Properties","Address":"Rutgers St. and Henry St.","UniqueID":"100003898","OBJECTID_1":62,"Park_Name":"Captain Jacob Joseph Playground","Borough":"MN","Building_N":" ","Year":"1961-03-23 00:00:00","Use_":"Recreation","Use_Subcat":"Playground","Size__Acre":0.135,"Size__Sq_F":5880.6,"Ownership":"Public","Ownership_":"NYC Parks","Links":" "}},{"type":"Feature","id":67,"geometry":{"type":"Point","coordinates":[-73.9573371697745,40.7087752343896]},"properties":{"FID":67,"dataSource":"NYC Open Data - Parks Properties","Address":"Broadway, Marcy Ave. and S. 5 St.","UniqueID":"100003770","OBJECTID_1":101,"Park_Name":"Marcy Green South","Borough":"BK","Building_N":" ","Year":"1952-02-06 00:00:00","Use_":"Seating","Use_Subcat":"Midblock","Size__Acre":0.104,"Size__Sq_F":4530.24,"Ownership":"Public","Ownership_":"NYC Parks","Links":" "}},{"type":"Feature","id":68,"geometry":{"type":"Point","coordinates":[-73.9566329925186,40.7099791774971]},"properties":{"FID":68,"dataSource":"NYC Open Data - Parks Properties","Address":"Marcy Ave., S. 3 St. and S. 4 St.","UniqueID":"100004505","OBJECTID_1":100,"Park_Name":"Marcy Green North","Borough":"BK","Building_N":" ","Year":"1952-02-06 00:00:00","Use_":"Seating","Use_Subcat":"Standalone","Size__Acre":0.137,"Size__Sq_F":5967.72,"Ownership":"Public","Ownership_":"NYC Parks","Links":" "}},{"type":"Feature","id":69,"geometry":{"type":"Point","coordinates":[-73.9408544897429,40.8171811910591]},"properties":{"FID":69,"dataSource":"NYC Open Data - Parks Properties","Address":"W. 139 St. bet. Adam C Powell Blvd. and Lenox Ave.","UniqueID":"100004814","OBJECTID_1":54,"Park_Name":"Abyssinian Tot Lot","Borough":"MN","Building_N":" ","Year":"1997-12-19 00:00:00","Use_":"Recreation","Use_Subcat":"Playground","Size__Acre":0.118,"Size__Sq_F":5140.08,"Ownership":"Public","Ownership_":"NYC Parks","Links":" "}},{"type":"Feature","id":70,"geometry":{"type":"Point","coordinates":[-73.9843464898985,40.7786185522045]},"properties":{"FID":70,"dataSource":"NYC Open Data - Parks Properties","Address":"71 St. bet. West End Ave. and Amsterdam Ave.","UniqueID":"100004670","OBJECTID_1":121,"Park_Name":"Septuagesimo UNO","Borough":"MN","Building_N":" ","Year":"1981-05-26 00:00:00","Use_":"Seating","Use_Subcat":"Midblock","Size__Acre":0.04,"Size__Sq_F":1742.4,"Ownership":"Public","Ownership_":"NYC Parks","Links":" "}},{"type":"Feature","id":71,"geometry":{"type":"Point","coordinates":[-73.8708363338297,40.7578750003311]},"properties":{"FID":71,"dataSource":"NYC Open Data - Parks Properties","Address":"98 St. bet. Northern Blvd. and 32 Ave.","UniqueID":"100000146","OBJECTID_1":117,"Park_Name":"Private William Gray Park","Borough":"QN","Building_N":" ","Year":"1992-03-12 00:00:00","Use_":"Recreation","Use_Subcat":"Playground","Size__Acre":0.069,"Size__Sq_F":3005.64,"Ownership":"Public","Ownership_":"NYC Parks","Links":" "}},{"type":"Feature","id":72,"geometry":{"type":"Point","coordinates":[-73.9269522335587,40.6632673148347]},"properties":{"FID":72,"dataSource":"NYC Open Data - Parks Properties","Address":"E. 94 St. bet. Rutland Rd. and E. New York Ave.","UniqueID":"100004958","OBJECTID_1":78,"Park_Name":"East Flatbush Children's Park","Borough":"BK","Building_N":" ","Year":"1997-11-24 00:00:00","Use_":"Recreation","Use_Subcat":"Playground","Size__Acre":0.106,"Size__Sq_F":4617.36,"Ownership":"Public","Ownership_":"NYC Parks","Links":" "}},{"type":"Feature","id":73,"geometry":{"type":"Point","coordinates":[-73.9540916963746,40.6481803691288]},"properties":{"FID":73,"dataSource":"NYC Open Data - Parks Properties","Address":"Albemarle Rd. between Bedford Ave. and Veronica Pl. at Lott St.","UniqueID":"100004957","OBJECTID_1":97,"Park_Name":"Lott Park","Borough":"BK","Building_N":" ","Year":"1972-08-14 00:00:00","Use_":"Seating","Use_Subcat":"Midblock","Size__Acre":0.06,"Size__Sq_F":2613.6,"Ownership":"Public","Ownership_":"NYC Parks","Links":" "}},{"type":"Feature","id":74,"geometry":{"type":"Point","coordinates":[-74.0225944361842,40.6219161957758]},"properties":{"FID":74,"dataSource":"NYC Open Data - Parks Properties","Address":"Ft Hamilton Pkwy., 83 St., 6 Ave.","UniqueID":"100004539","OBJECTID_1":131,"Park_Name":"Tom McDonald Triangle","Borough":"BK","Building_N":" ","Year":"1965-02-11 00:00:00","Use_":"Seating","Use_Subcat":"Standalone","Size__Acre":0.032,"Size__Sq_F":1393.92,"Ownership":"Public","Ownership_":"NYC Parks","Links":" "}},{"type":"Feature","id":75,"geometry":{"type":"Point","coordinates":[-73.970376938345,40.7485842166883]},"properties":{"FID":75,"dataSource":"NYC Open Data - Parks Properties","Address":"1 Ave., bet. E. 41 St. and E. 42 St.","UniqueID":"100004486","OBJECTID_1":132,"Park_Name":"Trygve Lie Plaza","Borough":"MN","Building_N":" ","Year":"1948-08-19 00:00:00","Use_":"Seating","Use_Subcat":"Midblock","Size__Acre":0.095,"Size__Sq_F":4138.2,"Ownership":"Public","Ownership_":"NYC Parks","Links":" "}},{"type":"Feature","id":76,"geometry":{"type":"Point","coordinates":[-73.8651079977359,40.6782597184113]},"properties":{"FID":76,"dataSource":"NYC Open Data - Parks Properties","Address":"Eldert La. between Liberty Ave. and Glenmore Ave.","UniqueID":"100004450","OBJECTID_1":118,"Park_Name":"Public Place (East New York)","Borough":"BK","Building_N":" ","Year":"1957-10-23 00:00:00","Use_":"Seating","Use_Subcat":"Standalone","Size__Acre":0.112,"Size__Sq_F":4878.72,"Ownership":"Public","Ownership_":"NYC Parks","Links":" "}},{"type":"Feature","id":77,"geometry":{"type":"Point","coordinates":[-73.9378827214104,40.6954071710042]},"properties":{"FID":77,"dataSource":"NYC Open Data - Parks Properties","Address":"Willoughby Ave. between Lewis Ave. and Marcus Garvey Blvd.","UniqueID":"100004324","OBJECTID_1":96,"Park_Name":"Lewis Playground","Borough":"BK","Building_N":" ","Year":"2000-12-08 00:00:00","Use_":"Recreation","Use_Subcat":"Playground","Size__Acre":0.161,"Size__Sq_F":7013.16,"Ownership":"Public","Ownership_":"NYC Parks","Links":" "}},{"type":"Feature","id":78,"geometry":{"type":"Point","coordinates":[-73.9659274588851,40.6402819878235]},"properties":{"FID":78,"dataSource":"NYC Open Data - Parks Properties","Address":"Argyle Rd. and Cortelyou Rd.","UniqueID":"100003848","OBJECTID_1":99,"Park_Name":"Lt. Federico Narvaez Tot Lot","Borough":"BK","Building_N":" ","Year":"1993-05-17 00:00:00","Use_":"Recreation","Use_Subcat":"Playground","Size__Acre":0.125,"Size__Sq_F":5445,"Ownership":"Public","Ownership_":"NYC Parks","Links":" "}},{"type":"Feature","id":79,"geometry":{"type":"Point","coordinates":[-73.9619283257316,40.6536975255204]},"properties":{"FID":79,"dataSource":"NYC Open Data - Parks Properties","Address":"Woodruff Ave. and Ocean Ave.","UniqueID":"100004310","OBJECTID_1":134,"Park_Name":"Umma Park","Borough":"BK","Building_N":" ","Year":"1993-05-17 00:00:00","Use_":"Recreation","Use_Subcat":"Playground","Size__Acre":0.111,"Size__Sq_F":4835.16,"Ownership":"Public","Ownership_":"NYC Parks","Links":" "}},{"type":"Feature","id":80,"geometry":{"type":"Point","coordinates":[-73.982123632,40.6853033480711]},"properties":{"FID":80,"dataSource":"NYC Open Data - Parks Properties","Address":"Pacific St. between Nevins St. and 3 Ave.","UniqueID":"100004434","OBJECTID_1":107,"Park_Name":"North Pacific Playground","Borough":"BK","Building_N":" ","Year":"1990-04-20 00:00:00","Use_":"Recreation","Use_Subcat":"Playground","Size__Acre":0.155,"Size__Sq_F":6751.8,"Ownership":"Public","Ownership_":"NYC Parks","Links":" "}},{"type":"Feature","id":81,"geometry":{"type":"Point","coordinates":[-73.9017729978256,40.8315422372845]},"properties":{"FID":81,"dataSource":"NYC Open Data - Parks Properties","Address":"E. 169 St and Franklin Ave","UniqueID":"100004214","OBJECTID_1":59,"Park_Name":"Beatty Plaza","Borough":"BX","Building_N":" ","Year":"11/28/1890","Use_":"Seating","Use_Subcat":"Standalone","Size__Acre":0.1,"Size__Sq_F":4356,"Ownership":"Public","Ownership_":"NYC Parks","Links":" "}},{"type":"Feature","id":82,"geometry":{"type":"Point","coordinates":[-73.9274990726241,40.8106837916237]},"properties":{"FID":82,"dataSource":"NYC Open Data - Parks Properties","Address":"Lincoln Av, Third Av, bet. E 137 St and E 138 St","UniqueID":"100005167","OBJECTID_1":87,"Park_Name":"Graham Triangle","Borough":"BX","Building_N":" ","Year":"05/04/1897","Use_":"Seating","Use_Subcat":"Standalone","Size__Acre":0.126,"Size__Sq_F":5488.56,"Ownership":"Public","Ownership_":"NYC Parks","Links":" "}},{"type":"Feature","id":83,"geometry":{"type":"Point","coordinates":[-74.0018363027032,40.7298675793254]},"properties":{"FID":83,"dataSource":"NYC Open Data - Parks Properties","Address":"N/e Corner Ave. of Americas and Minetta St.","UniqueID":"100004960","OBJECTID_1":104,"Park_Name":"Minetta Triangle","Borough":"MN","Building_N":" ","Year":"1945-12-13 00:00:00","Use_":"Seating","Use_Subcat":"Standalone","Size__Acre":0.075,"Size__Sq_F":3267,"Ownership":"Public","Ownership_":"NYC Parks","Links":" "}},{"type":"Feature","id":84,"geometry":{"type":"Point","coordinates":[-73.9005992476571,40.7263510331737]},"properties":{"FID":84,"dataSource":"NYC Open Data - Parks Properties","Address":"Borden Ave., Hamilton Pl., Jay Ave.","UniqueID":"100000342","OBJECTID_1":129,"Park_Name":"Technical Sgt. Thomas J. Davey Triangle","Borough":"QN","Building_N":" ","Year":"1953-12-29 00:00:00","Use_":"Seating","Use_Subcat":"Standalone","Size__Acre":0.126,"Size__Sq_F":5488.56,"Ownership":"Public","Ownership_":"NYC Parks","Links":" "}},{"type":"Feature","id":85,"geometry":{"type":"Point","coordinates":[-73.9015501799968,40.7254069905402]},"properties":{"FID":85,"dataSource":"NYC Open Data - Parks Properties","Address":"55 Dr., 64 St., Hull Ave.","UniqueID":"100000459","OBJECTID_1":93,"Park_Name":"Hull Triangle","Borough":"QN","Building_N":" ","Year":"1953-12-29 00:00:00","Use_":"Seating","Use_Subcat":"Standalone","Size__Acre":0.158,"Size__Sq_F":6882.48,"Ownership":"Public","Ownership_":"NYC Parks","Links":" "}},{"type":"Feature","id":86,"geometry":{"type":"Point","coordinates":[-73.8943493704271,40.7248572025979]},"properties":{"FID":86,"dataSource":"NYC Open Data - Parks Properties","Address":"69 St., 58 Ave., Queens - Mid-Town Exwy. Svc. Rd. S.","UniqueID":"100000460","OBJECTID_1":113,"Park_Name":"Peter Chahales Park","Borough":"QN","Building_N":" ","Year":"1953-12-29 00:00:00","Use_":"Seating","Use_Subcat":"Standalone","Size__Acre":0.074,"Size__Sq_F":3223.44,"Ownership":"Public","Ownership_":"NYC Parks","Links":" "}},{"type":"Feature","id":87,"geometry":{"type":"Point","coordinates":[-74.0021168489134,40.7330102530208]},"properties":{"FID":87,"dataSource":"NYC Open Data - Parks Properties","Address":"Washington Pl., W. 4 St., Barrow St.","UniqueID":"100003726","OBJECTID_1":123,"Park_Name":"Sheridan Square Viewing Garden","Borough":"MN","Building_N":" ","Year":"1989-06-15 00:00:00","Use_":"Seating","Use_Subcat":"Standalone","Size__Acre":0.07,"Size__Sq_F":3049.2,"Ownership":"Public","Ownership_":"NYC Parks","Links":" "}},{"type":"Feature","id":88,"geometry":{"type":"Point","coordinates":[-73.9075726636474,40.7571863291858]},"properties":{"FID":88,"dataSource":"NYC Open Data - Parks Properties","Address":"31 Ave., 51 St., 54 St.","UniqueID":"100000375","OBJECTID_1":128,"Park_Name":"Strippoli Square","Borough":"QN","Building_N":" ","Year":"1953-05-14 00:00:00","Use_":"Seating","Use_Subcat":"Standalone","Size__Acre":0.061,"Size__Sq_F":2657.16,"Ownership":"Public","Ownership_":"NYC Parks","Links":" "}},{"type":"Feature","id":89,"geometry":{"type":"Point","coordinates":[-73.8959040095623,40.7429400238631]},"properties":{"FID":89,"dataSource":"NYC Open Data - Parks Properties","Address":"Woodside Ave., 69 St., the BQE","UniqueID":"100000435","OBJECTID_1":71,"Park_Name":"Winfield Plaza","Borough":"QN","Building_N":" ","Year":"1955-11-17 00:00:00","Use_":"Seating","Use_Subcat":"Standalone","Size__Acre":0.094,"Size__Sq_F":4094.64,"Ownership":"Public","Ownership_":"NYC Parks","Links":" "}},{"type":"Feature","id":90,"geometry":{"type":"Point","coordinates":[-73.8966794374061,40.7423226428757]},"properties":{"FID":90,"dataSource":"NYC Open Data - Parks Properties","Address":"68 St., the BQE bet. Woodside Ave. and 43 Ave.","UniqueID":"100000040","OBJECTID_1":70,"Park_Name":"Crosson Green","Borough":"QN","Building_N":" ","Year":"1955-11-17 00:00:00","Use_":"Seating","Use_Subcat":"Midblock","Size__Acre":0.064,"Size__Sq_F":2787.84,"Ownership":"Public","Ownership_":"NYC Parks","Links":" "}},{"type":"Feature","id":91,"geometry":{"type":"Point","coordinates":[-73.8794211055995,40.7633262714903]},"properties":{"FID":91,"dataSource":"NYC Open Data - Parks Properties","Address":"Astoria Blvd. bet. 90 St. and 89 St.","UniqueID":"100000331","OBJECTID_1":108,"Park_Name":"One Room Schoolhouse Park","Borough":"QN","Building_N":" ","Year":"1934-12-12 00:00:00","Use_":"Seating","Use_Subcat":"Midblock","Size__Acre":0.14,"Size__Sq_F":6098.4,"Ownership":"Public","Ownership_":"NYC Parks","Links":" "}},{"type":"Feature","id":92,"geometry":{"type":"Point","coordinates":[-73.8748419079276,40.7587651663794]},"properties":{"FID":92,"dataSource":"NYC Open Data - Parks Properties","Address":"Jackson Mill Rd., 32 Ave. bet. 93 St. and 94 St.","UniqueID":"100000018","OBJECTID_1":136,"Park_Name":"Veterans Plaza","Borough":"QN","Building_N":" ","Year":"1928-12-13 00:00:00","Use_":"Seating","Use_Subcat":"Standalone","Size__Acre":0.09,"Size__Sq_F":3920.4,"Ownership":"Public","Ownership_":"NYC Parks","Links":" "}},{"type":"Feature","id":93,"geometry":{"type":"Point","coordinates":[-73.9063079254703,40.7455075694188]},"properties":{"FID":93,"dataSource":"NYC Open Data - Parks Properties","Address":"Woodside Ave., 58 St., Roosevelt Ave.","UniqueID":"100000173","OBJECTID_1":125,"Park_Name":"Sohncke Square","Borough":"QN","Building_N":" ","Year":"1922-04-07 00:00:00","Use_":"Seating","Use_Subcat":"Standalone","Size__Acre":0.044,"Size__Sq_F":1916.64,"Ownership":"Public","Ownership_":"NYC Parks","Links":" "}},{"type":"Feature","id":94,"geometry":{"type":"Point","coordinates":[-73.8847333865365,40.8442841009306]},"properties":{"FID":94,"dataSource":"NYC Open Data - Parks Properties","Address":"Mohegan Ave., Crotona Pkwy., E. 179 St.","UniqueID":"100007370","OBJECTID_1":105,"Park_Name":"Mohegan Triangle","Borough":"BX","Building_N":" ","Year":"2002-11-20 00:00:00","Use_":"Recreation","Use_Subcat":"Playground","Size__Acre":0.096,"Size__Sq_F":4181.76,"Ownership":"Public","Ownership_":"NYC Parks","Links":" "}},{"type":"Feature","id":95,"geometry":{"type":"Point","coordinates":[-73.9945627181949,40.6394300456601]},"properties":{"FID":95,"dataSource":"NYC Open Data - Parks Properties","Address":"46 St., 11 Ave., New Utrecht Ave.","UniqueID":"100004468","OBJECTID_1":56,"Park_Name":"Alben Square","Borough":"BK","Building_N":" ","Year":"1923-10-23 00:00:00","Use_":"Seating","Use_Subcat":"Standalone","Size__Acre":0.005,"Size__Sq_F":217.8,"Ownership":"Public","Ownership_":"NYC Parks","Links":" "}},{"type":"Feature","id":96,"geometry":{"type":"Point","coordinates":[-73.961496797739,40.707374367633]},"properties":{"FID":96,"dataSource":"NYC Open Data - Parks Properties","Address":"Lee Ave., Division Ave., Roebling St.","UniqueID":"100003875","OBJECTID_1":124,"Park_Name":"Sobel Playground","Borough":"BK","Building_N":" ","Year":"1914-05-06 00:00:00","Use_":"Recreation","Use_Subcat":"Playground","Size__Acre":0.135,"Size__Sq_F":5880.6,"Ownership":"Public","Ownership_":"NYC Parks","Links":" "}},{"type":"Feature","id":97,"geometry":{"type":"Point","coordinates":[-73.9645138145609,40.6805628210174]},"properties":{"FID":97,"dataSource":"NYC Open Data - Parks Properties","Address":"Pacific St., Washington Ave., Underhill Ave.","UniqueID":"100004918","OBJECTID_1":98,"Park_Name":"Lowry Triangle","Borough":"BK","Building_N":" ","Year":"01/01/1898","Use_":"Seating","Use_Subcat":"Standalone","Size__Acre":0.11,"Size__Sq_F":4791.6,"Ownership":"Public","Ownership_":"NYC Parks","Links":" "}},{"type":"Feature","id":98,"geometry":{"type":"Point","coordinates":[-73.9345673482045,40.6964317380343]},"properties":{"FID":98,"dataSource":"NYC Open Data - Parks Properties","Address":"Broadway, Stuyvesant Ave., Vernon Ave.","UniqueID":"100003773","OBJECTID_1":58,"Park_Name":"Beattie Square","Borough":"BK","Building_N":" ","Year":"10/04/1884","Use_":"Seating","Use_Subcat":"Standalone","Size__Acre":0.012,"Size__Sq_F":522.72,"Ownership":"Public","Ownership_":"NYC Parks","Links":" "}},{"type":"Feature","id":99,"geometry":{"type":"Point","coordinates":[-73.8056573210285,40.674899652497]},"properties":{"FID":99,"dataSource":"NYC Open Data - Parks Properties","Address":"Rockaway Blvd., 120 Ave. bet. 132 St. and 133 St.","UniqueID":"100000351","OBJECTID_1":122,"Park_Name":"Sergeant Colyer Square","Borough":"QN","Building_N":" ","Year":" ","Use_":"Seating","Use_Subcat":"Standalone","Size__Acre":0.104,"Size__Sq_F":4530.24,"Ownership":"Public","Ownership_":"NYC Parks","Links":" "}},{"type":"Feature","id":100,"geometry":{"type":"Point","coordinates":[-73.8098418692069,40.7641164841884]},"properties":{"FID":100,"dataSource":"NYC Open Data - Parks Properties","Address":"Northern Blvd., Roosevelt Ave. bet. 155 St. and 156 St.","UniqueID":"100000104","OBJECTID_1":95,"Park_Name":"Leonard Square","Borough":"QN","Building_N":" ","Year":"1930-04-01 00:00:00","Use_":"Seating","Use_Subcat":"Standalone","Size__Acre":0.06,"Size__Sq_F":2613.6,"Ownership":"Public","Ownership_":"NYC Parks","Links":" "}},{"type":"Feature","id":101,"geometry":{"type":"Point","coordinates":[-73.8162029521045,40.6758564043496]},"properties":{"FID":101,"dataSource":"NYC Open Data - Parks Properties","Address":"Rockaway Blvd. 116 Ave., 122 St.","UniqueID":"100000132","OBJECTID_1":65,"Park_Name":"Catholic War Veterans Square","Borough":"QN","Building_N":" ","Year":"1935-04-11 00:00:00","Use_":"Seating","Use_Subcat":"Standalone","Size__Acre":0.006,"Size__Sq_F":261.36,"Ownership":"Public","Ownership_":"NYC Parks","Links":" "}},{"type":"Feature","id":102,"geometry":{"type":"Point","coordinates":[-73.8882499129031,40.6993633921069]},"properties":{"FID":102,"dataSource":"NYC Open Data - Parks Properties","Address":"Cypress Hills St., Cooper Ave., 65 Pl.","UniqueID":"100000130","OBJECTID_1":75,"Park_Name":"Drumm Triangle","Borough":"QN","Building_N":" ","Year":"1926-02-04 00:00:00","Use_":"Seating","Use_Subcat":"Standalone","Size__Acre":0.166,"Size__Sq_F":7230.96,"Ownership":"Public","Ownership_":"NYC Parks","Links":" "}},{"type":"Feature","id":103,"geometry":{"type":"Point","coordinates":[-73.8672732189838,40.7227038389111]},"properties":{"FID":103,"dataSource":"NYC Open Data - Parks Properties","Address":"Woodhaven Blvd., 63 Dr., Penelope Ave.","UniqueID":"100000468","OBJECTID_1":81,"Park_Name":"Triangle","Borough":"QN","Building_N":" ","Year":"1920-11-11 00:00:00","Use_":"Seating","Use_Subcat":"Standalone","Size__Acre":0.027,"Size__Sq_F":1176.12,"Ownership":"Public","Ownership_":"NYC Parks","Links":" "}},{"type":"Feature","id":104,"geometry":{"type":"Point","coordinates":[-73.8835988567018,40.7463402840769]},"properties":{"FID":104,"dataSource":"NYC Open Data - Parks Properties","Address":"82 St., Ithaca St., Baxter Ave.","UniqueID":"100000464","OBJECTID_1":77,"Park_Name":"Dunningham Triangle","Borough":"QN","Building_N":" ","Year":"1924-09-10 00:00:00","Use_":"Seating","Use_Subcat":"Standalone","Size__Acre":0.003,"Size__Sq_F":130.68,"Ownership":"Public","Ownership_":"NYC Parks","Links":" "}},{"type":"Feature","id":105,"geometry":{"type":"Point","coordinates":[-73.9433221601895,40.7474908074549]},"properties":{"FID":105,"dataSource":"NYC Open Data - Parks Properties","Address":"44 Dr., Hunter St. Crescent St.","UniqueID":"100000399","OBJECTID_1":119,"Park_Name":"Rafferty Triangle","Borough":"QN","Building_N":" ","Year":" ","Use_":"Seating","Use_Subcat":"Standalone","Size__Acre":0.1,"Size__Sq_F":4356,"Ownership":"Public","Ownership_":"NYC Parks","Links":" "}},{"type":"Feature","id":106,"geometry":{"type":"Point","coordinates":[-73.9947947073098,40.6459533635569]},"properties":{"FID":106,"dataSource":"NYC Open Data - Parks Properties","Address":"New Utrecht Ave., 9 Ave., 39 St.","UniqueID":"100004249","OBJECTID_1":92,"Park_Name":"Heffernan Triangle","Borough":"BK","Building_N":" ","Year":" ","Use_":"Seating","Use_Subcat":"Standalone","Size__Acre":0.029,"Size__Sq_F":1263.24,"Ownership":"Public","Ownership_":"NYC Parks","Links":" "}},{"type":"Feature","id":107,"geometry":{"type":"Point","coordinates":[-74.0027146903307,40.728002740634]},"properties":{"FID":107,"dataSource":"NYC Open Data - Parks Properties","Address":"S/s W. Houston St., Ave. of Americas","UniqueID":"100003887","OBJECTID_1":116,"Park_Name":"Playground of the Americas","Borough":"MN","Building_N":" ","Year":"1934-05-09 00:00:00","Use_":"Recreation","Use_Subcat":"Playground","Size__Acre":0.079,"Size__Sq_F":3441.24,"Ownership":"Public","Ownership_":"NYC Parks","Links":" "}},{"type":"Feature","id":108,"geometry":{"type":"Point","coordinates":[-73.9519946770127,40.7487810513045]},"properties":{"FID":108,"dataSource":"NYC Open Data - Parks Properties","Address":"10 St., Vernon Blvd. bet. 44 Rd. and 45 Ave.","UniqueID":"100000295","OBJECTID_1":86,"Park_Name":"Gordon Triangle","Borough":"QN","Building_N":" ","Year":"1912-01-01 00:00:00","Use_":"Seating","Use_Subcat":"Standalone","Size__Acre":0.08,"Size__Sq_F":3484.8,"Ownership":"Public","Ownership_":"NYC Parks","Links":" "}},{"type":"Feature","id":109,"geometry":{"type":"Point","coordinates":[-73.9974385459521,40.7217122913892]},"properties":{"FID":109,"dataSource":"NYC Open Data - Parks Properties","Address":"Kenmare St., Lafayette St., and Cleveland Pl.","UniqueID":"100004585","OBJECTID_1":114,"Park_Name":"Lt. Joseph Petrosino Square","Borough":"MN","Building_N":" ","Year":"1938-01-01 00:00:00","Use_":"Seating","Use_Subcat":"Standalone","Size__Acre":0.047,"Size__Sq_F":2047.32,"Ownership":"Public","Ownership_":"NYC Parks","Links":" "}},{"type":"Feature","id":110,"geometry":{"type":"Point","coordinates":[-73.8361641747368,40.5779535633064]},"properties":{"FID":110,"dataSource":"NYC Open Data - Parks Properties","Address":"Beach 116 St.,  Ocean Promenade","UniqueID":"100000090","OBJECTID_1":82,"Park_Name":"Flight 587 Memorial Park","Borough":"QN","Building_N":" ","Year":"2006-07-24 00:00:00","Use_":"Seating","Use_Subcat":"Standalone","Size__Acre":0.159,"Size__Sq_F":6926.04,"Ownership":"Public","Ownership_":"NYC Parks","Links":" "}},{"type":"Feature","id":111,"geometry":{"type":"Point","coordinates":[-73.9868970508581,40.7011700716416]},"properties":{"FID":111,"dataSource":"NYC Open Data - Parks Properties","Address":"Jay St. bet. York St. and Prospect St.","UniqueID":"100003927","OBJECTID_1":111,"Park_Name":"Maritcha R. Lyons Park","Borough":"BK","Building_N":" ","Year":"1947-07-29 00:00:00","Use_":"Seating","Use_Subcat":"Standalone","Size__Acre":0.09,"Size__Sq_F":3920.4,"Ownership":"Public","Ownership_":"NYC Parks","Links":" "}},{"type":"Feature","id":112,"geometry":{"type":"Point","coordinates":[-73.9875882751787,40.7011597231428]},"properties":{"FID":112,"dataSource":"NYC Open Data - Parks Properties","Address":"Pearl St. at York St. and Manh. Bridge","UniqueID":"100004194","OBJECTID_1":110,"Park_Name":"Bar & Grill Park","Borough":"BK","Building_N":" ","Year":"1947-07-29 00:00:00","Use_":"Recreation","Use_Subcat":"Field","Size__Acre":0.047,"Size__Sq_F":2047.32,"Ownership":"Public","Ownership_":"NYC Parks","Links":" "}},{"type":"Feature","id":113,"geometry":{"type":"Point","coordinates":[-73.7865194133402,40.846600960466]},"properties":{"FID":113,"dataSource":"NYC Open Data - Parks Properties","Address":"City Island Ave. bet. Fordham St. and Hawkins St.","UniqueID":"100004420","OBJECTID_1":91,"Park_Name":"Hawkins Park","Borough":"BX","Building_N":" ","Year":"1933-10-18 00:00:00","Use_":"Seating","Use_Subcat":"Midblock","Size__Acre":0.136,"Size__Sq_F":5924.16,"Ownership":"Public","Ownership_":"NYC Parks","Links":" "}},{"type":"Feature","id":114,"geometry":{"type":"Point","coordinates":[-73.9532204979276,40.6108697592321]},"properties":{"FID":114,"dataSource":"NYC Open Data - Parks Properties","Address":"Ave. P, Kings Hwy., Ocean Ave.","UniqueID":"100006886","OBJECTID_1":69,"Park_Name":"Corporal Wiltshire Square","Borough":"BK","Building_N":" ","Year":"1928-11-13 00:00:00","Use_":"Seating","Use_Subcat":"Standalone","Size__Acre":0.051,"Size__Sq_F":2221.56,"Ownership":"Public","Ownership_":"NYC Parks","Links":" "}},{"type":"Feature","id":115,"geometry":{"type":"Point","coordinates":[-73.8908834309256,40.7283589333182]},"properties":{"FID":115,"dataSource":"NYC Open Data - Parks Properties","Address":"Grand Ave., 57 Ave. bet. 72 Pl and Mazeau St.","UniqueID":"100000167","OBJECTID_1":85,"Park_Name":"Garlinge Triangle","Borough":"QN","Building_N":" ","Year":"1922-11-10 00:00:00","Use_":"Seating","Use_Subcat":"Standalone","Size__Acre":0.008,"Size__Sq_F":348.48,"Ownership":"Public","Ownership_":"NYC Parks","Links":" "}},{"type":"Feature","id":116,"geometry":{"type":"Point","coordinates":[-74.0093384454129,40.7047473930778]},"properties":{"FID":116,"dataSource":"NYC Open Data - Parks Properties","Address":"Hanover Sq., Pearl St. and Stone St.","UniqueID":"100004584","OBJECTID_1":130,"Park_Name":"The Queen Elizabeth II September 11th Garden","Borough":"MN","Building_N":" ","Year":"1952-03-20 00:00:00","Use_":"Seating","Use_Subcat":"Standalone","Size__Acre":0.117,"Size__Sq_F":5096.52,"Ownership":"Public","Ownership_":"NYC Parks","Links":" "}},{"type":"Feature","id":117,"geometry":{"type":"Point","coordinates":[-73.9061489397217,40.8499110645441]},"properties":{"FID":117,"dataSource":"NYC Open Data - Parks Properties","Address":"Echo Pl. E. Tremont Ave., Grand Concourse","UniqueID":"100007206","OBJECTID_1":79,"Park_Name":"Echo Triangle","Borough":"BX","Building_N":" ","Year":"05/31/1899","Use_":"Seating","Use_Subcat":"Standalone","Size__Acre":0.16,"Size__Sq_F":6969.6,"Ownership":"Public","Ownership_":"NYC Parks","Links":" "}},{"type":"Feature","id":118,"geometry":{"type":"Point","coordinates":[-73.9743552243141,40.5967205986768]},"properties":{"FID":118,"dataSource":"NYC Open Data - Parks Properties","Address":"Village Rd. N., Ave. U bet. Van Sicklen St. and Lake St.","UniqueID":"100004477","OBJECTID_1":94,"Park_Name":"Lady Moody Triangle","Borough":"BK","Building_N":" ","Year":"1938-01-01 00:00:00","Use_":"Seating","Use_Subcat":"Standalone","Size__Acre":0.052,"Size__Sq_F":2265.12,"Ownership":"Public","Ownership_":"NYC Parks","Links":" "}},{"type":"Feature","id":119,"geometry":{"type":"Point","coordinates":[-74.0307741173316,40.6163985564482]},"properties":{"FID":119,"dataSource":"NYC Open Data - Parks Properties","Address":"5 Ave., 4 Ave., 94 St.","UniqueID":"100004598","OBJECTID_1":84,"Park_Name":"Fort Hamilton Triangle","Borough":"BK","Building_N":" ","Year":"1916-01-26 00:00:00","Use_":"Seating","Use_Subcat":"Standalone","Size__Acre":0.019,"Size__Sq_F":827.64,"Ownership":"Public","Ownership_":"NYC Parks","Links":" "}},{"type":"Feature","id":120,"geometry":{"type":"Point","coordinates":[-73.987009008359,40.7300395656734]},"properties":{"FID":120,"dataSource":"NYC Open Data - Parks Properties","Address":"E. 10 St. and 2 Ave.","UniqueID":"100004129","OBJECTID_1":53,"Park_Name":"Abe Lebewohl Park","Borough":"MN","Building_N":" ","Year":"1938-01-01 00:00:00","Use_":"Seating","Use_Subcat":"Midblock","Size__Acre":0.156,"Size__Sq_F":6795.36,"Ownership":"Public","Ownership_":"NYC Parks","Links":" "}},{"type":"Feature","id":121,"geometry":{"type":"Point","coordinates":[-73.9472640532934,40.8182624576464]},"properties":{"FID":121,"dataSource":"NYC Open Data - Parks Properties","Address":"W 136 St To W 137 St, St Nicholas Av, Edgecom Av","UniqueID":"100005038","OBJECTID_1":74,"Park_Name":"Dorrance Brooks Square","Borough":"MN","Building_N":" ","Year":"1913-07-22 00:00:00","Use_":"Seating","Use_Subcat":"Standalone","Size__Acre":0.038,"Size__Sq_F":1655.28,"Ownership":"Public","Ownership_":"NYC Parks","Links":" "}},{"type":"Feature","id":122,"geometry":{"type":"Point","coordinates":[-73.9045218422092,40.8525323715717]},"properties":{"FID":122,"dataSource":"NYC Open Data - Parks Properties","Address":"E. Burnside Ave. bet. Creston Ave. and G","UniqueID":"100003877","OBJECTID_1":73,"Park_Name":"Devanney Triangle","Borough":"BX","Building_N":" ","Year":"02/01/1888","Use_":"Seating","Use_Subcat":"Standalone","Size__Acre":0.12,"Size__Sq_F":5227.2,"Ownership":"Public","Ownership_":"NYC Parks","Links":" "}},{"type":"Feature","id":123,"geometry":{"type":"Point","coordinates":[-73.9825435722281,40.7718112859621]},"properties":{"FID":123,"dataSource":"NYC Open Data - Parks Properties","Address":"Broadway, Columbus Av, W 63 St","UniqueID":"100004522","OBJECTID_1":72,"Park_Name":"Dante Park","Borough":"MN","Building_N":" ","Year":"12/23/1870","Use_":"Seating","Use_Subcat":"Standalone","Size__Acre":0.142,"Size__Sq_F":6185.52,"Ownership":"Public","Ownership_":"NYC Parks","Links":" "}},{"type":"Feature","id":124,"geometry":{"type":"Point","coordinates":[-73.9524446438052,40.8038761989275]},"properties":{"FID":124,"dataSource":"NYC Open Data - Parks Properties","Address":"7 Av, St Nicholas Av, W 117 St","UniqueID":"100004558","OBJECTID_1":52,"Park_Name":"A Philip Randolph Square","Borough":"MN","Building_N":" ","Year":"06/18/1896","Use_":"Seating","Use_Subcat":"Standalone","Size__Acre":0.074,"Size__Sq_F":3223.44,"Ownership":"Public","Ownership_":"NYC Parks","Links":" "}},{"type":"Feature","id":125,"geometry":{"type":"Point","coordinates":[-73.9099152797663,40.8453092237417]},"properties":{"FID":125,"dataSource":"NYC Open Data - Parks Properties","Address":"N/s Cross Bronx Exwy bet. Morris Av and Grand Concourse","UniqueID":"100005180","OBJECTID_1":106,"Park_Name":"Morris Mesa","Borough":"BX","Building_N":" ","Year":"1957-03-28 00:00:00","Use_":"Recreation","Use_Subcat":"Playground","Size__Acre":0.15,"Size__Sq_F":6534,"Ownership":"Public","Ownership_":"NYC Parks","Links":" "}},{"type":"Feature","id":126,"geometry":{"type":"Point","coordinates":[-73.9208784336927,40.8464232391412]},"properties":{"FID":126,"dataSource":"NYC Open Data - Parks Properties","Address":"Dr. MLK Jr. Blvd and Featherbed La.","UniqueID":"100004764","OBJECTID_1":80,"Park_Name":"Featherbed Triangle","Borough":"BX","Building_N":" ","Year":"1917-01-05 00:00:00","Use_":"Seating","Use_Subcat":"Standalone","Size__Acre":0.17,"Size__Sq_F":7405.2,"Ownership":"Public","Ownership_":"NYC Parks","Links":" "}},{"type":"Feature","id":127,"geometry":{"type":"Point","coordinates":[-74.0093666238706,40.7171743815925]},"properties":{"FID":127,"dataSource":"NYC Open Data - Parks Properties","Address":"Hudson St., Duane St.","UniqueID":"100004491","OBJECTID_1":76,"Park_Name":"Duane Park","Borough":"MN","Building_N":" ","Year":"06/20/1797","Use_":"Seating","Use_Subcat":"Standalone","Size__Acre":0.115,"Size__Sq_F":5009.4,"Ownership":"Public","Ownership_":"NYC Parks","Links":" "}},{"type":"Feature","id":128,"geometry":{"type":"Point","coordinates":[-73.9532762091297,40.8095337871546]},"properties":{"FID":128,"dataSource":"NYC Open Data - Parks Properties","Address":"St Nicholas Av, Manhattan Av, W 123 St","UniqueID":"100004965","OBJECTID_1":90,"Park_Name":"Hancock Park","Borough":"MN","Building_N":" ","Year":"08/16/1870","Use_":"Seating","Use_Subcat":"Standalone","Size__Acre":0.067,"Size__Sq_F":2918.52,"Ownership":"Public","Ownership_":"NYC Parks","Links":" "}},{"type":"Feature","id":129,"geometry":{"type":"Point","coordinates":[-73.8859380967657,40.8510685621645]},"properties":{"FID":129,"dataSource":"NYC Open Data - Parks Properties","Address":"Crotona Ave. at Grote St. and Garden St.","UniqueID":"100004029","OBJECTID_1":138,"Park_Name":"Whalen Grove","Borough":"BX","Building_N":" ","Year":"1913-06-12 00:00:00","Use_":"Seating","Use_Subcat":"Standalone","Size__Acre":0.13,"Size__Sq_F":5662.8,"Ownership":"Public","Ownership_":"NYC Parks","Links":" "}},{"type":"Feature","id":130,"geometry":{"type":"Point","coordinates":[-73.7471823466879,40.7682507845461]},"properties":{"FID":130,"dataSource":"NYC Open Data - Parks Properties","Address":"Douglaston Pkwy., Prospect Ave. bet. Poplar St. and Pine St.","UniqueID":"100000465","OBJECTID_1":64,"Park_Name":"Catharine Turner Richardson Park","Borough":"QN","Building_N":" ","Year":" ","Use_":"Seating","Use_Subcat":"Standalone","Size__Acre":0.101,"Size__Sq_F":4399.56,"Ownership":"Public","Ownership_":"NYC Parks","Links":" "}},{"type":"Feature","id":131,"geometry":{"type":"Point","coordinates":[-74.0050391302516,40.7223038591358]},"properties":{"FID":131,"dataSource":"NYC Open Data - Parks Properties","Address":"Thompson St., Canal St., Ave. of the Americas","UniqueID":"100004229","OBJECTID_1":88,"Park_Name":"Grand Canal Court","Borough":"MN","Building_N":" ","Year":"1955-10-20 00:00:00","Use_":"Recreation","Use_Subcat":"Court","Size__Acre":0.134,"Size__Sq_F":5837.04,"Ownership":"Public","Ownership_":"NYC Parks","Links":" "}},{"type":"Feature","id":132,"geometry":{"type":"Point","coordinates":[-73.9309279645539,40.8518792164527]},"properties":{"FID":132,"dataSource":"NYC Open Data - Parks Properties","Address":"W. 186 St., Audubon Ave., St Nicholas Ave.","UniqueID":"100004379","OBJECTID_1":137,"Park_Name":"West 186th Street Basketball Court","Borough":"MN","Building_N":" ","Year":"1997-12-19 00:00:00","Use_":"Recreation","Use_Subcat":"Court","Size__Acre":0.123,"Size__Sq_F":5357.88,"Ownership":"Public","Ownership_":"NYC Parks","Links":" "}},{"type":"Feature","id":133,"geometry":{"type":"Point","coordinates":[-73.9232270150147,40.8115079986952]},"properties":{"FID":133,"dataSource":"NYC Open Data - Parks Properties","Address":"E. 141 St. bet. Willis Ave. and Alexander Ave.","UniqueID":"100004954","OBJECTID_1":57,"Park_Name":"Alexander's Alley","Borough":"BX","Building_N":" ","Year":"1937-06-02 00:00:00","Use_":"Seating","Use_Subcat":"Midblock","Size__Acre":0.11,"Size__Sq_F":4791.6,"Ownership":"Public","Ownership_":"NYC Parks","Links":" "}},{"type":"Feature","id":134,"geometry":{"type":"Point","coordinates":[-73.8941845103068,40.8621408110496]},"properties":{"FID":134,"dataSource":"NYC Open Data - Parks Properties","Address":"E. Kingsbridge Rd. at E. Fordham Rd.","UniqueID":"100003722","OBJECTID_1":60,"Park_Name":"Bryan Park","Borough":"BX","Building_N":" ","Year":"1933-06-21 00:00:00","Use_":"Seating","Use_Subcat":"Standalone","Size__Acre":0.15,"Size__Sq_F":6534,"Ownership":"Public","Ownership_":"NYC Parks","Links":" "}},{"type":"Feature","id":135,"geometry":{"type":"Point","coordinates":[-73.9750800095348,40.7603468571218]},"properties":{"FID":135,"dataSource":"PLUTO & Research","Address":"3 EAST 53 STREET, New York, NY 10022","UniqueID":"1012890006","OBJECTID_1":3,"Park_Name":"Paley Park","Borough":"MN","Building_N":" ","Year":"1967-01-01 00:00:00","Use_":"Seating","Use_Subcat":"Midblock","Size__Acre":0.0964187327824,"Size__Sq_F":4200,"Ownership":"Private","Ownership_":"Nonprofit","Links":" "}},{"type":"Feature","id":137,"geometry":{"type":"Point","coordinates":[-73.969279509142,40.7562725424439]},"properties":{"FID":137,"dataSource":"PLUTO & Research","Address":"217 EAST 51 STREET, New York, NY 10022","UniqueID":"1013250010","OBJECTID_1":4,"Park_Name":"Greenacre Park","Borough":"MN","Building_N":" ","Year":"1971-01-01 00:00:00","Use_":"Seating","Use_Subcat":"Midblock","Size__Acre":0.137741046832,"Size__Sq_F":6000,"Ownership":"Private","Ownership_":"Nonprofit","Links":" "}},{"type":"Feature","id":138,"geometry":{"type":"Point","coordinates":[-73.9429733653285,40.8097962695822]},"properties":{"FID":138,"dataSource":"PLUTO & Research","Address":"54 West 129th Street, New York, NY 10027","UniqueID":"1017260065","OBJECTID_1":2,"Park_Name":"Harlem Village Green","Borough":"MN","Building_N":" ","Year":"1994-01-01 00:00:00","Use_":"Recreation","Use_Subcat":"Field","Size__Acre":0.0619834710744,"Size__Sq_F":2700,"Ownership":"Private","Ownership_":"Nonprofit","Links":" "}},{"type":"Feature","id":139,"geometry":{"type":"Point","coordinates":[-73.9429232703926,40.8094552772393]},"properties":{"FID":139,"dataSource":"PLUTO & Research","Address":"65 WEST 128 STREET, New York, NY 10027","UniqueID":"1017260011","OBJECTID_1":139,"Park_Name":"Rev. Linette C Williamson Memorial Park 2","Borough":"MN","Building_N":" ","Year":"1965-01-01 00:00:00","Use_":"Seating","Use_Subcat":"Midblock","Size__Acre":0.0573921028466,"Size__Sq_F":2500,"Ownership":"Private","Ownership_":"Nonprofit","Links":" "}},{"type":"Feature","id":140,"geometry":{"type":"Point","coordinates":[-73.9747697041312,40.7573413795298]},"properties":{"FID":140,"dataSource":"PLUTO & Research","Address":"48 East 50th Street","UniqueID":null,"OBJECTID_1":null,"Park_Name":"50th Street Commons","Borough":"MN","Building_N":null,"Year":"9/16/2014","Use_":"Seating","Use_Subcat":"Midblock","Size__Acre":0.055,"Size__Sq_F":2400,"Ownership":"Public","Ownership_":"Public Authority","Links":null}},{"type":"Feature","id":141,"geometry":{"type":"Point","coordinates":[-73.982899479655,40.7597001684047]},"properties":{"FID":141,"dataSource":"PLUTO & Research","Address":"1221 6th Ave","UniqueID":null,"OBJECTID_1":null,"Park_Name":"McGraw Hill Pocket Park","Borough":"MN","Building_N":null,"Year":"1/1/1970","Use_":"Seating","Use_Subcat":"Midblock","Size__Acre":0.13,"Size__Sq_F":5700,"Ownership":"Private","Ownership_":"Nonprofit","Links":null}}]}