{"type":"FeatureCollection","crs":{"type":"name","properties":{"name":"EPSG:4326"}},"features":[{"type":"Feature","id":1,"geometry":{"type":"Polygon","coordinates":[[[-73.994525921677,40.7267343523187],[-73.9947568482444,40.7264612999349],[-73.9949930465233,40.7265786458679],[-73.9947621773672,40.7268517418945],[-73.994525921677,40.7267343523187]]]},"properties":{"FID":1,"cartodb_id":1,"objectid":1,"borough":"MN","block":529,"lot":7504,"cd":102,"ct2010":"55.02","cb2010":"2003","schooldist":"02","council":1,"zipcode":10012,"firecomp":"L009","policeprct":9,"healthcent":15,"healtharea":5700,"sanitboro":"1","sanitdistr":"02","sanitsub":"2A","address":"1 BOND STREET","zonedist1":"M1-5B","zonedist2":" ","zonedist3":" ","zonedist4":" ","overlay1":" ","overlay2":" ","spdist1":" ","spdist2":" ","spdist3":" ","ltdheight":" ","splitzone":"N","bldgclass":"RM","landuse":"04","easements":0,"ownertype":" ","ownername":"1-5 BOND STREET CONDOMINIUM","lotarea":8700,"bldgarea":47345,"comarea":8398,"resarea":38947,"officearea":0,"retailarea":8398,"garagearea":0,"strgearea":0,"factryarea":0,"otherarea":0,"areasource":"2","numbldgs":1,"numfloors":6,"unitsres":18,"unitstotal":19,"lotfront":76,"lotdepth":114.5,"bldgfront":0,"bldgdepth":0,"ext":" ","proxcode":"0","irrlotcode":"Y","lottype":"5","bsmtcode":"5","assessland":1516501,"assesstot":6038104,"exempttot":9560,"yearbuilt":1880,"yearalter1":0,"yearalter2":0,"histdist":"NoHo Historic District","landmark":" ","builtfar":5.44,"residfar":0,"commfar":5,"facilfar":6.5,"borocode":1,"bbl":1005297504,"condono":631,"tract2010":"005502","xcoord":985702,"ycoord":204017,"zonemap":"12c","zmcode":" ","sanborn":"103 009","taxmap":"10207","edesignum":" ","appbbl":1005290010,"appdate":"07/22/1989","plutomapid":"1","firm07_fla":" ","pfirm15_fl":" ","version":"20v8","dcpedited":"t","latitude":40.7266561,"longitude":-73.9947613,"notes":" ","dsow_id":" ","projected":0,"potential":0,"lotcount":0,"zoninglota":0,"totzfa":0,"totgfa":0,"rfar":0,"cffar":0,"cfar":0,"totfar":0,"calctotfar":0,"totht":0,"resunits":0,"resunits20":0,"resunits25":0,"resunits30":0,"updateland":"Individual","lmkdesigda":"5/22/1979","lmkname":"Robbins & Appleton Building","shape_leng":392.994238534,"shape_area":9250.66923648}},{"type":"Feature","id":2,"geometry":{"type":"Polygon","coordinates":[[[-73.9923455381238,40.7270658016867],[-73.9925288483751,40.7268502616578],[-73.9926640246898,40.7269175482585],[-73.992479989008,40.727133940376],[-73.9924116390204,40.7270999155685],[-73.9923455381238,40.7270658016867]]]},"properties":{"FID":2,"cartodb_id":2,"objectid":2,"borough":"MN","block":531,"lot":49,"cd":102,"ct2010":"55.02","cb2010":"1000","schooldist":"02","council":1,"zipcode":10012,"firecomp":"L009","policeprct":9,"healthcent":15,"healtharea":5700,"sanitboro":"1","sanitdistr":"02","sanitsub":"2A","address":"42 GREAT JONES STREET","zonedist1":"M1-5B","zonedist2":" ","zonedist3":" ","zonedist4":" ","overlay1":" ","overlay2":" ","spdist1":" ","spdist2":" ","spdist3":" ","ltdheight":" ","splitzone":"N","bldgclass":"Y1","landuse":"08","easements":0,"ownertype":"C","ownername":"FIRE DEPARTMENT OF NEW YORK","lotarea":4027,"bldgarea":13308,"comarea":13308,"resarea":0,"officearea":0,"retailarea":0,"garagearea":0,"strgearea":0,"factryarea":0,"otherarea":13308,"areasource":"2","numbldgs":1,"numfloors":4,"unitsres":0,"unitstotal":1,"lotfront":44.42,"lotdepth":90.42,"bldgfront":44.42,"bldgdepth":90,"ext":"N","proxcode":"0","irrlotcode":"Y","lottype":"5","bsmtcode":"2","assessland":228150,"assesstot":501750,"exempttot":501750,"yearbuilt":1899,"yearalter1":0,"yearalter2":0,"histdist":"NoHo Historic District Extension","landmark":" ","builtfar":3.3,"residfar":0,"commfar":5,"facilfar":6.5,"borocode":1,"bbl":1005310049,"condono":0,"tract2010":"005502","xcoord":986327,"ycoord":204139,"zonemap":"12c","zmcode":" ","sanborn":"103 010","taxmap":"10207","edesignum":" ","appbbl":0,"appdate":" ","plutomapid":"1","firm07_fla":" ","pfirm15_fl":" ","version":"20v8","dcpedited":"t","latitude":40.7269908,"longitude":-73.9925064,"notes":" ","dsow_id":" ","projected":0,"potential":0,"lotcount":0,"zoninglota":0,"totzfa":0,"totgfa":0,"rfar":0,"cffar":0,"cfar":0,"totfar":0,"calctotfar":0,"totht":0,"resunits":0,"resunits20":0,"resunits25":0,"resunits30":0,"updateland":"Individual","lmkdesigda":"11/12/1968","lmkname":"Fire Engine Company No. 33","shape_leng":276.984970296,"shape_area":4200.15285624}},{"type":"Feature","id":3,"geometry":{"type":"Polygon","coordinates":[[[-73.999237409969,40.7218044873685],[-73.9993613085986,40.7216571828205],[-73.9996920985137,40.7217990936652],[-73.9995614204692,40.7219544608079],[-73.999237409969,40.7218044873685]]]},"properties":{"FID":3,"cartodb_id":3,"objectid":3,"borough":"MN","block":483,"lot":1,"cd":102,"ct2010":"45","cb2010":"1002","schooldist":"02","council":1,"zipcode":10012,"firecomp":"E055","policeprct":5,"healthcent":15,"healtharea":6800,"sanitboro":"1","sanitdistr":"02","sanitsub":"1A","address":"490 BROADWAY","zonedist1":"M1-5B","zonedist2":" ","zonedist3":" ","zonedist4":" ","overlay1":" ","overlay2":" ","spdist1":" ","spdist2":" ","spdist3":" ","ltdheight":" ","splitzone":"N","bldgclass":"O5","landuse":"05","easements":0,"ownertype":" ","ownername":"PONTE GADEA NEW YORK, LLC","lotarea":5852,"bldgarea":28829,"comarea":28829,"resarea":0,"officearea":19829,"retailarea":9000,"garagearea":0,"strgearea":0,"factryarea":0,"otherarea":0,"areasource":"2","numbldgs":1,"numfloors":5,"unitsres":0,"unitstotal":5,"lotfront":63.08,"lotdepth":100.33,"bldgfront":60,"bldgdepth":100,"ext":"N","proxcode":"2","irrlotcode":"Y","lottype":"3","bsmtcode":"2","assessland":1318500,"assesstot":12955050,"exempttot":0,"yearbuilt":1857,"yearalter1":0,"yearalter2":0,"histdist":"SoHo-Cast Iron Historic District","landmark":" ","builtfar":4.93,"residfar":0,"commfar":5,"facilfar":6.5,"borocode":1,"bbl":1004830001,"condono":0,"tract2010":"0045","xcoord":984398,"ycoord":202249,"zonemap":"12c","zmcode":" ","sanborn":"101N073","taxmap":"10206","edesignum":" ","appbbl":0,"appdate":" ","plutomapid":"1","firm07_fla":" ","pfirm15_fl":" ","version":"20v8","dcpedited":"t","latitude":40.7218035,"longitude":-73.9994661,"notes":" ","dsow_id":" ","projected":0,"potential":0,"lotcount":0,"zoninglota":0,"totzfa":0,"totgfa":0,"rfar":0,"cffar":0,"cfar":0,"totfar":0,"calctotfar":0,"totht":0,"resunits":0,"resunits20":0,"resunits25":0,"resunits30":0,"updateland":"Individual","lmkdesigda":"11/23/1965","lmkname":"E. V. Haughwout Building","shape_leng":341.310038299,"shape_area":6879.78013907}},{"type":"Feature","id":4,"geometry":{"type":"Polygon","coordinates":[[[-74.0012629449573,40.7246406632157],[-74.0012124524428,40.724700404481],[-74.0008996577076,40.72454857252],[-74.0009501490679,40.724488831392],[-74.0011864434748,40.7246035289048],[-74.0012629449573,40.7246406632157]]]},"properties":{"FID":4,"cartodb_id":4,"objectid":4,"borough":"MN","block":501,"lot":30,"cd":102,"ct2010":"49","cb2010":"1007","schooldist":"02","council":1,"zipcode":10012,"firecomp":"L020","policeprct":1,"healthcent":15,"healtharea":6800,"sanitboro":"1","sanitdistr":"02","sanitsub":"1A","address":"99 WOOSTER STREET","zonedist1":"M1-5A","zonedist2":" ","zonedist3":" ","zonedist4":" ","overlay1":" ","overlay2":" ","spdist1":" ","spdist2":" ","spdist3":" ","ltdheight":" ","splitzone":"N","bldgclass":"K2","landuse":"05","easements":0,"ownertype":" ","ownername":"99 WOOSTER LLC","lotarea":2500,"bldgarea":5951,"comarea":5951,"resarea":0,"officearea":3501,"retailarea":2450,"garagearea":0,"strgearea":0,"factryarea":0,"otherarea":0,"areasource":"2","numbldgs":1,"numfloors":3,"unitsres":0,"unitstotal":1,"lotfront":25,"lotdepth":100,"bldgfront":25,"bldgdepth":98,"ext":"E","proxcode":"3","irrlotcode":"N","lottype":"5","bsmtcode":"2","assessland":562500,"assesstot":3026250,"exempttot":0,"yearbuilt":1888,"yearalter1":2012,"yearalter2":0,"histdist":" ","landmark":" ","builtfar":2.38,"residfar":0,"commfar":5,"facilfar":6.5,"borocode":1,"bbl":1005010030,"condono":0,"tract2010":"0049","xcoord":983950,"ycoord":203265,"zonemap":"12a","zmcode":"Y","sanborn":"101N071","taxmap":"10206","edesignum":" ","appbbl":0,"appdate":" ","plutomapid":"1","firm07_fla":" ","pfirm15_fl":" ","version":"20v8","dcpedited":"t","latitude":40.7245921,"longitude":-74.0010823,"notes":" ","dsow_id":" ","projected":0,"potential":0,"lotcount":0,"zoninglota":0,"totzfa":0,"totgfa":0,"rfar":0,"cffar":0,"cfar":0,"totfar":0,"calctotfar":0,"totht":0,"resunits":0,"resunits20":0,"resunits25":0,"resunits30":0,"updateland":"Individual","lmkdesigda":"6/18/2019","lmkname":"Gay Activists Alliance Firehouse","shape_leng":257.441593012,"shape_area":2661.26273064}},{"type":"Feature","id":5,"geometry":{"type":"Polygon","coordinates":[[[-73.9923300540961,40.7279825591426],[-73.9925850311329,40.7276811071084],[-73.9929572028445,40.7278640057982],[-73.9927073907823,40.7281592949875],[-73.9923852142448,40.7280009655873],[-73.9923803331297,40.7280067357109],[-73.9923300540961,40.7279825591426]]]},"properties":{"FID":5,"cartodb_id":5,"objectid":5,"borough":"MN","block":544,"lot":1,"cd":102,"ct2010":"57","cb2010":"2004","schooldist":"02","council":2,"zipcode":10003,"firecomp":"E033","policeprct":9,"healthcent":15,"healtharea":5700,"sanitboro":"1","sanitdistr":"02","sanitsub":"2A","address":"393 LAFAYETTE STREET","zonedist1":"M1-5B","zonedist2":" ","zonedist3":" ","zonedist4":" ","overlay1":" ","overlay2":" ","spdist1":" ","spdist2":" ","spdist3":" ","ltdheight":" ","splitzone":"N","bldgclass":"O6","landuse":"05","easements":0,"ownertype":" ","ownername":"FISHER RLTY CORP","lotarea":14627,"bldgarea":101936,"comarea":101936,"resarea":0,"officearea":79936,"retailarea":22000,"garagearea":0,"strgearea":0,"factryarea":0,"otherarea":0,"areasource":"2","numbldgs":3,"numfloors":7,"unitsres":0,"unitstotal":25,"lotfront":124.67,"lotdepth":117.67,"bldgfront":42,"bldgdepth":100,"ext":"N","proxcode":"3","irrlotcode":"Y","lottype":"3","bsmtcode":"2","assessland":1170000,"assesstot":11949750,"exempttot":0,"yearbuilt":1885,"yearalter1":1984,"yearalter2":0,"histdist":"NoHo Historic District","landmark":" ","builtfar":6.97,"residfar":0,"commfar":5,"facilfar":6.5,"borocode":1,"bbl":1005440001,"condono":0,"tract2010":"0057","xcoord":986288,"ycoord":204477,"zonemap":"12c","zmcode":" ","sanborn":"103 024","taxmap":"10207","edesignum":" ","appbbl":0,"appdate":" ","plutomapid":"1","firm07_fla":" ","pfirm15_fl":" ","version":"20v8","dcpedited":" ","latitude":40.7279185,"longitude":-73.992647,"notes":" ","dsow_id":" ","projected":0,"potential":0,"lotcount":0,"zoninglota":0,"totzfa":0,"totgfa":0,"rfar":0,"cffar":0,"cfar":0,"totfar":0,"calctotfar":0,"totht":0,"resunits":0,"resunits20":0,"resunits25":0,"resunits30":0,"updateland":"Individual","lmkdesigda":"10/19/1966","lmkname":"De Vinne Press Building","shape_leng":506.636261124,"shape_area":15753.1285404}},{"type":"Feature","id":6,"geometry":{"type":"Polygon","coordinates":[[[-73.992368124723,40.7293458660664],[-73.9921721505775,40.7292492589789],[-73.992225536151,40.7291860522313],[-73.9926555281692,40.7293980314331],[-73.9926427575945,40.7294130411873],[-73.9926018706615,40.7294611050043],[-73.992368124723,40.7293458660664]]]},"properties":{"FID":6,"cartodb_id":6,"objectid":6,"borough":"MN","block":545,"lot":38,"cd":102,"ct2010":"57","cb2010":"2003","schooldist":"02","council":2,"zipcode":10003,"firecomp":"E033","policeprct":9,"healthcent":15,"healtharea":5700,"sanitboro":"1","sanitdistr":"02","sanitsub":"2A","address":"432 LAFAYETTE STREET","zonedist1":"M1-5B","zonedist2":" ","zonedist3":" ","zonedist4":" ","overlay1":" ","overlay2":" ","spdist1":" ","spdist2":" ","spdist3":" ","ltdheight":" ","splitzone":"N","bldgclass":"C1","landuse":"02","easements":0,"ownertype":" ","ownername":"WINK, CHRISTOPHER","lotarea":3713,"bldgarea":17745,"comarea":1620,"resarea":16125,"officearea":0,"retailarea":1620,"garagearea":0,"strgearea":0,"factryarea":0,"otherarea":0,"areasource":"2","numbldgs":1,"numfloors":3.5,"unitsres":7,"unitstotal":7,"lotfront":27,"lotdepth":137.5,"bldgfront":27,"bldgdepth":60,"ext":"N","proxcode":"3","irrlotcode":"N","lottype":"5","bsmtcode":"2","assessland":778500,"assesstot":6723000,"exempttot":0,"yearbuilt":1833,"yearalter1":1975,"yearalter2":0,"histdist":"NoHo Historic District","landmark":" ","builtfar":4.78,"residfar":0,"commfar":5,"facilfar":6.5,"borocode":1,"bbl":1005450038,"condono":0,"tract2010":"0057","xcoord":986352,"ycoord":204988,"zonemap":"12c","zmcode":" ","sanborn":"103 024","taxmap":"10207","edesignum":" ","appbbl":0,"appdate":" ","plutomapid":"1","firm07_fla":" ","pfirm15_fl":" ","version":"20v8","dcpedited":"t","latitude":40.7293211,"longitude":-73.9924159,"notes":" ","dsow_id":" ","projected":0,"potential":0,"lotcount":0,"zoninglota":0,"totzfa":0,"totgfa":0,"rfar":0,"cffar":0,"cfar":0,"totfar":0,"calctotfar":0,"totht":0,"resunits":0,"resunits20":0,"resunits25":0,"resunits30":0,"updateland":"Individual","lmkdesigda":"10/14/1965","lmkname":"432 Lafayette Building","shape_leng":338.67920846,"shape_area":3885.79727482}},{"type":"Feature","id":7,"geometry":{"type":"Polygon","coordinates":[[[-73.992225536151,40.7291860522313],[-73.9922757842918,40.7291265590496],[-73.9927060329732,40.7293386640761],[-73.992689364975,40.7293582562969],[-73.9926555281692,40.7293980314331],[-73.992225536151,40.7291860522313]]]},"properties":{"FID":7,"cartodb_id":7,"objectid":7,"borough":"MN","block":545,"lot":39,"cd":102,"ct2010":"57","cb2010":"2003","schooldist":"02","council":2,"zipcode":10003,"firecomp":"E033","policeprct":9,"healthcent":15,"healtharea":5700,"sanitboro":"1","sanitdistr":"02","sanitsub":"2A","address":"430 LAFAYETTE STREET","zonedist1":"M1-5B","zonedist2":" ","zonedist3":" ","zonedist4":" ","overlay1":" ","overlay2":" ","spdist1":" ","spdist2":" ","spdist3":" ","ltdheight":" ","splitzone":"N","bldgclass":"C7","landuse":"04","easements":0,"ownertype":" ","ownername":"ROBINSON CALLEN, AS TRUSTEE","lotarea":3713,"bldgarea":16327,"comarea":3065,"resarea":13262,"officearea":0,"retailarea":3065,"garagearea":0,"strgearea":0,"factryarea":0,"otherarea":0,"areasource":"2","numbldgs":1,"numfloors":5,"unitsres":8,"unitstotal":9,"lotfront":54,"lotdepth":137,"bldgfront":27,"bldgdepth":136,"ext":"E","proxcode":"3","irrlotcode":"N","lottype":"5","bsmtcode":"1","assessland":949500,"assesstot":4943700,"exempttot":0,"yearbuilt":1833,"yearalter1":1987,"yearalter2":0,"histdist":"NoHo Historic District","landmark":" ","builtfar":4.4,"residfar":0,"commfar":5,"facilfar":6.5,"borocode":1,"bbl":1005450039,"condono":0,"tract2010":"0057","xcoord":986338,"ycoord":204966,"zonemap":"12c","zmcode":" ","sanborn":"103 024","taxmap":"10207","edesignum":" ","appbbl":0,"appdate":" ","plutomapid":"1","firm07_fla":" ","pfirm15_fl":" ","version":"20v8","dcpedited":"t","latitude":40.7292607,"longitude":-73.9924664,"notes":" ","dsow_id":" ","projected":0,"potential":0,"lotcount":0,"zoninglota":0,"totzfa":0,"totgfa":0,"rfar":0,"cffar":0,"cfar":0,"totfar":0,"calctotfar":0,"totht":0,"resunits":0,"resunits20":0,"resunits25":0,"resunits30":0,"updateland":"Individual","lmkdesigda":"10/14/1965","lmkname":"430 Lafayette Street Building","shape_leng":335.637001091,"shape_area":3659.84438975}},{"type":"Feature","id":8,"geometry":{"type":"Polygon","coordinates":[[[-73.9922757842918,40.7291265590496],[-73.9923299096742,40.7290624761186],[-73.992760433914,40.729274717915],[-73.9927392280454,40.7292996444292],[-73.9927060329732,40.7293386640761],[-73.9922757842918,40.7291265590496]]]},"properties":{"FID":8,"cartodb_id":8,"objectid":8,"borough":"MN","block":545,"lot":40,"cd":102,"ct2010":"57","cb2010":"2003","schooldist":"02","council":2,"zipcode":10003,"firecomp":"E033","policeprct":9,"healthcent":15,"healtharea":5700,"sanitboro":"1","sanitdistr":"02","sanitsub":"2A","address":"428 LAFAYETTE STREET","zonedist1":"M1-5B","zonedist2":" ","zonedist3":" ","zonedist4":" ","overlay1":" ","overlay2":" ","spdist1":" ","spdist2":" ","spdist3":" ","ltdheight":" ","splitzone":"N","bldgclass":"C7","landuse":"04","easements":0,"ownertype":" ","ownername":"CASPER R. CALLEN TRUST","lotarea":3732,"bldgarea":9565,"comarea":1700,"resarea":7865,"officearea":0,"retailarea":1700,"garagearea":0,"strgearea":0,"factryarea":0,"otherarea":0,"areasource":"2","numbldgs":1,"numfloors":5,"unitsres":8,"unitstotal":10,"lotfront":27,"lotdepth":137,"bldgfront":27,"bldgdepth":136,"ext":"N","proxcode":"3","irrlotcode":"N","lottype":"5","bsmtcode":"1","assessland":549000,"assesstot":3024000,"exempttot":0,"yearbuilt":1833,"yearalter1":0,"yearalter2":0,"histdist":"NoHo Historic District","landmark":" ","builtfar":2.56,"residfar":0,"commfar":5,"facilfar":6.5,"borocode":1,"bbl":1005450040,"condono":0,"tract2010":"0057","xcoord":986323,"ycoord":204944,"zonemap":"12c","zmcode":" ","sanborn":"103 024","taxmap":"10207","edesignum":" ","appbbl":0,"appdate":" ","plutomapid":"1","firm07_fla":" ","pfirm15_fl":" ","version":"20v8","dcpedited":"t","latitude":40.7292003,"longitude":-73.9925205,"notes":" ","dsow_id":" ","projected":0,"potential":0,"lotcount":0,"zoninglota":0,"totzfa":0,"totgfa":0,"rfar":0,"cffar":0,"cfar":0,"totfar":0,"calctotfar":0,"totht":0,"resunits":0,"resunits20":0,"resunits25":0,"resunits30":0,"updateland":"Individual","lmkdesigda":"10/14/1965","lmkname":"428 Lafayette Street Building","shape_leng":339.78793511,"shape_area":3944.61570938}},{"type":"Feature","id":9,"geometry":{"type":"Polygon","coordinates":[[[-73.9947640744833,40.7264190105297],[-73.9949715989888,40.7261735599816],[-73.9952275669913,40.7263006218763],[-73.995130781835,40.7264151130335],[-73.9950499964819,40.7265106761144],[-73.9950200073966,40.7265461485928],[-73.9947640744833,40.7264190105297]]]},"properties":{"FID":9,"cartodb_id":9,"objectid":9,"borough":"MN","block":529,"lot":72,"cd":102,"ct2010":"55.02","cb2010":"2004","schooldist":"02","council":1,"zipcode":10012,"firecomp":"L009","policeprct":9,"healthcent":15,"healtharea":5700,"sanitboro":"1","sanitdistr":"02","sanitsub":"2A","address":"65 BLEECKER STREET","zonedist1":"M1-5B","zonedist2":" ","zonedist3":" ","zonedist4":" ","overlay1":" ","overlay2":" ","spdist1":" ","spdist2":" ","spdist3":" ","ltdheight":" ","splitzone":"N","bldgclass":"O6","landuse":"05","easements":0,"ownertype":" ","ownername":"KERWAY REALTY LLC","lotarea":8350,"bldgarea":104775,"comarea":98775,"resarea":0,"officearea":87990,"retailarea":10785,"garagearea":0,"strgearea":0,"factryarea":0,"otherarea":0,"areasource":"2","numbldgs":1,"numfloors":13,"unitsres":0,"unitstotal":14,"lotfront":83.5,"lotdepth":100,"bldgfront":83,"bldgdepth":100,"ext":"N","proxcode":"3","irrlotcode":"N","lottype":"5","bsmtcode":"2","assessland":1246500,"assesstot":19404900,"exempttot":0,"yearbuilt":1899,"yearalter1":0,"yearalter2":0,"histdist":"NoHo Historic District","landmark":" ","builtfar":12.55,"residfar":0,"commfar":5,"facilfar":6.5,"borocode":1,"bbl":1005290072,"condono":0,"tract2010":"005502","xcoord":985637,"ycoord":203909,"zonemap":"12c","zmcode":" ","sanborn":"103 009","taxmap":"10207","edesignum":" ","appbbl":0,"appdate":" ","plutomapid":"1","firm07_fla":" ","pfirm15_fl":" ","version":"20v8","dcpedited":"t","latitude":40.7263597,"longitude":-73.9949959,"notes":" ","dsow_id":" ","projected":0,"potential":0,"lotcount":0,"zoninglota":0,"totzfa":0,"totgfa":0,"rfar":0,"cffar":0,"cfar":0,"totfar":0,"calctotfar":0,"totht":0,"resunits":0,"resunits20":0,"resunits25":0,"resunits30":0,"updateland":"Individual","lmkdesigda":"11/25/1975","lmkname":"Bayard-Condict Building","shape_leng":382.117517998,"shape_area":9008.78948227}},{"type":"Feature","id":10,"geometry":{"type":"Polygon","coordinates":[[[-73.9914369328924,40.729233425226],[-73.991370780462,40.7292009145767],[-73.9914683089847,40.7290856171724],[-73.9914074393888,40.7290557031075],[-73.9915111333621,40.7289331146353],[-73.9916562375635,40.7287615684643],[-73.9916560257673,40.728761464877],[-73.9917419497176,40.7286598811362],[-73.9916523164608,40.7286158325853],[-73.9916876915198,40.7285437025601],[-73.9918249348172,40.7286111497372],[-73.9918229826197,40.7286134584803],[-73.991924820641,40.728663506011],[-73.9919267729463,40.7286611981862],[-73.992178306025,40.728784810295],[-73.9916925734151,40.7293590576866],[-73.9914369328924,40.729233425226]]]},"properties":{"FID":10,"cartodb_id":10,"objectid":10,"borough":"MN","block":544,"lot":16,"cd":102,"ct2010":"57","cb2010":"2004","schooldist":"02","council":2,"zipcode":10003,"firecomp":"E033","policeprct":9,"healthcent":15,"healtharea":5700,"sanitboro":"1","sanitdistr":"02","sanitsub":"2A","address":"423 LAFAYETTE STREET","zonedist1":"M1-5B","zonedist2":" ","zonedist3":" ","zonedist4":" ","overlay1":" ","overlay2":" ","spdist1":" ","spdist2":" ","spdist3":" ","ltdheight":" ","splitzone":"N","bldgclass":"J7","landuse":"05","easements":0,"ownertype":"C","ownername":"NYC DEPARTMENT OF CULTURAL AFFAIRS","lotarea":29670,"bldgarea":61420,"comarea":61420,"resarea":0,"officearea":0,"retailarea":0,"garagearea":0,"strgearea":0,"factryarea":0,"otherarea":61420,"areasource":"2","numbldgs":1,"numfloors":3,"unitsres":0,"unitstotal":1,"lotfront":249.08,"lotdepth":155.17,"bldgfront":200,"bldgdepth":125,"ext":"N","proxcode":"1","irrlotcode":"Y","lottype":"5","bsmtcode":"2","assessland":4725000,"assesstot":12153150,"exempttot":12153150,"yearbuilt":1853,"yearalter1":1987,"yearalter2":2010,"histdist":"NoHo Historic District","landmark":" ","builtfar":2.07,"residfar":0,"commfar":5,"facilfar":6.5,"borocode":1,"bbl":1005440016,"condono":0,"tract2010":"0057","xcoord":986535,"ycoord":204857,"zonemap":"12c","zmcode":" ","sanborn":"103 024","taxmap":"10207","edesignum":" ","appbbl":0,"appdate":" ","plutomapid":"1","firm07_fla":" ","pfirm15_fl":" ","version":"20v8","dcpedited":"t","latitude":40.7289615,"longitude":-73.9917557,"notes":" ","dsow_id":" ","projected":0,"potential":0,"lotcount":0,"zoninglota":0,"totzfa":0,"totgfa":0,"rfar":0,"cffar":0,"cfar":0,"totfar":0,"calctotfar":0,"totht":0,"resunits":0,"resunits20":0,"resunits25":0,"resunits30":0,"updateland":"Individual","lmkdesigda":"10/26/1965","lmkname":"Astor Library","shape_leng":818.025611734,"shape_area":31273.0723362}},{"type":"Feature","id":11,"geometry":{"type":"Polygon","coordinates":[[[-73.9921896601765,40.725868123298],[-73.9922174995136,40.7257927850013],[-73.9925592760807,40.7259626175123],[-73.9925062047737,40.7260254173677],[-73.9921896601765,40.725868123298]]]},"properties":{"FID":11,"cartodb_id":11,"objectid":11,"borough":"MN","block":530,"lot":7507,"cd":102,"ct2010":"55.02","cb2010":"1001","schooldist":"02","council":1,"zipcode":10012,"firecomp":"L009","policeprct":9,"healthcent":15,"healtharea":5700,"sanitboro":"1","sanitdistr":"02","sanitsub":"2A","address":"54 BOND STREET","zonedist1":"C6-1","zonedist2":"M1-5B","zonedist3":" ","zonedist4":" ","overlay1":" ","overlay2":" ","spdist1":" ","spdist2":" ","spdist3":" ","ltdheight":" ","splitzone":"Y","bldgclass":"RM","landuse":"04","easements":0,"ownertype":" ","ownername":"UNAVAILABLE OWNER","lotarea":2636,"bldgarea":20621,"comarea":8665,"resarea":11956,"officearea":0,"retailarea":4992,"garagearea":0,"strgearea":3673,"factryarea":0,"otherarea":0,"areasource":"2","numbldgs":1,"numfloors":6,"unitsres":3,"unitstotal":5,"lotfront":106.75,"lotdepth":26,"bldgfront":26,"bldgdepth":106,"ext":" ","proxcode":"0","irrlotcode":"Y","lottype":"3","bsmtcode":"5","assessland":315001,"assesstot":7131602,"exempttot":0,"yearbuilt":1874,"yearalter1":2008,"yearalter2":2008,"histdist":"NoHo Historic District Extension","landmark":" ","builtfar":7.82,"residfar":3.44,"commfar":6,"facilfar":6.5,"borocode":1,"bbl":1005307507,"condono":2211,"tract2010":"005502","xcoord":986365,"ycoord":203745,"zonemap":"12c","zmcode":" ","sanborn":"103 010","taxmap":"10207","edesignum":" ","appbbl":1005300041,"appdate":"11/30/2010","plutomapid":"1","firm07_fla":" ","pfirm15_fl":" ","version":"20v8","dcpedited":"t","latitude":40.7259094,"longitude":-73.9923694,"notes":" ","dsow_id":" ","projected":0,"potential":0,"lotcount":0,"zoninglota":0,"totzfa":0,"totgfa":0,"rfar":0,"cffar":0,"cfar":0,"totfar":0,"calctotfar":0,"totht":0,"resunits":0,"resunits20":0,"resunits25":0,"resunits30":0,"updateland":"Individual","lmkdesigda":"1/11/1967","lmkname":"Bond Street Savings Bank","shape_leng":273.656092199,"shape_area":2964.02621426}},{"type":"Feature","id":12,"geometry":{"type":"Polygon","coordinates":[[[-73.9935368936402,40.7276314122503],[-73.9937125056274,40.7274236106728],[-73.9940247242373,40.7275799637097],[-73.9938489329049,40.7277876766501],[-73.9935368936402,40.7276314122503]]]},"properties":{"FID":12,"cartodb_id":12,"objectid":12,"borough":"MN","block":531,"lot":7504,"cd":102,"ct2010":"55.02","cb2010":"2000","schooldist":"02","council":1,"zipcode":10012,"firecomp":"L009","policeprct":9,"healthcent":15,"healtharea":5700,"sanitboro":"1","sanitdistr":"02","sanitsub":"2A","address":"380 LAFAYETTE STREET","zonedist1":"M1-5B","zonedist2":" ","zonedist3":" ","zonedist4":" ","overlay1":" ","overlay2":" ","spdist1":" ","spdist2":" ","spdist3":" ","ltdheight":" ","splitzone":"N","bldgclass":"RC","landuse":"05","easements":0,"ownertype":" ","ownername":"UNAVAILABLE OWNER","lotarea":8044,"bldgarea":45071,"comarea":45071,"resarea":0,"officearea":19086,"retailarea":25985,"garagearea":0,"strgearea":0,"factryarea":0,"otherarea":0,"areasource":"2","numbldgs":1,"numfloors":6,"unitsres":0,"unitstotal":4,"lotfront":82.08,"lotdepth":98,"bldgfront":82.08,"bldgdepth":98,"ext":" ","proxcode":"0","irrlotcode":"N","lottype":"0","bsmtcode":"5","assessland":792000,"assesstot":10229401,"exempttot":0,"yearbuilt":1889,"yearalter1":1988,"yearalter2":0,"histdist":"NoHo Historic District","landmark":" ","builtfar":5.6,"residfar":0,"commfar":5,"facilfar":6.5,"borocode":1,"bbl":1005317504,"condono":1683,"tract2010":"005502","xcoord":985973,"ycoord":204362,"zonemap":"12c","zmcode":" ","sanborn":"103 009","taxmap":"10207","edesignum":" ","appbbl":1005310012,"appdate":"04/24/2007","plutomapid":"1","firm07_fla":" ","pfirm15_fl":" ","version":"20v8","dcpedited":"t","latitude":40.727603,"longitude":-73.9937835,"notes":" ","dsow_id":" ","projected":0,"potential":0,"lotcount":0,"zoninglota":0,"totzfa":0,"totgfa":0,"rfar":0,"cffar":0,"cfar":0,"totfar":0,"calctotfar":0,"totht":0,"resunits":0,"resunits20":0,"resunits25":0,"resunits30":0,"updateland":"Individual","lmkdesigda":"5/17/1966","lmkname":"Schermerhorn Building","shape_leng":387.155584196,"shape_area":9321.5574498}},{"type":"Feature","id":13,"geometry":{"type":"Polygon","coordinates":[[[-73.9918909150043,40.7276151358866],[-73.9920553101178,40.7274207788089],[-73.9921406264579,40.7274627078728],[-73.9919762339104,40.7276570650713],[-73.9918909150043,40.7276151358866]]]},"properties":{"FID":13,"cartodb_id":13,"objectid":13,"borough":"MN","block":544,"lot":67,"cd":102,"ct2010":"57","cb2010":"2004","schooldist":"02","council":2,"zipcode":10003,"firecomp":"E033","policeprct":9,"healthcent":15,"healtharea":5700,"sanitboro":"1","sanitdistr":"02","sanitsub":"2A","address":"37 EAST 4 STREET","zonedist1":"M1-5B","zonedist2":" ","zonedist3":" ","zonedist4":" ","overlay1":" ","overlay2":" ","spdist1":" ","spdist2":" ","spdist3":" ","ltdheight":" ","splitzone":"N","bldgclass":"C1","landuse":"02","easements":0,"ownertype":" ","ownername":"10-12 COOPER SQUARE INC","lotarea":2132,"bldgarea":9620,"comarea":0,"resarea":9620,"officearea":0,"retailarea":0,"garagearea":0,"strgearea":0,"factryarea":0,"otherarea":0,"areasource":"2","numbldgs":1,"numfloors":4,"unitsres":10,"unitstotal":10,"lotfront":25.75,"lotdepth":82.08,"bldgfront":26,"bldgdepth":74,"ext":"E","proxcode":"2","irrlotcode":"Y","lottype":"5","bsmtcode":"0","assessland":441900,"assesstot":3623850,"exempttot":0,"yearbuilt":1845,"yearalter1":2006,"yearalter2":2009,"histdist":" ","landmark":" ","builtfar":4.51,"residfar":0,"commfar":5,"facilfar":6.5,"borocode":1,"bbl":1005440067,"condono":0,"tract2010":"0057","xcoord":986462,"ycoord":204338,"zonemap":"12c","zmcode":" ","sanborn":"103 024","taxmap":"10207","edesignum":"R-121","appbbl":0,"appdate":" ","plutomapid":"1","firm07_fla":" ","pfirm15_fl":" ","version":"20v8","dcpedited":"t","latitude":40.727537,"longitude":-73.9920192,"notes":" ","dsow_id":" ","projected":0,"potential":0,"lotcount":0,"zoninglota":0,"totzfa":0,"totgfa":0,"rfar":0,"cffar":0,"cfar":0,"totfar":0,"calctotfar":0,"totht":0,"resunits":0,"resunits20":0,"resunits25":0,"resunits30":0,"updateland":"Individual","lmkdesigda":"8/18/1970","lmkname":"Samuel Treadwell Skidmore House","shape_leng":224.711343855,"shape_area":2370.51013301}},{"type":"Feature","id":14,"geometry":{"type":"Polygon","coordinates":[[[-73.9921806882224,40.727912653439],[-73.99210575633,40.7278775834138],[-73.9923637114526,40.727572341799],[-73.9924382026362,40.7276089497406],[-73.9921806882224,40.727912653439]]]},"properties":{"FID":14,"cartodb_id":14,"objectid":14,"borough":"MN","block":544,"lot":71,"cd":102,"ct2010":"57","cb2010":"2004","schooldist":"02","council":2,"zipcode":10003,"firecomp":"E033","policeprct":9,"healthcent":15,"healtharea":5700,"sanitboro":"1","sanitdistr":"02","sanitsub":"2A","address":"29 EAST 4 STREET","zonedist1":"M1-5B","zonedist2":" ","zonedist3":" ","zonedist4":" ","overlay1":" ","overlay2":" ","spdist1":" ","spdist2":" ","spdist3":" ","ltdheight":" ","splitzone":"N","bldgclass":"P7","landuse":"08","easements":0,"ownertype":"C","ownername":"NYC DEPARTMENT OF PARKS AND RECREATION","lotarea":3072,"bldgarea":4218,"comarea":4218,"resarea":0,"officearea":0,"retailarea":0,"garagearea":0,"strgearea":0,"factryarea":0,"otherarea":4218,"areasource":"2","numbldgs":1,"numfloors":3,"unitsres":0,"unitstotal":1,"lotfront":24.25,"lotdepth":128.83,"bldgfront":24.25,"bldgdepth":50,"ext":"N","proxcode":"0","irrlotcode":"Y","lottype":"5","bsmtcode":"5","assessland":246600,"assesstot":537750,"exempttot":537750,"yearbuilt":1832,"yearalter1":0,"yearalter2":0,"histdist":" ","landmark":" ","builtfar":1.37,"residfar":0,"commfar":5,"facilfar":6.5,"borocode":1,"bbl":1005440071,"condono":0,"tract2010":"0057","xcoord":986391,"ycoord":204412,"zonemap":"12c","zmcode":" ","sanborn":"103 024","taxmap":"10207","edesignum":" ","appbbl":0,"appdate":" ","plutomapid":"1","firm07_fla":" ","pfirm15_fl":" ","version":"20v8","dcpedited":"t","latitude":40.7277401,"longitude":-73.9922754,"notes":" ","dsow_id":" ","projected":0,"potential":0,"lotcount":0,"zoninglota":0,"totzfa":0,"totgfa":0,"rfar":0,"cffar":0,"cfar":0,"totfar":0,"calctotfar":0,"totht":0,"resunits":0,"resunits20":0,"resunits25":0,"resunits30":0,"updateland":"Individual and Interior","lmkdesigda":"10/14/1965 (E), 12/22/1981 (I)","lmkname":"Old Merchant's House (Seabury Tredwell House)","shape_leng":312.844099391,"shape_area":3229.80155403}},{"type":"Feature","id":15,"geometry":{"type":"Polygon","coordinates":[[[-73.9921156867299,40.7293161106085],[-73.9921721505775,40.7292492589789],[-73.992368124723,40.7293458660664],[-73.9926018706615,40.7294611050043],[-73.9926427575945,40.7294130411873],[-73.9927086219566,40.7294455141091],[-73.9926866512632,40.7294713383332],[-73.9926367711363,40.7294687317859],[-73.9926307460652,40.729488637153],[-73.9926093172428,40.7295594419065],[-73.9921156867299,40.7293161106085]]]},"properties":{"FID":15,"cartodb_id":15,"objectid":15,"borough":"MN","block":545,"lot":37,"cd":102,"ct2010":"57","cb2010":"2003","schooldist":"02","council":2,"zipcode":10003,"firecomp":"E033","policeprct":9,"healthcent":15,"healtharea":5700,"sanitboro":"1","sanitdistr":"02","sanitsub":"2A","address":"434 LAFAYETTE STREET","zonedist1":"M1-5B","zonedist2":" ","zonedist3":" ","zonedist4":" ","overlay1":" ","overlay2":" ","spdist1":" ","spdist2":" ","spdist3":" ","ltdheight":" ","splitzone":"N","bldgclass":"C7","landuse":"04","easements":0,"ownertype":" ","ownername":"GOLDMAN,  MATT","lotarea":4491,"bldgarea":13683,"comarea":4200,"resarea":9483,"officearea":0,"retailarea":0,"garagearea":0,"strgearea":0,"factryarea":0,"otherarea":4200,"areasource":"2","numbldgs":1,"numfloors":5,"unitsres":14,"unitstotal":15,"lotfront":27.42,"lotdepth":158.33,"bldgfront":27,"bldgdepth":155,"ext":"E","proxcode":"3","irrlotcode":"Y","lottype":"5","bsmtcode":"1","assessland":288900,"assesstot":2709900,"exempttot":0,"yearbuilt":1833,"yearalter1":1987,"yearalter2":0,"histdist":"NoHo Historic District","landmark":" ","builtfar":3.05,"residfar":0,"commfar":5,"facilfar":6.5,"borocode":1,"bbl":1005450037,"condono":0,"tract2010":"0057","xcoord":986355,"ycoord":205018,"zonemap":"12c","zmcode":" ","sanborn":"103 024","taxmap":"10207","edesignum":" ","appbbl":0,"appdate":" ","plutomapid":"1","firm07_fla":" ","pfirm15_fl":" ","version":"20v8","dcpedited":"t","latitude":40.7294034,"longitude":-73.9924051,"notes":" ","dsow_id":" ","projected":0,"potential":0,"lotcount":0,"zoninglota":0,"totzfa":0,"totgfa":0,"rfar":0,"cffar":0,"cfar":0,"totfar":0,"calctotfar":0,"totht":0,"resunits":0,"resunits20":0,"resunits25":0,"resunits30":0,"updateland":"Individual","lmkdesigda":"10/14/1965","lmkname":"434 Lafayette Street Building","shape_leng":435.48798775,"shape_area":4947.59858618}}]}