{"type":"FeatureCollection","crs":{"type":"name","properties":{"name":"EPSG:4326"}},"features":[{"type":"Feature","id":1,"geometry":{"type":"Polygon","coordinates":[[[-73.9943515290433,40.7252337826687],[-73.9941505245498,40.7256839506183],[-73.9941074230837,40.7257820426696],[-73.9941896426983,40.7258046523258],[-73.9943131255579,40.7258380124442],[-73.9943524818687,40.7258486484922],[-73.9943778474617,40.7258555008061],[-73.9943872551175,40.7258578750068],[-73.9943965550404,40.7258604761297],[-73.9944063047262,40.7258634897069],[-73.9944118737644,40.7258653666381],[-73.9943932834672,40.7258873408557],[-73.9941853153042,40.7261288434503],[-73.9939933332575,40.7260334489824],[-73.993901779848,40.7259879567593],[-73.9938406656045,40.7259596757228],[-73.993628474928,40.7258964664549],[-73.9933733054873,40.7258204517932],[-73.9928099024669,40.7256526126355],[-73.9926627294851,40.7256087701732],[-73.9926754616715,40.7255816269398],[-73.9926020962861,40.7255627628885],[-73.9923272268047,40.7254894686774],[-73.9922734650212,40.7254751280776],[-73.992325795955,40.7253334923074],[-73.9923260884208,40.7253326224352],[-73.9923264199466,40.7253317615706],[-73.9923267905323,40.7253309088132],[-73.9923743001826,40.7251995592121],[-73.9923749112202,40.7251972260335],[-73.9923749858202,40.7251969711944],[-73.9923932176411,40.7251465087712],[-73.9924114494343,40.7250960463447],[-73.9924296811998,40.725045583915],[-73.9924479129378,40.7249951214821],[-73.9924661434645,40.7249446590459],[-73.9924843763309,40.7248941966065],[-73.9925026079861,40.724843734164],[-73.9925186420634,40.7247993545146],[-73.99252083843,40.7247932717181],[-73.9925390700299,40.724742809269],[-73.9925573027859,40.7246923468168],[-73.9925755331469,40.7246418843611],[-73.9925990313973,40.7245748267575],[-73.9926602931242,40.7245910902726],[-73.9929542190842,40.7246698140351],[-73.9929803906377,40.7246046475868],[-73.9930062385394,40.7246115713737],[-73.9930306139502,40.7245508803349],[-73.9932989064639,40.7246227379826],[-73.9933325236758,40.7246320142781],[-73.993317972943,40.7246681535686],[-73.9932943530988,40.724727102226],[-73.9932759710298,40.7247729775924],[-73.9932510546789,40.7248351580917],[-73.9932317987888,40.7248832144322],[-73.9932118715653,40.7249329474776],[-73.9931859084711,40.7249977456797],[-73.9931670787143,40.7250447385324],[-73.9931482974736,40.7250916089153],[-73.9931365856759,40.7251208378427],[-73.9931303130164,40.7251364937198],[-73.9932396520941,40.7251659108185],[-73.9935371854399,40.7252455995445],[-73.9935949195831,40.72526106181],[-73.9936338729932,40.7251725592357],[-73.9936995200648,40.7250234061209],[-73.9936994644557,40.7250231629804],[-73.9939217470048,40.725082922808],[-73.9940804949276,40.7251241248676],[-73.9943663110812,40.7252006725743],[-73.9943515290433,40.7252337826687]]]},"properties":{"FID":1,"cartodb_id":1,"objectid":1,"area_name":"Noho East Historic District","borough":"MN","boundary_n":" ","caldate":"12/3/2002","current_":"Yes","desdate":"6/24/2003","extension":"No","last_actio":"DESIGNATED","lp_number":"LP-02129","other_hear":" ","public_hea":"3/4/2003","status_of":"DESIGNATED","shape_leng":2225.60893344731,"shape_area":168014.502206428}},{"type":"Feature","id":2,"geometry":{"type":"Polygon","coordinates":[[[-73.9944118737644,40.7258653666381],[-73.9944155608095,40.7258666284301],[-73.9944238356346,40.7258696671485],[-73.9944326300554,40.7258731705541],[-73.9944412729491,40.7258768837704],[-73.9944498010086,40.7258808203066],[-73.9944584355691,40.7258851278571],[-73.9944661954073,40.7258892723727],[-73.9944963423522,40.7259049489779],[-73.9945173978784,40.7259158803607],[-73.9946945613308,40.7260031002549],[-73.9946800383873,40.7260228414434],[-73.9946411716239,40.7260753195037],[-73.9946079420716,40.7261205694291],[-73.9945458144187,40.7262050342445],[-73.9944875505639,40.7262845121917],[-73.9944646318623,40.7263156867122],[-73.9942507860773,40.7266066387748],[-73.9941479581605,40.7267509491521],[-73.9940528209961,40.7268870156736],[-73.9939711461706,40.7270039632154],[-73.9937911636346,40.7272616621749],[-73.9936583782187,40.7274008348813],[-73.9934957387257,40.7275932564368],[-73.9932650779082,40.7274778447741],[-73.992902567445,40.727297401555],[-73.9928455744881,40.7273644715275],[-73.9926765735879,40.727559439071],[-73.9926598172801,40.7275787881371],[-73.9926678115989,40.7275827391786],[-73.9925850311572,40.727681107259],[-73.9923300091248,40.7279825475707],[-73.9922611373069,40.7279503056497],[-73.9921806433187,40.727912641836],[-73.992438202699,40.7276089498464],[-73.9925213466684,40.7275105548788],[-73.9920440349165,40.7272756197589],[-73.9920610707458,40.72725572059],[-73.992264036843,40.7270170320207],[-73.9921983464043,40.7269767415232],[-73.9921313411052,40.7270555179821],[-73.9918291280459,40.7268703072829],[-73.9917780980707,40.7268394819327],[-73.9918122882434,40.7267400943016],[-73.9918630174555,40.7267712879239],[-73.9920962683561,40.7269141212789],[-73.9921594200998,40.7268398750369],[-73.9922095540436,40.726780869893],[-73.992096641199,40.7267246614376],[-73.9921501822315,40.7266617573488],[-73.9922587980317,40.7265361320015],[-73.9922221496117,40.726518051815],[-73.9922462291141,40.7264897243286],[-73.9922994715427,40.7264266913755],[-73.9920352009287,40.726295362084],[-73.9919851293843,40.7262703361671],[-73.9920105964137,40.7262005169745],[-73.9921402029685,40.725845192251],[-73.9921666998018,40.7257725481933],[-73.9921690866576,40.7257677126222],[-73.9921720699797,40.7257637721975],[-73.9921758060723,40.7257602226449],[-73.9921802108847,40.7257571477058],[-73.9921851790615,40.7257546194138],[-73.9921905945958,40.7257526953934],[-73.9921967983891,40.7257513495531],[-73.992203209232,40.7257507979753],[-73.9922096519397,40.7257510541559],[-73.9922159513291,40.7257521126801],[-73.9922204017944,40.7257533899027],[-73.9922246154781,40.7257550687361],[-73.9922257789628,40.7257556424389],[-73.9926179537658,40.7259488571497],[-73.9927154184119,40.7258347247412],[-73.9928574289417,40.725666770695],[-73.9933009566885,40.7257988984259],[-73.9933733054873,40.7258204517932],[-73.993628474928,40.7258964664549],[-73.9937126248666,40.7259215331467],[-73.9938406656045,40.7259596757228],[-73.993901779848,40.7259879567593],[-73.9939933332575,40.7260334489824],[-73.9941853153042,40.7261288434503],[-73.9943932834672,40.7258873408557],[-73.9944118737644,40.7258653666381]]]},"properties":{"FID":2,"cartodb_id":2,"objectid":2,"area_name":"NoHo Historic District Extension","borough":"MN","boundary_n":" ","caldate":"1/15/2008","current_":"Yes","desdate":"5/13/2008","extension":"Yes","last_actio":"DESIGNATED","lp_number":"LP-02287","other_hear":" ","public_hea":"3/18/2008","status_of":"DESIGNATED","shape_leng":3385.55140932323,"shape_area":342217.369956663}},{"type":"Feature","id":3,"geometry":{"type":"Polygon","coordinates":[[[-73.9922611373069,40.7279503056497],[-73.9923300541045,40.7279825592803],[-73.9925850311572,40.727681107259],[-73.9926674032425,40.7275825365381],[-73.9926598172801,40.7275787881371],[-73.9926762776238,40.7275597812455],[-73.9928455744881,40.7273644715275],[-73.9929026112407,40.7272974132643],[-73.9932650779082,40.7274778447741],[-73.9934957387257,40.7275932564368],[-73.9935090818296,40.7275773911252],[-73.9935471956064,40.7275324911971],[-73.9935763098053,40.7274979880291],[-73.9935883388039,40.7274837318441],[-73.993622970831,40.7274426903766],[-73.9936259031819,40.7274393874727],[-73.9936583782187,40.7274008348813],[-73.9937912074304,40.7272616747844],[-73.9938117307921,40.7272323409133],[-73.9938236830205,40.7272151859611],[-73.9938559336345,40.7271689996874],[-73.9938722637317,40.7271456125417],[-73.9938881830203,40.7271228116031],[-73.9939204347287,40.7270766244102],[-73.9939526840211,40.7270304795318],[-73.9939849344564,40.7269842923202],[-73.9940171836635,40.7269381041987],[-73.9940494328257,40.7268919169684],[-73.994081683123,40.7268457729533],[-73.9940871607688,40.7268379271008],[-73.994097446001,40.726823197104],[-73.9941139321959,40.7267995857043],[-73.9941285917169,40.7267785289528],[-73.9941466334471,40.7267527969291],[-73.9941486637194,40.7267500531817],[-73.9941511437757,40.7267475228776],[-73.9942535751711,40.7266029045035],[-73.9942736019795,40.7265756813156],[-73.9942808185921,40.7265658174995],[-73.9943117152613,40.7265238328014],[-73.9943298242419,40.7264990426838],[-73.9943409604828,40.7264837976154],[-73.9943423858075,40.7264818480837],[-73.994373281219,40.7264398210446],[-73.994404176588,40.7263978354203],[-73.9944350742853,40.7263558515887],[-73.9944391324147,40.7263503622822],[-73.994464628311,40.7263156903141],[-73.9944659695764,40.726313866848],[-73.9944876180322,40.7262845338072],[-73.9944968648286,40.7262718820986],[-73.9945171613432,40.7262443500055],[-73.9945270841063,40.7262305402721],[-73.9945575294297,40.726189198448],[-73.9945879735316,40.7261478584167],[-73.9946181938768,40.7261065588895],[-73.9946228024493,40.7261003005675],[-73.9946320030183,40.7260878064347],[-73.9946486379033,40.7260652179411],[-73.9946605896416,40.72604887786],[-73.9946781549616,40.7260252538199],[-73.9946790830656,40.7260240048569],[-73.9947640790424,40.7259092163691],[-73.9947692889136,40.7259027248365],[-73.994795222201,40.7258709470489],[-73.9948297261231,40.725828233859],[-73.9948642288175,40.7257855188576],[-73.9948987326513,40.7257428056465],[-73.9949332352571,40.7257000915243],[-73.9949679650806,40.725657420626],[-73.9949714820996,40.725653067719],[-73.9949814377115,40.7256407419856],[-73.9950024675978,40.7256147073831],[-73.9950369712546,40.7255719932291],[-73.9950739548745,40.7255263209985],[-73.9951109384438,40.7254806478552],[-73.9951479219656,40.7254349314753],[-73.9951849054335,40.7253892592081],[-73.9952216627703,40.7253435860189],[-73.9952586461369,40.7252979137276],[-73.9952721991099,40.72528126027],[-73.9952825393307,40.7252685283962],[-73.9952969185691,40.7252507556367],[-73.9952985616396,40.7252487232548],[-73.9953014937775,40.7252458930744],[-73.9953048756898,40.725243320458],[-73.9953084836638,40.7252410044957],[-73.9953125425927,40.7252389884212],[-73.9953166015002,40.7252372731165],[-73.9953211113597,40.7252359018245],[-73.995325621192,40.7252349150497],[-73.9953303570801,40.7252342722784],[-73.9953350917604,40.7252339717003],[-73.9953398275943,40.7252341006649],[-73.9953445622236,40.7252345303992],[-73.9953490719268,40.7252353878661],[-73.9953948459023,40.7252456825248],[-73.9954074730488,40.7252484701048],[-73.9954688048964,40.7252623259664],[-73.9955301367696,40.7252761808949],[-73.9955914686685,40.7252900348902],[-73.9956151440021,40.7252953542008],[-73.9956503196678,40.72530328902],[-73.995654153495,40.7253043193471],[-73.9956587933914,40.7253054640692],[-73.9956588584493,40.7253061349509],[-73.995664197781,40.7253089960694],[-73.9956688387087,40.7253124920203],[-73.995672653403,40.7253165255439],[-73.9956755353411,40.7253209840726],[-73.9956774040415,40.7253257451342],[-73.9956782086149,40.7253306763521],[-73.995677927764,40.7253356399476],[-73.995679099542,40.7253364405441],[-73.9956768846932,40.7253396561789],[-73.9955981171798,40.725435507882],[-73.9957064802112,40.7254819863457],[-73.9963533165888,40.7257594194626],[-73.9965279909954,40.7258350306986],[-73.9967525613171,40.7255708026887],[-73.9967567375063,40.7255667225999],[-73.9967617777447,40.7255632557819],[-73.9967675328849,40.7255605048885],[-73.996773826556,40.7255585545625],[-73.9967804681845,40.7255574624309],[-73.9967872600958,40.7255572627076],[-73.9967912360307,40.725557564489],[-73.9967951515836,40.7255581742427],[-73.9967955374565,40.7255582507967],[-73.9967989676938,40.725559085664],[-73.9967995192766,40.7255592441689],[-73.9968189381557,40.7255680597901],[-73.9968638881924,40.7255902414613],[-73.9968690737368,40.7255927720329],[-73.9969220619427,40.7256188062773],[-73.9969800132126,40.7256473701574],[-73.9970379621648,40.7256759349088],[-73.9970959123504,40.7257044987303],[-73.9971540874836,40.7257330625281],[-73.9972120365849,40.7257616271914],[-73.9972579030296,40.7257842346713],[-73.9972756861989,40.7257929871405],[-73.9972941132803,40.725802027785],[-73.9973279373039,40.7258187546294],[-73.997386112638,40.7258472759856],[-73.9974341405457,40.7258711216438],[-73.9974387686302,40.7258734405576],[-73.9974409051247,40.7258745095093],[-73.9974438370199,40.7258763547174],[-73.997446316741,40.7258784556599],[-73.9974485715573,40.7258807285946],[-73.9974524041094,40.7258857472162],[-73.9974535320497,40.7258884487681],[-73.9974544339047,40.7258912358634],[-73.9974551108596,40.7258940661782],[-73.9974551107498,40.725896940603],[-73.9974548845579,40.7258998132216],[-73.9974542073867,40.7259026435065],[-73.9974533065038,40.7259053891385],[-73.9974517273757,40.7259080906306],[-73.9974501494378,40.7259106210259],[-73.9974478932577,40.7259130226334],[-73.9974458643616,40.7259149523792],[-73.9974082063233,40.7259592962028],[-73.99737077195,40.7260036409194],[-73.9973331138116,40.7260479847179],[-73.9972955787253,40.7260923420143],[-73.9972941014216,40.726094087166],[-73.9972580211001,40.726136673183],[-73.9972203628096,40.7261810601682],[-73.9971829293706,40.7262254039219],[-73.9971452697981,40.7262697476576],[-73.9971076101756,40.7263140922812],[-73.9970701777704,40.7263584359975],[-73.9970325180478,40.7264027796955],[-73.9969948594587,40.7264471242814],[-73.9969574257201,40.7264914679602],[-73.9969197658473,40.7265358116205],[-73.996882107106,40.7265801993932],[-73.9968446720339,40.7266245430345],[-73.9968070131945,40.7266688875577],[-73.9967695780227,40.7267132311741],[-73.9967319190832,40.7267575747716],[-73.9966942589099,40.726801919257],[-73.9966587057837,40.7268438135064],[-73.9965585034104,40.7269653567411],[-73.9965215201145,40.7270090132002],[-73.9965163328275,40.7270153184065],[-73.9964773204922,40.7270613773474],[-73.9964385330033,40.7271074795062],[-73.9963995205579,40.7271535816446],[-73.9963605068749,40.7271996837694],[-73.9963217192271,40.7272457426635],[-73.9963045698333,40.7272660089663],[-73.9962577028203,40.7273213914472],[-73.9962436915915,40.7273379468458],[-73.99620490378,40.7273840489242],[-73.9961658910135,40.7274301086577],[-73.9961271030946,40.7274762098088],[-73.9960880890342,40.7275223118393],[-73.9960490761035,40.7275684147568],[-73.9960102880258,40.7276144735437],[-73.9959712738036,40.7276605755338],[-73.9959322595275,40.7277066775104],[-73.995893471286,40.7277527794814],[-73.9958544580884,40.7277988382067],[-73.9958156697394,40.727844940151],[-73.9957766552477,40.7278910420737],[-73.9957389949408,40.7279360292031],[-73.9957011084937,40.727981015411],[-73.9956632208341,40.7280256603133],[-73.9956263950178,40.7280687563682],[-73.9956251094044,40.7280702601689],[-73.9955876738653,40.7281142602987],[-73.9954847475525,40.7282342004686],[-73.9954842302152,40.7282349757863],[-73.9954836359333,40.7282357925244],[-73.9954829729945,40.728236629071],[-73.995482078034,40.7282376547153],[-73.9954811688752,40.7282385876067],[-73.9954803177275,40.7282393881255],[-73.9954793576769,40.7282402012472],[-73.9954766952845,40.7282432961911],[-73.9954552954891,40.728268519498],[-73.9954417644899,40.7282845155999],[-73.9954041037907,40.728328687657],[-73.9953666679486,40.7283728597106],[-73.995329005966,40.7284170317426],[-73.9952915700244,40.7284612037712],[-73.9952541340332,40.7285053757874],[-73.9952164719011,40.7285495468812],[-73.9951790369942,40.7285937188725],[-73.9951415996702,40.7286378908512],[-73.9951039385724,40.7286820628081],[-73.9950897302535,40.7286988737992],[-73.9950678542726,40.7287245625753],[-73.9950656002758,40.7287270064592],[-73.9949625369171,40.7288497863506],[-73.9949467504755,40.7288684423969],[-73.9949266785286,40.7288922860825],[-73.9948926254578,40.7289325120988],[-73.9948583462499,40.728972781319],[-73.9948242919129,40.7290130082151],[-73.9947902387186,40.7290532342004],[-73.994753928997,40.7290971485559],[-73.9947176204078,40.7291411061242],[-73.9946815355001,40.7291850204666],[-73.9946452268153,40.7292289780115],[-73.9946089169024,40.7292728923202],[-73.9946059856895,40.7292763654446],[-73.9945735102135,40.7293158197024],[-73.9944530809218,40.7294509082604],[-73.9944501485093,40.7294543813807],[-73.9944120341913,40.729499882235],[-73.9943748230991,40.7295443979643],[-73.9943376107737,40.7295889118802],[-73.9943003995821,40.7296334266844],[-73.9942631871571,40.7296779414761],[-73.9942259746786,40.7297224994801],[-73.994188763338,40.7297670133468],[-73.9941513258521,40.7298115280903],[-73.9941141144118,40.7298560428329],[-73.994085020744,40.729890822583],[-73.9940778760803,40.7298992320648],[-73.9940766756347,40.7299006430998],[-73.9940753177632,40.729901912747],[-73.9940739705461,40.7299031733896],[-73.9940714892582,40.7299048887305],[-73.9940687830772,40.7299063897389],[-73.9940669896272,40.7299071992036],[-73.9940651748687,40.7299080194734],[-73.994063078394,40.7299086614279],[-73.9940611156865,40.7299092628663],[-73.9940589280833,40.7299096787884],[-73.9940568304465,40.7299100776055],[-73.994054636946,40.7299102530914],[-73.9940525464323,40.729910420478],[-73.9940491632809,40.7299104203032],[-73.9940470195327,40.7299102049709],[-73.9940448793356,40.7299099914397],[-73.9940417223376,40.7299093474128],[-73.9940396520173,40.7299087349599],[-73.9940376633736,40.7299081459243],[-73.9940357138151,40.7299073173555],[-73.9940338293602,40.7299065167059],[-73.9940173688908,40.7298984103747],[-73.9939749760556,40.7298773506733],[-73.9939177006705,40.7298489132053],[-73.9938601992387,40.7298204765972],[-73.9938029239514,40.7297920390719],[-73.993745648713,40.7297636024185],[-73.9936881474283,40.7297351648236],[-73.9936308722877,40.7297067281129],[-73.993573371101,40.7296782913609],[-73.9935160972421,40.7296498536925],[-73.9934588222483,40.7296214168958],[-73.9934022231863,40.7295933223026],[-73.9932300364261,40.7295079359924],[-73.9931743299639,40.7295735941856],[-73.9931697305697,40.7295790275815],[-73.9931313904436,40.7296240561314],[-73.9931225941723,40.7296343493195],[-73.9930930502702,40.7296690423443],[-73.9930547100404,40.7297140717686],[-73.993016369759,40.7297591002794],[-73.992978028242,40.729804128777],[-73.992939913957,40.7298491149517],[-73.9929015735202,40.7298941443239],[-73.9928632330316,40.7299391727826],[-73.9928398948596,40.7299665332847],[-73.992823764249,40.7299854015357],[-73.9928224276706,40.7299865676109],[-73.992670853738,40.7301656881126],[-73.9926440145295,40.7301977661152],[-73.9925968771819,40.7302537729202],[-73.992566655504,40.7302895391696],[-73.9925307948369,40.7303318229254],[-73.9924949353032,40.7303741498943],[-73.9924593006425,40.7304164345426],[-73.9924234398391,40.7304587173638],[-73.9923869029561,40.7305019456626],[-73.992384422703,40.7305043894786],[-73.9923817151924,40.7305066198588],[-73.9922896959959,40.730616832364],[-73.9922883426797,40.7306192348299],[-73.9922865383656,40.7306215075923],[-73.9922813516154,40.7306275109344],[-73.9922448145977,40.7306703096447],[-73.9922060221904,40.7307154666221],[-73.9921674546454,40.7307606236013],[-73.9921288882318,40.730805781468],[-73.9920903205823,40.7308509384209],[-73.9920517540643,40.7308960953607],[-73.9920131863102,40.7309412522872],[-73.9919746185038,40.7309864092005],[-73.9919358257293,40.7310315669854],[-73.9919065055371,40.7310660021695],[-73.9918979018851,40.7310759278682],[-73.9918963568503,40.731077710766],[-73.9918936504526,40.7310801977796],[-73.991890493065,40.7310824704404],[-73.9918871096087,40.7310844855398],[-73.9918835024564,40.7310862007541],[-73.9918796680518,40.7310876584068],[-73.9918756087673,40.7310888161742],[-73.9918715495246,40.7310896308478],[-73.9918672642186,40.7310901456361],[-73.9918629801383,40.7310903164299],[-73.9918589210158,40.7310901450465],[-73.9918546358356,40.7310896296527],[-73.991850576792,40.7310888144054],[-73.9918465189689,40.7310876992888],[-73.9918426849202,40.7310862410942],[-73.9918338899703,40.7310825519886],[-73.9917842808465,40.7310612766511],[-73.9917247499496,40.7310356682338],[-73.991664993004,40.731010018346],[-73.9916052372882,40.7309843675266],[-73.9915454804347,40.730958716676],[-73.9914857248055,40.7309331090188],[-73.991425968044,40.730907458106],[-73.9913662113284,40.7308818071622],[-73.9913064558371,40.7308561994117],[-73.9912467003973,40.7308305484057],[-73.9911871687348,40.7308048982862],[-73.9911274122031,40.730779247218],[-73.9910676568955,40.7307536393433],[-73.9910079016396,40.730727988213],[-73.9909481440622,40.7307023370514],[-73.9908883888983,40.730676685859],[-73.9908286337745,40.7306510778598],[-73.9908267008077,40.730650242034],[-73.9907990770261,40.7306382945859],[-73.9907948500688,40.7306364662159],[-73.9907689402579,40.730625428411],[-73.9907653418964,40.7306234749198],[-73.9907636906841,40.7306225103428],[-73.9907609860767,40.7306204515636],[-73.9907585052299,40.7306181784812],[-73.9907564766036,40.730615733438],[-73.9907546729157,40.7306131173163],[-73.9907533202525,40.7306104156824],[-73.9907521925217,40.7306075852938],[-73.9907515169994,40.7306046684928],[-73.9907512913059,40.7306017526284],[-73.9907515178091,40.7305988349992],[-73.9907519680426,40.7305959191892],[-73.9907530965645,40.7305930466579],[-73.990754223885,40.7305903010982],[-73.9907560294818,40.7305876852661],[-73.9907927933794,40.7305372534359],[-73.9908270768289,40.7304898660149],[-73.9908613602296,40.730442479484],[-73.9908958696792,40.7303950920599],[-73.9909301529821,40.7303477055079],[-73.9909646623395,40.7303002748381],[-73.9909989443612,40.7302528873644],[-73.9910332275178,40.7302054998802],[-73.9910677367223,40.7301581133036],[-73.9910823966635,40.7301377854608],[-73.9911006664556,40.7301129553528],[-73.9911017817195,40.7301116830205],[-73.9911028377865,40.7301104791222],[-73.9911030047163,40.7301103224467],[-73.9911053997096,40.7301083442145],[-73.9911080858747,40.730106596535],[-73.991112467218,40.73010450139],[-73.9911172580581,40.7301030132191],[-73.9911223151548,40.7301021788377],[-73.9911274858014,40.7301020216473],[-73.9911326149257,40.7301025479393],[-73.9911375462751,40.7301037405922],[-73.9911391336133,40.7301042846215],[-73.991194573843,40.7301279839541],[-73.9912642675157,40.7300354890303],[-73.9912661145011,40.7300329317262],[-73.9912699266847,40.7300290508237],[-73.9912745425598,40.7300257373023],[-73.9912776809032,40.730024039181],[-73.9912910581256,40.7300175475273],[-73.9913268901246,40.7300001821243],[-73.9913376877839,40.7299949491817],[-73.9913940673763,40.7299676346826],[-73.9914373668157,40.72994709461],[-73.9914418771784,40.7299449085107],[-73.9914793131164,40.7299272415089],[-73.9914809988666,40.7299265158238],[-73.9914826964551,40.7299257838359],[-73.9914844046867,40.7299251337952],[-73.9914860785879,40.7299244981599],[-73.9914879335916,40.7299239462853],[-73.9914896867891,40.729923425921],[-73.9914915796592,40.7299229812097],[-73.9914935198806,40.7299225247952],[-73.9914952931782,40.729922188136],[-73.9916407907482,40.7297937466532],[-73.9916419192184,40.7297908732124],[-73.9916434986794,40.729788128577],[-73.9916455279474,40.7297855136475],[-73.9916795835696,40.7297440440935],[-73.9917145424316,40.7297018884066],[-73.9917495012545,40.729659690385],[-73.9917822520246,40.7296201558993],[-73.9918047405581,40.7295929954627],[-73.9915861797583,40.7294848385278],[-73.9910733047549,40.7292327898825],[-73.9910198507837,40.7292065205919],[-73.9910284036332,40.7291774600449],[-73.9910428435415,40.7291281421138],[-73.991057508338,40.7290788223969],[-73.9910719470255,40.7290294612369],[-73.9910766841079,40.7290133794206],[-73.9910863856859,40.7289801423986],[-73.9911010504175,40.7289308235757],[-73.991111866356,40.7288938774423],[-73.9911193900181,40.7288681657996],[-73.9911299276369,40.7288321435645],[-73.99114459112,40.728782824735],[-73.9911727804051,40.7287650292464],[-73.9911867686922,40.7287189260757],[-73.991200755776,40.7286728247039],[-73.9912147416511,40.728626765654],[-73.9912287298802,40.7285806624773],[-73.9912316620398,40.7285710992984],[-73.991242716906,40.728534560199],[-73.9912467705449,40.728521210466],[-73.9914120311575,40.7279805979993],[-73.9914143948324,40.7279729708665],[-73.9914182292983,40.7279605342259],[-73.9914234942791,40.7279435050972],[-73.9914353067262,40.7279052982903],[-73.9914484584887,40.7278627970553],[-73.9914635724616,40.7278139068542],[-73.9914786875905,40.7277650598753],[-73.9914938015189,40.7277161705702],[-73.9914962836016,40.7277081084984],[-73.9915089166035,40.7276673235867],[-73.991510750956,40.7276611318235],[-73.9915268763945,40.7276069629048],[-73.9915686268575,40.7276261936333],[-73.9921806882985,40.7279126535457],[-73.9922611373069,40.7279503056497]]]},"properties":{"FID":3,"cartodb_id":3,"objectid":3,"area_name":"NoHo Historic District","borough":"MN","boundary_n":" ","caldate":"3/30/1999","current_":"Yes","desdate":"6/29/1999","extension":"No","last_actio":"DESIGNATED","lp_number":"LP-02039","other_hear":" ","public_hea":"4/13/1999; 5/4/1999","status_of":"DESIGNATED","shape_leng":6973.52505704984,"shape_area":1502362.01741126}},{"type":"Feature","id":4,"geometry":{"type":"Polygon","coordinates":[[[-74.003511853967,40.7205563779575],[-74.0039292793972,40.7208544556705],[-74.004635158083,40.7213536575238],[-74.0045051912185,40.7215149547488],[-74.0037673706759,40.7223841494082],[-74.0036756903356,40.7224923377729],[-74.0029814673364,40.7233084363537],[-74.001933526327,40.7245518134449],[-74.0008976975218,40.7257731245267],[-73.9999157978972,40.7269347332067],[-73.9991182412156,40.7265423340091],[-73.9983611978779,40.7261674852722],[-73.9976101854316,40.7257971576222],[-73.9969716900582,40.7254816564636],[-73.9967717577139,40.7254319609419],[-73.9958457737068,40.7252083726749],[-73.996300939541,40.7246622384207],[-73.9969519711804,40.7238800076648],[-73.9972942077826,40.7234745060839],[-73.9979806380526,40.722662927114],[-73.9990316507227,40.7214213606134],[-73.9998679812131,40.7204326762004],[-74.0006222599561,40.7195524785715],[-74.0013042901506,40.7198703888292],[-74.0014245102904,40.7199372232368],[-74.001884063722,40.7193975915625],[-74.0020561619373,40.7195171114805],[-74.0021647137645,40.7195941967294],[-74.0023363964592,40.7197161115891],[-74.0026000184225,40.7199034488851],[-74.0032595517312,40.7203771182165],[-74.003511853967,40.7205563779575]]]},"properties":{"FID":4,"cartodb_id":4,"objectid":4,"area_name":"SoHo-Cast Iron Historic District","borough":"MN","boundary_n":"SMALLER AREA PREVIOUSLY HEARD AS LP-0711","caldate":" ","current_":"Yes","desdate":"8/14/1973","extension":"No","last_actio":"DESIGNATED","lp_number":"LP-00768","other_hear":" ","public_hea":"7/21/1970","status_of":"DESIGNATED","shape_leng":7708.43508762633,"shape_area":3219780.57568427}},{"type":"Feature","id":5,"geometry":{"type":"MultiPolygon","coordinates":[[[[-73.9979375196322,40.721488868219],[-73.9978826956819,40.7215532059287],[-73.9976888349722,40.7214889679547],[-73.9975014737987,40.7214239202368],[-73.9973695162855,40.7213800057503],[-73.9973849518332,40.7213430239755],[-73.9975677750784,40.720880301132],[-73.9976341462065,40.7207058296757],[-73.9977549037247,40.7205666934482],[-73.9980322064124,40.7202428176112],[-73.9981961854228,40.7200513052965],[-73.9983992353913,40.7198143373626],[-73.9984910106181,40.7197037587063],[-73.9986638570132,40.7197871453434],[-73.9989986279283,40.7199536169717],[-73.9990041386099,40.7199552991717],[-73.9990099416446,40.719956257364],[-73.9990158725163,40.7199564654326],[-73.9990217667083,40.7199559170725],[-73.999027457337,40.7199546275907],[-73.9990327846192,40.7199526330065],[-73.9990376006079,40.7199499909514],[-73.9990417691911,40.7199467734649],[-73.9992757295989,40.7196927449782],[-73.9994593580103,40.7197831364543],[-73.9997617342557,40.7199305761355],[-73.9998596086855,40.7198166456057],[-74.0001955765066,40.7194255586362],[-74.0002369631124,40.7193753551375],[-74.0002341758222,40.7193740746183],[-74.0002753836527,40.7193246806641],[-74.0004767398211,40.7190885411183],[-74.0004886132923,40.7190940891096],[-74.0006118370756,40.7189913754682],[-74.0005380765254,40.7189561740063],[-74.0005878267083,40.7189016037666],[-74.0004313653368,40.7188268369267],[-74.0006297270088,40.7186701130755],[-74.0007409298344,40.7185801028484],[-74.0010887084392,40.7188294899918],[-74.0012727223793,40.7189614416146],[-74.001884063722,40.7193975915625],[-74.0014245102904,40.7199372232368],[-74.0013042901506,40.7198703888292],[-74.0006222599561,40.7195524785715],[-73.9998679835803,40.7204326752999],[-73.9994413817766,40.7209369945373],[-73.9990316519063,40.7214213579119],[-73.9988480615976,40.7216380368257],[-73.9979806392363,40.7226629226115],[-73.9972030918739,40.7235824668661],[-73.9969519711803,40.7238800103664],[-73.9963009608489,40.7246621996995],[-73.9958991987913,40.7251442745519],[-73.9958396004407,40.7252156836853],[-73.9952349106173,40.7250752429644],[-73.9953483840175,40.7249330094887],[-73.9955897161837,40.7246382175075],[-73.9958155049225,40.7243619722327],[-73.9960247976845,40.7241059045472],[-73.9961652657234,40.7239382543033],[-73.9963606929125,40.7237064011248],[-73.9964477552195,40.7235984327814],[-73.9965700086551,40.7234520677079],[-73.9965816457785,40.7234359705496],[-73.9965900999791,40.7234223956225],[-73.9965965111233,40.7234108485814],[-73.9966046447429,40.7233935536398],[-73.996641729389,40.7232942861825],[-73.9966822728129,40.723188479313],[-73.9967448046148,40.7230285731512],[-73.9970242311434,40.7223187712901],[-73.9970573665389,40.7222349914445],[-73.9972563731151,40.7223201017053],[-73.9976085399357,40.7224709169724],[-73.9976276383649,40.7224487486265],[-73.9978727838693,40.7221575133547],[-73.9977964836707,40.7221202605449],[-73.9978457426414,40.7220621921241],[-73.9979235791023,40.7221001968547],[-73.9982923840067,40.7216620258024],[-73.9979729785305,40.721506073984],[-73.9979375196322,40.721488868219]]],[[[-74.0034582473598,40.7232513577447],[-74.0034019738042,40.7232232113005],[-74.0033545092528,40.7232734106851],[-74.0033228464375,40.7233065917697],[-74.003314991792,40.7233051268675],[-74.003140329505,40.7235094123001],[-74.0029817770465,40.7236962929033],[-74.0030778800037,40.723744882755],[-74.0030396765632,40.7237895859503],[-74.0028910202136,40.7239635375486],[-74.0028671556362,40.7239914629369],[-74.0028291258929,40.7240357968476],[-74.0028421722913,40.72404234593],[-74.002749712875,40.7241504119834],[-74.0027539421292,40.7241525550943],[-74.00270746139,40.7242068965246],[-74.0026590560537,40.7242634856511],[-74.0026581552797,40.7242630282133],[-74.0026052830112,40.7243257606935],[-74.0025132584433,40.7244349467766],[-74.0024606486611,40.7244973649055],[-74.0023348680465,40.7244337132326],[-74.0021964325011,40.724597962526],[-74.0021818611184,40.724615549747],[-74.0021154618033,40.7246937241857],[-74.0022204110553,40.7247430989272],[-74.0021973910281,40.7247704046071],[-74.001998747428,40.7250077211976],[-74.001901245509,40.7251242055026],[-74.0021985532392,40.7252684779746],[-74.0022299433829,40.7252840210581],[-74.0021345377329,40.7254003038016],[-74.0021014904119,40.7253844356387],[-74.0018023595065,40.725239276846],[-74.0017026352302,40.7253584121125],[-74.0020017664532,40.725503571162],[-74.0020360448544,40.7255203623532],[-74.0019469792329,40.7256289247612],[-74.0019112365849,40.725611726538],[-74.001692361185,40.7255055131203],[-74.0015767518877,40.7256436258332],[-74.0015744709254,40.7256425191389],[-74.0015395878884,40.7256841933675],[-74.0013947131499,40.7256138897718],[-74.0011941537654,40.725853488661],[-74.0011297903198,40.725929856076],[-74.0012123146648,40.7259704988098],[-74.0011914078069,40.7259953800914],[-74.0008061082556,40.7264504799513],[-74.0011072867021,40.7265982590681],[-74.001137485237,40.7266134791755],[-74.00080435016,40.7270122741474],[-74.00077680657,40.7269986946628],[-74.0004695901887,40.7268479520402],[-74.0004197724516,40.7269067950849],[-74.0003718686496,40.7269633751227],[-74.0003618498238,40.7269584592767],[-74.0003615041871,40.7269588780144],[-74.0003239552128,40.7270027058929],[-74.0000883568893,40.7268825460126],[-73.9999978942527,40.7268376070511],[-74.0008976987054,40.7257731245267],[-74.0019335215924,40.7245518143455],[-74.0029814720711,40.7233084408561],[-74.0032456196304,40.72299791468],[-74.0033536103431,40.7230510947672],[-74.0035652979582,40.7231551143457],[-74.0035165461943,40.7232129726692],[-74.0034983900444,40.7232040987028],[-74.0034582473598,40.7232513577447]]]]},"properties":{"FID":5,"cartodb_id":5,"objectid":5,"area_name":"SoHo-Cast Iron Historic District Extension","borough":"MN","boundary_n":" ","caldate":" ","current_":"Yes","desdate":"5/11/2010","extension":"Yes","last_actio":"DESIGNATED","lp_number":"LP-02362","other_hear":" ","public_hea":"10/27/2009","status_of":"DESIGNATED","shape_leng":11781.2055791637,"shape_area":936839.348766091}},{"type":"Feature","id":6,"geometry":{"type":"Polygon","coordinates":[[[-74.0012613898339,40.727465190873],[-74.0009403030099,40.7273052563724],[-74.0007859308585,40.7272298291086],[-74.0007810658278,40.7272278993513],[-74.0006403527954,40.7271585025058],[-74.0006359588812,40.7271560477431],[-74.0006320763211,40.7271531364193],[-74.0003239552128,40.7270027058929],[-74.0003618498238,40.7269584592767],[-74.0003718686496,40.7269633751227],[-74.0004197724516,40.7269067950849],[-74.0004695901887,40.7268479520402],[-74.0007768077537,40.7269986946628],[-74.00080435016,40.7270122741474],[-74.0009228504101,40.7268704187972],[-74.001020283203,40.7267537813621],[-74.001137485237,40.7266134791755],[-74.0011072867021,40.7265982590681],[-74.0008061082556,40.7264504799513],[-74.0008560424936,40.726391498957],[-74.0009039064125,40.7263349655402],[-74.0009233256206,40.7263120285226],[-74.0009527467725,40.7262772767419],[-74.0010014710491,40.7262197266019],[-74.0011030597826,40.7260997355547],[-74.0011914078069,40.7259953800914],[-74.0012123146648,40.7259704988098],[-74.0011297903198,40.725929856076],[-74.0011941537654,40.725853488661],[-74.0013947143336,40.7256138897718],[-74.0015272645336,40.7256782132512],[-74.0015395878884,40.725684192467],[-74.0015744709254,40.7256425191389],[-74.0015767518877,40.7256436258332],[-74.00161412762,40.7255989753758],[-74.0016545819378,40.7255506453819],[-74.001692361185,40.7255055131203],[-74.0019112365849,40.725611726538],[-74.0019469792329,40.7256289247612],[-74.0020360448544,40.7255203623532],[-74.0020017676368,40.7255035720625],[-74.0017026352302,40.7253584121125],[-74.0017543776072,40.7252965976915],[-74.0018023595065,40.7252392759455],[-74.0021014915955,40.7253844347382],[-74.0021345377329,40.7254003038016],[-74.0022299433829,40.7252840210581],[-74.0021985532392,40.7252684779746],[-74.001901245509,40.7251242055026],[-74.001998747428,40.7250077211976],[-74.0021973910281,40.7247704046071],[-74.0022204110553,40.7247430989272],[-74.0021154618033,40.7246937241857],[-74.0021818611184,40.724615549747],[-74.0021964325011,40.724597962526],[-74.0023345117677,40.7244337177424],[-74.0024606498447,40.724497364005],[-74.0024689918557,40.7244874717331],[-74.0025108036616,40.7244378590768],[-74.0026052830112,40.7243257606935],[-74.0026581552797,40.7242630282133],[-74.0026590560537,40.7242634856511],[-74.00270746139,40.7242068965246],[-74.0027539421292,40.7241525550943],[-74.002749712875,40.7241504119834],[-74.0028041129186,40.7240868527306],[-74.0030762770222,40.7242248209022],[-74.0031806155894,40.7242763767217],[-74.0032292926739,40.7242186095023],[-74.0034199523566,40.723992352856],[-74.0034622898319,40.7239421112798],[-74.0035494264068,40.7238387067516],[-74.0036149437679,40.7237609646493],[-74.0036292009704,40.7237442768637],[-74.0036328345817,40.7237413681041],[-74.0036388946352,40.7237381711049],[-74.0036457833,40.7237361627513],[-74.0036541515842,40.7237354690939],[-74.0036614546769,40.7237362883253],[-74.0036673492914,40.7237380351257],[-74.0037446773194,40.7237758477223],[-74.0038142018575,40.7236923367132],[-74.0039279115806,40.7235524630871],[-74.0039464624898,40.7235290735249],[-74.0041272139037,40.7235635332802],[-74.0042800501361,40.723590168367],[-74.0044795957775,40.723626310821],[-74.0045523679147,40.7236408881125],[-74.0046099276847,40.7236511426229],[-74.0046178097991,40.7236551477724],[-74.0046240715495,40.7236596428634],[-74.0046277339757,40.7236632960824],[-74.0046319789251,40.7236694454895],[-74.0046347656571,40.7236759227406],[-74.0046358185461,40.7236850592653],[-74.0046344318206,40.7236922120663],[-74.0046317797208,40.723698423886],[-74.0045636161371,40.723780986198],[-74.004398272459,40.7239788687344],[-74.0043089629249,40.7240863208728],[-74.0042981061945,40.724099346244],[-74.0040878954862,40.7243477620658],[-74.0038262699224,40.724656018049],[-74.0035922337803,40.7249338362595],[-74.0036973337559,40.7249851961716],[-74.0040002141333,40.725133544022],[-74.0040583325244,40.7251617810529],[-74.0039543189394,40.7254154607808],[-74.0039478179901,40.7254313162669],[-74.0039459362043,40.7254354856883],[-74.0039408231248,40.725441708381],[-74.0039321116508,40.7254472378045],[-74.0039206776112,40.7254506241084],[-74.0039084148234,40.7254509577137],[-74.0038966845057,40.7254482025535],[-74.0038477619301,40.725421333909],[-74.0036244654153,40.7253146155213],[-74.0035312574941,40.7254240032541],[-74.0033944184576,40.7255888140334],[-74.0035852358537,40.7257674629378],[-74.0035586960338,40.7257994624485],[-74.0034891415177,40.7257654451476],[-74.0034036381541,40.7258685334761],[-74.0033131420717,40.7259776390845],[-74.0032193564382,40.7260907132552],[-74.0035252261416,40.7262412883074],[-74.0035707777717,40.7262627874556],[-74.0030280562387,40.7269037753499],[-74.0030148351026,40.7269199398312],[-74.0031556610351,40.7269572351354],[-74.003235999499,40.7269789621847],[-74.0032838806705,40.7269926755792],[-74.0032931374616,40.7269985016071],[-74.0032994232382,40.7270055704218],[-74.0033029392174,40.7270136658957],[-74.0033034249556,40.7270221937007],[-74.0031583524813,40.7273759725759],[-74.0030850987845,40.7273706840726],[-74.0029994847618,40.7273628573109],[-74.0030027223641,40.7273404858858],[-74.0028726875334,40.7272761658578],[-74.0028044954824,40.7272429387628],[-74.0025132346172,40.727600944569],[-74.0022281419005,40.7279409177144],[-74.002159706818,40.7279073309423],[-74.0020378725804,40.7278474124097],[-74.0018843217885,40.7277718344235],[-74.0017093719385,40.7276836530306],[-74.0016460711686,40.7276519515411],[-74.0015295989952,40.7275976011382],[-74.001410274207,40.7275397701855],[-74.0012613898339,40.727465190873]]]},"properties":{"FID":6,"cartodb_id":6,"objectid":6,"area_name":"Sullivan-Thompson Historic District","borough":"MN","boundary_n":" ","caldate":"11/1/2016","current_":"Yes","desdate":"12/13/2016","extension":"No","last_actio":"DESIGNATED","lp_number":"LP-02590","other_hear":" ","public_hea":"11/29/2016","status_of":"DESIGNATED","shape_leng":5713.04107254037,"shape_area":760413.98683878}}]}