{"type":"FeatureCollection","crs":{"type":"name","properties":{"name":"EPSG:4326"}},"features":[{"type":"Feature","id":1,"geometry":{"type":"Polygon","coordinates":[[[-73.9944816490993,40.7258510744228],[-73.9945659440471,40.7256687775848],[-73.9947460515807,40.7252794427492],[-73.994830680332,40.7251088829541],[-73.9949102974566,40.7249483077165],[-73.9953259759398,40.7250880384289],[-73.995882308741,40.7244029766255],[-73.9959189288494,40.7243587224052],[-73.9961497281498,40.724080065979],[-73.9961560066366,40.7240724848016],[-73.9961622780199,40.7240649081262],[-73.9965022422185,40.7236979812477],[-73.9969475627993,40.7238909847558],[-73.9990341090439,40.7214220486233],[-74.0006188418887,40.7195594935611],[-74.0013279807992,40.719886457254],[-74.0022311026293,40.72034730165],[-73.9975608262531,40.7258601525955],[-73.9975603468731,40.725859914851],[-73.9968467230594,40.7255053455023],[-73.9967236778685,40.7254886808483],[-73.9965805623816,40.7256578355097],[-73.9960214650198,40.7263184957816],[-73.995910281789,40.7264500031128],[-73.9958015189551,40.7265784603988],[-73.9947358108185,40.727837860171],[-73.9941725353769,40.7275605600839],[-73.9942323564997,40.7274765915503],[-73.9944357512498,40.7272360360293],[-73.9946387834697,40.7269959087665],[-73.9947621773658,40.7268517420739],[-73.9949930465368,40.7265786460044],[-73.9950200074755,40.7265461487071],[-73.9950499964817,40.7265106762521],[-73.9951307818502,40.7264151131861],[-73.9952275670167,40.7263006220282],[-73.9952766218547,40.7262418415278],[-73.9944816490993,40.7258510744228]]]},"properties":{"FID":1,"cartodb_id":1,"objectid":1,"newzone":"M1-5/R9X","oldzone":"M1-5B","cm_far":6,"rmih_far":9.7,"cf_far":6.5,"shape_leng":8325.8034929114,"shape_area":1670738.06013147}},{"type":"Feature","id":2,"geometry":{"type":"Polygon","coordinates":[[[-74.0028431166446,40.7240377902304],[-74.0032718017184,40.7235103415668],[-74.0029660312694,40.723327391573],[-74.0046483768877,40.7213594733821],[-74.0047240905765,40.7214128912286],[-74.0049780907956,40.7215755260573],[-74.0050410530714,40.7216158382288],[-74.0054658620385,40.721925270833],[-74.0052611610884,40.7224521486407],[-74.005058674921,40.7229777949532],[-74.0047857266218,40.7236248405791],[-74.0038297013636,40.7234412318853],[-74.0031773143759,40.7242014823627],[-74.0028431166446,40.7240377902304]]]},"properties":{"FID":2,"cartodb_id":2,"objectid":2,"newzone":"M1-6/R10","oldzone":"M1-5A, M1-5B","cm_far":10,"rmih_far":12,"cf_far":10,"shape_leng":2857.0933877341,"shape_area":332676.696837421}},{"type":"Feature","id":3,"geometry":{"type":"Polygon","coordinates":[[[-73.9975608262531,40.7258601525955],[-74.0022311026293,40.72034730165],[-74.0042209564059,40.7218594599383],[-74.0029660312694,40.723327391573],[-74.0032718017184,40.7235103415668],[-74.0028431166446,40.7240377902304],[-74.0028337687169,40.7240492971678],[-74.0027908034829,40.7241022814785],[-74.002530681321,40.7244228453525],[-74.0024731715607,40.7244937058684],[-74.0023408627839,40.7246567043951],[-74.0022240089242,40.7248006810143],[-74.0020333218303,40.7250357102164],[-74.0019393945731,40.7251514704807],[-74.0018444407845,40.7252684220565],[-74.0017494854807,40.7253854365878],[-74.0014794947601,40.7257182910291],[-74.0012304630204,40.7259816577247],[-74.0003822901331,40.7270031280526],[-74.0002348992698,40.7271806034344],[-73.9998624237747,40.7269976841285],[-73.9997911795813,40.726962475025],[-73.9983806788948,40.7262653888823],[-73.9976266812719,40.7258927145764],[-73.9975608262531,40.7258601525955]]]},"properties":{"FID":3,"cartodb_id":3,"objectid":3,"newzone":"M1-5/R7X","oldzone":"M1-5A, M1-5B","cm_far":5,"rmih_far":6,"cf_far":6.5,"shape_leng":6378.88013098593,"shape_area":1942326.76118943}},{"type":"Feature","id":4,"geometry":{"type":"Polygon","coordinates":[[[-73.9985232621879,40.7197851643055],[-73.9981469655505,40.7196189553803],[-73.9981728140563,40.719552889894],[-73.9983468717164,40.7191080280757],[-73.9983941423044,40.7189872109422],[-73.9987500162935,40.7184481494328],[-73.9987506293871,40.7184472048046],[-73.9987524745862,40.7184443493076],[-73.9989516783725,40.7181260759655],[-73.9990207915477,40.7180156110181],[-73.9990664770833,40.7179426556824],[-73.9991684832997,40.7177791013394],[-73.9992209988021,40.7176948175734],[-73.9992460037132,40.7176547585525],[-73.9993118954742,40.7175498432454],[-73.9993601333638,40.717587240804],[-73.9994302569939,40.71764154913],[-73.9998112806828,40.7179136169654],[-73.9999562174717,40.7180171271303],[-74.0006650899791,40.718524679629],[-74.0009424247592,40.7187233427809],[-74.0008295176439,40.7188125751727],[-74.0004886132923,40.7190940891096],[-74.0004767398211,40.7190885411183],[-74.0002753836527,40.7193246806641],[-74.0001955776902,40.7194255577357],[-73.9997121068895,40.7199883662337],[-73.9997008629828,40.7199830054707],[-73.9995358966247,40.7201750332166],[-73.9994716491582,40.7202570036356],[-73.9985232621879,40.7197851643055]]]},"properties":{"FID":4,"cartodb_id":4,"objectid":4,"newzone":"M1-6/R10","oldzone":"M1-5B","cm_far":10,"rmih_far":12,"cf_far":10,"shape_leng":2580.18881171366,"shape_area":390142.594978495}},{"type":"Feature","id":5,"geometry":{"type":"Polygon","coordinates":[[[-74.0022311026293,40.72034730165],[-74.0013279807992,40.719886457254],[-74.0002310666311,40.7193806978741],[-74.0002753836527,40.7193246806641],[-74.0004767398211,40.7190885411183],[-74.0004886132923,40.7190940891096],[-74.0008295176439,40.7188125751727],[-74.0009424247592,40.7187233427809],[-74.0009967443313,40.7187622533551],[-74.00188347193,40.7193971881438],[-74.0018840625391,40.7193976131748],[-74.003511891842,40.7205563869614],[-74.0041527620805,40.7210087546505],[-74.0042619911193,40.7210870454656],[-74.00427010855,40.7210927021661],[-74.0042863173918,40.7211042542013],[-74.0046483768877,40.7213594733821],[-74.0042209564059,40.7218594599383],[-74.0022311026293,40.72034730165]]]},"properties":{"FID":5,"cartodb_id":5,"objectid":5,"newzone":"M1-5/R9X","oldzone":"M1-5A, M1-5B","cm_far":5,"rmih_far":9.7,"cf_far":6.5,"shape_leng":3375.00115502739,"shape_area":314662.965051218}},{"type":"Feature","id":6,"geometry":{"type":"Polygon","coordinates":[[[-74.0006188418887,40.7195594935611],[-73.9990341090439,40.7214220486233],[-73.9969475627993,40.7238909847558],[-73.9965022422185,40.7236979812477],[-73.9961622780199,40.7240649081262],[-73.9960364764155,40.7240113055549],[-73.9955894613425,40.7238208838233],[-73.9954963494543,40.7237812019799],[-73.9957047700634,40.7233660598535],[-73.9958910772126,40.7234432195889],[-73.9964763413267,40.7236857146211],[-73.9966687782009,40.7234502272653],[-73.9971008933238,40.7223560138137],[-73.9973107071355,40.7221082743478],[-73.9981953555476,40.721063694256],[-73.9976280110215,40.7208243402186],[-73.9985232621879,40.7197851643055],[-73.9994716491582,40.7202570036356],[-73.9995358966247,40.7201750332166],[-73.9997008629828,40.7199830054707],[-73.9997121068895,40.7199883662337],[-74.0001955776902,40.7194255577357],[-74.0002310666311,40.7193806978741],[-74.0006188418887,40.7195594935611]]]},"properties":{"FID":6,"cartodb_id":6,"objectid":6,"newzone":"M1-5/R7X","oldzone":"M1-5B","cm_far":5,"rmih_far":6,"cf_far":6.5,"shape_leng":5336.11958713342,"shape_area":530104.593976901}},{"type":"Feature","id":7,"geometry":{"type":"Polygon","coordinates":[[[-73.9913829065815,40.7293849417863],[-73.9922433368609,40.7265957635624],[-73.9941725353769,40.7275605600839],[-73.9947358108185,40.727837860171],[-73.9932616101683,40.7295799001846],[-73.9928369774448,40.7300827734415],[-73.992589108116,40.7300416864639],[-73.9914676019665,40.7298558510282],[-73.9917221655924,40.7295506404399],[-73.9915861797583,40.7294848385278],[-73.9913829065815,40.7293849417863]]]},"properties":{"FID":7,"cartodb_id":7,"objectid":7,"newzone":"M1-5/R9X","oldzone":"M1-5B","cm_far":6,"rmih_far":9.7,"cf_far":6.5,"shape_leng":3474.10006059842,"shape_area":660402.795752959}},{"type":"Feature","id":8,"geometry":{"type":"Polygon","coordinates":[[[-73.9922433368609,40.7265957635624],[-73.9922848908304,40.7264988490811],[-73.9923693439124,40.7262873404663],[-73.9924194303003,40.7261624458828],[-73.9924685126617,40.7260382491041],[-73.9925020428078,40.7259534818783],[-73.9925677677893,40.7257509391502],[-73.9925987847659,40.7257084596349],[-73.9926527161213,40.7255720548805],[-73.9927029688392,40.7254425801831],[-73.9927274717745,40.7253683671791],[-73.9928419078345,40.7253986557687],[-73.9930419409692,40.7254516323716],[-73.9937571107454,40.7256462751747],[-73.9941593457173,40.7257599900482],[-73.9944816490993,40.7258510744228],[-73.9952766218547,40.7262418415278],[-73.9952275670167,40.7263006220282],[-73.9951307818502,40.7264151131861],[-73.9950499964817,40.7265106762521],[-73.9950200074755,40.7265461487071],[-73.9949930465368,40.7265786460044],[-73.9947621773658,40.7268517420739],[-73.9946387834697,40.7269959087665],[-73.9944357512498,40.7272360360293],[-73.9942323564997,40.7274765915503],[-73.9941725353769,40.7275605600839],[-73.9922433368609,40.7265957635624]]]},"properties":{"FID":8,"cartodb_id":8,"objectid":8,"newzone":"M1-5/R7X","oldzone":"M1-5B","cm_far":5,"rmih_far":6,"cf_far":6.5,"shape_leng":2456.4418861496,"shape_area":376344.107590107}},{"type":"Feature","id":9,"geometry":{"type":"Polygon","coordinates":[[[-73.9922433368609,40.7265957635624],[-73.9913829065815,40.7293849417863],[-73.9910733047549,40.7292327898825],[-73.990927688491,40.7291645631742],[-73.9909606184421,40.7290363423426],[-73.991057882371,40.7287085224678],[-73.9918594182835,40.7264188816081],[-73.9922433368609,40.7265957635624]]]},"properties":{"FID":9,"cartodb_id":9,"objectid":9,"newzone":"M1-6/R10","oldzone":"M1-5B","cm_far":10,"rmih_far":12,"cf_far":10,"shape_leng":2351.05368211355,"shape_area":138661.328043764}}]}