{"type":"FeatureCollection","crs":{"type":"name","properties":{"name":"EPSG:4326"}},"features":[{"type":"Feature","id":1,"geometry":{"type":"Polygon","coordinates":[[[-73.9910578823709,40.7287085224679],[-73.9918594182834,40.7264188816082],[-73.9922433368608,40.7265957635625],[-73.9922848908303,40.7264988490811],[-73.9923693439123,40.7262873404664],[-73.9924194303002,40.7261624458829],[-73.9924685126616,40.7260382491042],[-73.9925020428076,40.7259534818784],[-73.9925677677891,40.7257509391503],[-73.9925987847658,40.7257084596349],[-73.9926527161212,40.7255720548806],[-73.9927029688391,40.7254425801831],[-73.9927274717744,40.7253683671793],[-73.9928419078344,40.7253986557687],[-73.9930419409691,40.7254516323717],[-73.9937571107453,40.7256462751747],[-73.9941593457172,40.7257599900483],[-73.9944816490991,40.7258510744229],[-73.994565944047,40.7256687775849],[-73.9947460515806,40.7252794427493],[-73.9948306803319,40.7251088829541],[-73.9949102974564,40.7249483077166],[-73.9953259759397,40.725088038429],[-73.9958823087409,40.7244029766256],[-73.9959189288492,40.7243587224053],[-73.9961497281497,40.724080065979],[-73.9961560066365,40.7240724848017],[-73.9961622780197,40.7240649081262],[-73.9960364764154,40.724011305555],[-73.9955894613423,40.7238208838234],[-73.9954963494542,40.7237812019799],[-73.9957047700633,40.7233660598535],[-73.9958910772125,40.723443219589],[-73.9964763413266,40.7236857146212],[-73.9966687782007,40.7234502272654],[-73.9971008933237,40.7223560138138],[-73.9973107071353,40.7221082743478],[-73.9981953555474,40.721063694256],[-73.9976280110214,40.7208243402187],[-73.9985232621877,40.7197851643056],[-73.9981469655503,40.7196189553803],[-73.9981728140562,40.7195528898941],[-73.9983468717163,40.7191080280758],[-73.9983941423043,40.7189872109423],[-73.9987500162933,40.7184481494328],[-73.998750629387,40.7184472048046],[-73.998752474586,40.7184443493077],[-73.9989516783723,40.7181260759656],[-73.9990207915476,40.7180156110182],[-73.9990664770832,40.7179426556824],[-73.9991684832996,40.7177791013395],[-73.9992209988019,40.7176948175735],[-73.9992460037131,40.7176547585525],[-73.9993118954741,40.7175498432455],[-73.9993601333637,40.7175872408041],[-73.9994302569938,40.71764154913],[-73.9998112806827,40.7179136169655],[-73.9999562174716,40.7180171271303],[-74.000665089979,40.718524679629],[-74.0009967443312,40.7187622533552],[-74.0018834719299,40.7193971881438],[-74.0018840625389,40.7193976131748],[-74.0035118918419,40.7205563869615],[-74.0041527620804,40.7210087546506],[-74.0042619911192,40.7210870454657],[-74.0042701085498,40.7210927021662],[-74.0042863173916,40.7211042542014],[-74.0046483768876,40.7213594733821],[-74.0047240905763,40.7214128912287],[-74.0049780907955,40.7215755260573],[-74.0050410530713,40.7216158382289],[-74.0054658620384,40.7219252708331],[-74.0052611610882,40.7224521486408],[-74.0050586749208,40.7229777949533],[-74.0047857266217,40.7236248405792],[-74.0038297013635,40.7234412318853],[-74.0031773143758,40.7242014823628],[-74.0028431083588,40.7240377866287],[-74.0028337687168,40.7240492971679],[-74.0027908034828,40.7241022814786],[-74.0025306813208,40.7244228453526],[-74.0024731715605,40.7244937058685],[-74.0023408627837,40.7246567043952],[-74.002224008924,40.7248006810143],[-74.0020333218302,40.7250357102165],[-74.001939394573,40.7251514704808],[-74.0018444407844,40.7252684220566],[-74.0017494854806,40.7253854365878],[-74.00147949476,40.7257182910292],[-74.0012304630203,40.7259816577248],[-74.000382290133,40.7270031280527],[-74.0002348992697,40.7271806034345],[-73.9998624237746,40.7269976841285],[-73.9997911795812,40.7269624750251],[-73.9983806788947,40.7262653888824],[-73.9976266812718,40.7258927145765],[-73.997560826253,40.7258601525956],[-73.9975603468729,40.7258599148511],[-73.9968467230593,40.7255053455024],[-73.9967236778684,40.7254886808484],[-73.9965805623814,40.7256578355098],[-73.9960214650197,40.7263184957816],[-73.9959102817889,40.7264500031129],[-73.9958015189549,40.7265784603989],[-73.9932616101682,40.7295799001846],[-73.9928369774447,40.7300827734416],[-73.9925891081159,40.730041686464],[-73.9914676019664,40.7298558510283],[-73.9917221655923,40.7295506404399],[-73.9915861797582,40.7294848385279],[-73.9910733047548,40.7292327898825],[-73.9909276884909,40.7291645631743],[-73.9909606184419,40.7290363423427],[-73.9910578823709,40.7287085224679]]]},"properties":{"FID":1,"cartodb_id":1,"objectid":1,"shape_leng":15304.2307236093,"shape_area":6356059.94093924}}]}