{"type":"FeatureCollection","crs":{"type":"name","properties":{"name":"EPSG:4326"}},"features":[{"type":"Feature","id":1,"geometry":{"type":"Polygon","coordinates":[[[-74.0003733156961,40.7269716341152],[-74.0001468424573,40.7268602337248],[-73.9997746514946,40.7266642085406],[-73.9993214334826,40.7264432510706],[-73.9984180890705,40.725999636188],[-73.9976630053309,40.7256238259799],[-73.9973211578295,40.7254538219795],[-73.997031096582,40.7253159709467],[-73.9968574959569,40.7252812087673],[-73.9967607951977,40.7252651603967],[-73.9960243537198,40.7250882064136],[-73.9961580408545,40.7249302479416],[-73.9963229894778,40.7247353502632],[-73.9964996833558,40.7245265757534],[-73.9966682293041,40.7243274260488],[-73.9967531284216,40.7242308805092],[-73.9969729112431,40.7239678014003],[-73.9970733335738,40.7238639945183],[-73.9972911111547,40.7236045076508],[-73.9973923827852,40.7234814141622],[-73.9973973599383,40.7234830051366],[-73.9977332816773,40.7230762571462],[-73.9977826658458,40.7230175636413],[-73.9980102184729,40.7227533178071],[-73.998096340534,40.7226468775205],[-73.9984462516384,40.7222341259445],[-73.9988099146043,40.721805154644],[-73.9991659571222,40.7213844383508],[-73.9990229753446,40.7213303802958],[-73.9986197032636,40.7211589538876],[-73.9988454583531,40.7208920839719],[-73.9989183670452,40.7209270051532],[-73.999428148506,40.7203242739048],[-73.9995373436003,40.7201832914647],[-73.9994860481534,40.7201528063014],[-73.9996467796359,40.719962529186],[-73.9997135542038,40.7199966247746],[-73.999761181813,40.7199363966207],[-73.9997976612931,40.7198959087396],[-73.9998610558299,40.7198249035453],[-73.9999625543424,40.7197075580053],[-74.0001970242288,40.7194338158046],[-74.0004997123178,40.7195722120602],[-74.0007893776863,40.7192352644587],[-74.0008034383321,40.7192417853618],[-74.001097695637,40.7190109930764],[-74.0017049706732,40.7194439298319],[-74.0018881679862,40.7195809371459],[-74.0024449090158,40.7199780280659],[-74.0025666667494,40.720068004124],[-74.0031148546817,40.7204550779885],[-74.0032308460441,40.7205373643253],[-74.0037889862389,40.7209349322824],[-74.0039007506297,40.7210202554289],[-74.0041169560014,40.721177286552],[-74.0042262388101,40.7212566637711],[-74.0043804873769,40.7213622488878],[-74.0044432519464,40.7214072319859],[-74.0046327998157,40.721547441628],[-74.0048702509736,40.7217132531481],[-74.0046855898235,40.7218614695672],[-74.0042834308883,40.7223229198318],[-74.0043542724695,40.7223577492599],[-74.0042099823774,40.7225274934903],[-74.004209081507,40.7225312311014],[-74.0041365549908,40.7224956830674],[-74.0040388168388,40.7226048115588],[-74.0039362060442,40.7227297450017],[-74.0039174795431,40.7227464063259],[-74.0038302876282,40.7228472297353],[-74.0037815878041,40.7229172995436],[-74.0036850917118,40.7230272631922],[-74.0035643821888,40.723170900208],[-74.0035179947914,40.723221231723],[-74.0034998381669,40.7232123573747],[-74.0034329596993,40.7232923817246],[-74.0032075518116,40.723551014791],[-74.0032669808174,40.7235811417273],[-74.0031720826189,40.7236918295068],[-74.0031439163596,40.7236775630263],[-74.0030793284275,40.7237531405947],[-74.0030411245224,40.7237978449398],[-74.0029390704211,40.7239172637888],[-74.0028305735413,40.7240440556734],[-74.0028436209022,40.7240506048935],[-74.0026596039467,40.724271287299],[-74.0024620975165,40.7245056232175],[-74.0023221117293,40.7246630958255],[-74.0022996540426,40.7246528144041],[-74.0021976990769,40.7247836555352],[-74.0017040826556,40.7253666713218],[-74.0011924994575,40.7260082824113],[-74.0010440459881,40.7261841981027],[-74.000807555629,40.7264587394189],[-74.0007080369936,40.7265762848537],[-74.0003733156961,40.7269716341152]]]},"properties":{"FID":1,"cartodb_id":1,"resname":"Soho Historic District","address":"Roughly bounded by W. Broadway, Houston, Crosby, and Canal Sts.","srdate":"Mon, 23 Jun 1980 00:00:00 GMT","refnum":"78001883","cntyfips":"061","county":"New York","city":"New York","certcd":"LI","multname":" ","restrict_":"74","theme":" ","tax_parcel":" ","nrnum":"90NR00770","modifiedon":"Wed, 16 Aug 2017 00:00:00 GMT"}},{"type":"Feature","id":2,"geometry":{"type":"Polygon","coordinates":[[[-74.000463995971,40.715492960787],[-74.0000835913362,40.7161094938035],[-74.0000353225287,40.7162479066403],[-73.9994134406423,40.7172629078469],[-73.9991710866032,40.7176454244332],[-73.9992983846868,40.7177249903942],[-73.9995834090908,40.7179277214571],[-73.9995150298687,40.7180378475347],[-73.9994717170377,40.7180222313053],[-73.999433034266,40.7180845212717],[-73.9994493331084,40.7180903978738],[-73.9993738269842,40.7182120035474],[-73.9990651010951,40.718100697038],[-73.9989156444455,40.7180570792927],[-73.9987169271542,40.7183773171376],[-73.9986542841275,40.7184799776787],[-73.9987895600195,40.7185339307208],[-73.9991389904995,40.7186554460547],[-73.9992717621768,40.7187016165723],[-73.9986378576832,40.719483520492],[-73.9985310405232,40.719432497938],[-73.9985708022961,40.7193715768452],[-73.9983629455245,40.7192831369126],[-73.9982270923358,40.7192263825767],[-73.998193281533,40.7193089574377],[-73.9981178371744,40.719502587611],[-73.9980389143307,40.7194762163044],[-73.9979473830918,40.7196449241034],[-73.9978318305694,40.7198282708417],[-73.9976348612995,40.7197618827583],[-73.9975551404058,40.7198916950549],[-73.9975395814051,40.7199625682616],[-73.9975048023905,40.7200266625925],[-73.9974705991067,40.7200898489585],[-73.9974469960877,40.7201550073845],[-73.9973528801477,40.7201232851723],[-73.997314439827,40.7201900088399],[-73.9973406605566,40.7201988470248],[-73.9973058582878,40.7202592561789],[-73.9972357898422,40.7202356397061],[-73.9971093325092,40.7205280350422],[-73.9970366957052,40.7206936694487],[-73.9972058302142,40.7207616512769],[-73.9970246271768,40.7212212079478],[-73.9970254010532,40.7212216177863],[-73.9970239904154,40.721225213886],[-73.9969444825349,40.7214168153847],[-73.9972846374527,40.721530344394],[-73.9970238715956,40.7222101521706],[-73.996984095822,40.7223204981265],[-73.9968030088851,40.7227807431696],[-73.9964406554563,40.7227068200385],[-73.9962848595258,40.723102034007],[-73.9966481947751,40.7231761300237],[-73.9965484306582,40.7234309191616],[-73.9964118343001,40.7235940052368],[-73.9963177580886,40.7236915515281],[-73.9957998780023,40.7243193659557],[-73.9954323815857,40.7240938915027],[-73.9952931602702,40.7240194433074],[-73.9950083130288,40.7245835826614],[-73.9948387846863,40.7245377251068],[-73.994863900114,40.7244879840781],[-73.994408797189,40.7243648934277],[-73.9944416145927,40.7242907501543],[-73.9942952076058,40.7242485536104],[-73.99400922682,40.7241704993195],[-73.993989636671,40.7241658198379],[-73.9939902376904,40.7241645161466],[-73.9936774207767,40.7240840705024],[-73.993531055005,40.7240407788293],[-73.9934429153488,40.7242542314895],[-73.9932199800852,40.724175229934],[-73.9932473675601,40.7241087491093],[-73.9931845741581,40.7240913359589],[-73.9933302501172,40.7237182407184],[-73.9933454708,40.7237218119803],[-73.9933565459894,40.723692495983],[-73.993369008701,40.7236958576315],[-73.9933699696741,40.7236936904684],[-73.9933718566494,40.723694113207],[-73.9933905367461,40.7236463353687],[-73.9933767366769,40.7236432399279],[-73.9933783808666,40.7236390292976],[-73.9933578591363,40.7236339903108],[-73.9933639879977,40.7236190218501],[-73.993384899359,40.7236239592263],[-73.993490704835,40.7233664767352],[-73.9934613010154,40.7233589791259],[-73.9935388694685,40.7231460848471],[-73.9935589142155,40.7230912476389],[-73.993563156745,40.7230921828115],[-73.9936096915678,40.7229673870819],[-73.9936061082367,40.7229459508236],[-73.9936164354249,40.7229486398107],[-73.9936431654036,40.7228724135204],[-73.9936286535783,40.722868615987],[-73.9936343811855,40.7228505364448],[-73.9937261034716,40.7226189218586],[-73.9937496332893,40.7226286902532],[-73.99379290804,40.7225128328682],[-73.9940262367053,40.7218760770346],[-73.9942771312975,40.7212073616445],[-73.9943249970578,40.7210919239399],[-73.9945140305469,40.7206061517551],[-73.9945836666957,40.7203931057219],[-73.9946196097949,40.7203024868463],[-73.9946244265615,40.7203034197396],[-73.9948270460179,40.7198088690217],[-73.9951496162993,40.7199397531989],[-73.9953061878964,40.7199956891039],[-73.9953681332852,40.71982358914],[-73.9954689557012,40.7195684880399],[-73.9953193067393,40.7195171001525],[-73.994981741493,40.7193996909153],[-73.9950209476927,40.7193338891939],[-73.9949939051437,40.7193244861213],[-73.9950332280331,40.7192586721701],[-73.9950385086851,40.7192605098931],[-73.9950668518733,40.7191972620606],[-73.9950631164456,40.7191952560147],[-73.9950959663431,40.719128015105],[-73.9951260746115,40.7190663866398],[-73.9951133289722,40.7190619544102],[-73.9951507365573,40.7190005205766],[-73.9954179514309,40.7190934614042],[-73.9954193759019,40.7190900332556],[-73.9954869778714,40.71911354644],[-73.995627576163,40.7191671394583],[-73.9957363011323,40.7188920049467],[-73.9958036366275,40.7187344993609],[-73.9953321653058,40.7185693591952],[-73.9954074650779,40.7184141268182],[-73.9953910486998,40.7184083209946],[-73.9954847207062,40.7182125431491],[-73.9954740811832,40.7182087807631],[-73.9955173376599,40.718149029571],[-73.9955499893637,40.7181591710025],[-73.9955830402484,40.7180834213059],[-73.9956495898609,40.7179715436139],[-73.9955793354607,40.7179466799974],[-73.9956171159072,40.7178823837811],[-73.9956518026086,40.7178948040387],[-73.9959616859704,40.717404228899],[-73.9960810491427,40.7172156092267],[-73.9961120395428,40.7172265547355],[-73.9962303138901,40.7170396536365],[-73.9965272675179,40.7171445336903],[-73.996720654989,40.7168335892523],[-73.9963852523518,40.7167151010666],[-73.9965051737194,40.716525594946],[-73.9965770595783,40.7165509841173],[-73.996733452126,40.7163155692313],[-73.9968145185103,40.7161856087224],[-73.9967294223771,40.7161556708761],[-73.9967663275933,40.7160941244932],[-73.9969157166968,40.7161466836274],[-73.9971046143463,40.7162131243725],[-73.9973565778905,40.7158074508911],[-73.9970846257459,40.7157101557213],[-73.9971385847545,40.715620173919],[-73.9974129124085,40.7157167487904],[-73.9976852434298,40.7152847516589],[-73.9973556335592,40.7151688031004],[-73.9974757626179,40.7149686270468],[-73.9975921919384,40.7147744473744],[-73.9976193469976,40.7147801092903],[-73.9976576388916,40.7147147289155],[-73.9978382071498,40.7144858588477],[-73.9979667040353,40.7145362972796],[-73.9980570151145,40.7144290159842],[-73.9981020089437,40.7143803487128],[-73.9979924491671,40.7143356078918],[-73.9979062058067,40.7142837079487],[-73.9978819234609,40.7142690947691],[-73.9978770424264,40.7142626833972],[-73.9979210258494,40.7142260933766],[-73.9979549004329,40.7142180044228],[-73.9979934945249,40.7142047116195],[-73.9980704544053,40.7141731775165],[-73.9981760714698,40.7141334036856],[-73.9981964966796,40.7141667438472],[-73.9982473468367,40.7142497465692],[-73.9982841191555,40.7143097692559],[-73.998303616586,40.7143073512236],[-73.9982811942274,40.7142360409898],[-73.9984699738011,40.714171743357],[-73.998659054702,40.7141285401175],[-73.998812641749,40.7141062213975],[-73.9987388307852,40.7136535907125],[-73.9994948377095,40.7140109277171],[-73.9996443295911,40.7140700773414],[-74.0003667193758,40.7144114224514],[-74.000463995971,40.715492960787]]]},"properties":{"FID":2,"cartodb_id":2,"resname":"Chinatown & Little Italy Historic District","address":"bounded by Baxter, Centre, Clevenand, lafayette...","srdate":"Sat, 30 Dec 1899 00:00:00 GMT","refnum":" ","cntyfips":" ","county":"New York","city":"New York","certcd":" ","multname":"KAH","restrict_":" ","theme":" ","tax_parcel":" ","nrnum":"09NR06033","modifiedon":"Wed, 11 Oct 2017 00:00:00 GMT"}},{"type":"Feature","id":3,"geometry":{"type":"Polygon","coordinates":[[[-73.9977505112198,40.7142086109254],[-73.9978556467554,40.7143492765373],[-73.9977431609798,40.714501760175],[-73.9978070948762,40.7145254618772],[-73.9976576388915,40.7147147289155],[-73.9976310021309,40.7147091900649],[-73.9975921919384,40.7147744473744],[-73.9975124666877,40.714905948471],[-73.9974691838393,40.7149837697518],[-73.9974491587488,40.715014395359],[-73.9974311999649,40.7150428839374],[-73.9973465141205,40.715011862371],[-73.9972701288139,40.715135959487],[-73.9971934866661,40.7152530347088],[-73.9976102670786,40.7153989942332],[-73.9974129124085,40.7157167487905],[-73.9971385847545,40.715620173919],[-73.9970846257459,40.7157101557214],[-73.9973565778904,40.7158074508911],[-73.9971046143462,40.7162131243725],[-73.9969157166968,40.7161466836274],[-73.9967663275932,40.7160941244932],[-73.9967294223771,40.7161556708761],[-73.9968145185103,40.7161856087224],[-73.996734052642,40.7163198011304],[-73.9963197646678,40.7161739704666],[-73.9961699916138,40.7164072126317],[-73.9965025872039,40.7165265061282],[-73.9963872680679,40.7167164839404],[-73.9964994512264,40.7167554437945],[-73.9964224850985,40.7168807919125],[-73.9963904667333,40.7168694001567],[-73.9963513233569,40.7169326601704],[-73.9962700906764,40.7169029592574],[-73.9961943389881,40.7170269475053],[-73.9962303138901,40.7170396536365],[-73.9961120395428,40.7172265547355],[-73.9960810491426,40.7172156092268],[-73.9960664098108,40.7172374454949],[-73.9959663238525,40.7174006592259],[-73.9958858355735,40.7175191998448],[-73.9956115720081,40.7179593697085],[-73.9956512419505,40.7179732459767],[-73.99559785699,40.718062456896],[-73.9955468530089,40.7181592500075],[-73.9955173376599,40.7181490295711],[-73.9954740811833,40.7182087807631],[-73.995484720706,40.7182125431491],[-73.995453696597,40.7182781021757],[-73.9954227157061,40.7183438061184],[-73.9953910486997,40.7184083209947],[-73.9954074650779,40.7184141268183],[-73.9954012229601,40.7184319735493],[-73.9953395630271,40.7185551888468],[-73.9953326033132,40.7185684704596],[-73.9952528974927,40.7187273882669],[-73.9955991480151,40.718845299343],[-73.9954869778715,40.71911354644],[-73.9954193759019,40.7190900332557],[-73.9954179514308,40.7190934614042],[-73.9951507365573,40.7190005205766],[-73.9951133289721,40.7190619544103],[-73.9951260746114,40.7190663866399],[-73.9950959663431,40.719128015105],[-73.9950940338815,40.7191319707708],[-73.9950631166316,40.7191952559295],[-73.9950694743111,40.7191974662825],[-73.9950385086851,40.719260509893],[-73.9950332281708,40.7192586723232],[-73.9949939051437,40.7193244861213],[-73.9950209476926,40.7193338891939],[-73.994981741493,40.7193996909153],[-73.9950320332603,40.7194171830533],[-73.9953193067392,40.7195171001526],[-73.9952731646014,40.7196281556423],[-73.9952178140376,40.7196044353394],[-73.9951876254266,40.7196482720728],[-73.9951325342007,40.7197282681927],[-73.9949051913517,40.719636287338],[-73.9948270460177,40.7198088690217],[-73.9947095816801,40.7201055420158],[-73.9946537112655,40.7202369118648],[-73.9946507004604,40.7202362376121],[-73.9946244263243,40.7203034198688],[-73.9946196088754,40.7203024869746],[-73.9945836666957,40.7203931057219],[-73.9945188065838,40.7206020299029],[-73.9944782853743,40.7207013635559],[-73.9944503440146,40.7207705427755],[-73.9943727117786,40.7209765727223],[-73.9943275712666,40.7210892785585],[-73.9942771312974,40.7212073616445],[-73.9939384681968,40.7221079403879],[-73.993841579678,40.7223740972576],[-73.9938444051466,40.7223746760037],[-73.9937929080399,40.7225128328683],[-73.993710413295,40.7224785658069],[-73.9936613641031,40.7225920460286],[-73.99356852512,40.7228366894559],[-73.9936343811855,40.7228505364448],[-73.9936289277012,40.7228692593736],[-73.9936431655108,40.7228724138879],[-73.9936308497305,40.7229085748531],[-73.9936164353278,40.7229486398452],[-73.9936061089208,40.7229459505069],[-73.9936096907499,40.7229673867211],[-73.9936027209445,40.7229872095296],[-73.9935914762622,40.7230194559748],[-73.993563156745,40.7230921828117],[-73.9935589141774,40.7230912471607],[-73.9935388702414,40.7231460852153],[-73.9935200322093,40.7231984426211],[-73.9934613010154,40.7233589791259],[-73.9934907046184,40.7233664767266],[-73.9934561019601,40.7234506087474],[-73.9934376231164,40.7234955360972],[-73.9933848993589,40.7236239592263],[-73.9933639879977,40.7236190218501],[-73.9933578591363,40.7236339903108],[-73.9933783808568,40.7236390292218],[-73.9933767360342,40.7236432401354],[-73.9933905367461,40.7236463353688],[-73.9933718566494,40.723694113207],[-73.9933699696741,40.7236936904684],[-73.993369008701,40.7236958576315],[-73.9933565458644,40.7236924964053],[-73.9933454708001,40.7237218119804],[-73.9933302501171,40.7237182407185],[-73.9933157736051,40.723755317721],[-73.9932903952835,40.7238203170618],[-73.9931845741581,40.724091335959],[-73.9932473675601,40.7241087491093],[-73.9932199800851,40.724175229934],[-73.9930585631765,40.7244931439987],[-73.9930076845459,40.7246198301663],[-73.9929783533645,40.7246119234792],[-73.9929275622416,40.7247480455434],[-73.992967971978,40.7247588695],[-73.9929409605288,40.724826127591],[-73.992923373744,40.7248214170562],[-73.9929026381486,40.7248838145568],[-73.9928825399412,40.7249435046634],[-73.9929251302835,40.724954912305],[-73.9928947352624,40.7250158484493],[-73.9928913079441,40.7250149303908],[-73.9928680949065,40.725072732457],[-73.9928804029577,40.7250760285747],[-73.9928218181916,40.7252073445799],[-73.992642495512,40.725159315924],[-73.9925891124071,40.7252736349549],[-73.9925416467212,40.725400772605],[-73.9925983934723,40.725413840519],[-73.9925316959586,40.7255519414388],[-73.9926769071703,40.7255898860574],[-73.9926641750111,40.725617028704],[-73.992697819177,40.7256270508539],[-73.9925748925481,40.7257724360963],[-73.9924472530495,40.7259144939547],[-73.9925607211477,40.7259708773057],[-73.9925076489559,40.7260336772657],[-73.9925254527947,40.7260425236217],[-73.9924263899886,40.7261594361306],[-73.9925018241361,40.7261969201789],[-73.9924035960061,40.7263130916356],[-73.9923854695314,40.7263048523241],[-73.9923419971919,40.7262824824146],[-73.9922910905555,40.7263407227692],[-73.9923540487339,40.7263723366886],[-73.992309369055,40.7264259761526],[-73.9922554671837,40.7264889619756],[-73.992106125122,40.726647365796],[-73.9921516274977,40.7266700172489],[-73.9920981308161,40.7267329333069],[-73.9922110435644,40.7267891415473],[-73.9920977136544,40.7269223808071],[-73.9922655265198,40.7270253035709],[-73.9920625153433,40.727263980417],[-73.9919824926294,40.7273925431326],[-73.9920567554614,40.7274290392722],[-73.9918923607007,40.7276233961287],[-73.9919776785663,40.7276653249694],[-73.9918597765499,40.7277997330458],[-73.9921187502168,40.7279209390848],[-73.9920880546681,40.727957229039],[-73.9919270634062,40.7281475609173],[-73.9917978450633,40.7280840573327],[-73.9917594354676,40.7281294676878],[-73.9918735185773,40.7281855330559],[-73.991783158014,40.7282924854184],[-73.9918880286181,40.7283440234608],[-73.9918469586271,40.7283935013853],[-73.9917971286405,40.7284525101129],[-73.991746868945,40.7285078655168],[-73.9917177751238,40.7284935670897],[-73.9916537616129,40.7286240921083],[-73.991743394798,40.7286681414793],[-73.9915125776253,40.7289413745334],[-73.9914088846773,40.7290639635827],[-73.9914697532937,40.7290938771669],[-73.9913722249382,40.7292091754665],[-73.9914383783871,40.7292416860019],[-73.9913889891086,40.7293000742639],[-73.9913935349486,40.7293023088352],[-73.9913365300044,40.7293697004031],[-73.9910747491298,40.729241049612],[-73.9907421571076,40.7291923006427],[-73.9906321949069,40.7296249624881],[-73.9901169406291,40.7295475046811],[-73.9904603999615,40.7290770714474],[-73.9905687397175,40.7289284309546],[-73.9908929093568,40.7284846568262],[-73.9905934921817,40.7283607289628],[-73.9906787532741,40.7282316088208],[-73.9904833048643,40.7281491343101],[-73.9905735779801,40.7280258961211],[-73.9905076390853,40.7279980654601],[-73.990553303868,40.7279357281042],[-73.9905950019307,40.7278788025173],[-73.9905321910854,40.7278522972939],[-73.990616690634,40.7277366670571],[-73.9906617199765,40.7276754692273],[-73.9907098389871,40.727609777364],[-73.9908043051602,40.7274834110601],[-73.9907092466749,40.7274432984796],[-73.9908838630638,40.7272049044908],[-73.9908686962158,40.7271985618027],[-73.9910425622519,40.7269612000836],[-73.9911286366099,40.7268226020009],[-73.9911734369294,40.7267607693579],[-73.9912238574149,40.7266999532346],[-73.9911401248658,40.7266816952867],[-73.9910544634971,40.7267984929046],[-73.9909921831051,40.7267721537526],[-73.9911636572513,40.7265383526978],[-73.9911459552962,40.7265344922097],[-73.9911520234201,40.7265262183309],[-73.991196234507,40.7264659364191],[-73.9912424590724,40.7264029098858],[-73.9912990255199,40.7264146172692],[-73.9913130893791,40.7263954418094],[-73.9913086692454,40.7263935816284],[-73.9913623747698,40.7263206686606],[-73.9913664956925,40.7263151913171],[-73.9914593407495,40.7261731933939],[-73.9911812371328,40.7260522953989],[-73.9914431491782,40.725703923087],[-73.9915033199683,40.7257274034529],[-73.9916226442631,40.7255676535791],[-73.9917060268354,40.7254196695374],[-73.9911521948286,40.7251858758555],[-73.991275546842,40.7250144059741],[-73.9914088497622,40.7251020868522],[-73.9915179606197,40.724893643209],[-73.9917186551774,40.7249586179979],[-73.9918106775944,40.7247913842853],[-73.9918886696813,40.7246445728101],[-73.9912426654133,40.7243708620445],[-73.9913536339941,40.7242149335856],[-73.9913244556439,40.7242054186088],[-73.9913511855136,40.7241668254772],[-73.991486409468,40.7242060735165],[-73.9915509108303,40.7240781577154],[-73.9912327952127,40.7239817720671],[-73.9912763855758,40.7239205222549],[-73.9915902616072,40.7240154483168],[-73.9919120575795,40.7241127684494],[-73.9921008251183,40.7237984808299],[-73.9912783225107,40.7235432317698],[-73.9915288720859,40.7230365631196],[-73.9923233707073,40.7232662694652],[-73.9923702155512,40.7231388713191],[-73.9923966444731,40.7230728089251],[-73.9924221844689,40.7230125406513],[-73.9916410422551,40.72280972635],[-73.991783577091,40.7225214809517],[-73.9925822655632,40.7227526982181],[-73.9926444156,40.7226283508822],[-73.9927120139172,40.7224979390667],[-73.9926261131009,40.7224720658949],[-73.9925788071484,40.7224594139102],[-73.9926114354948,40.7223954406216],[-73.9926440659438,40.7223314607359],[-73.9927093187152,40.7222035223436],[-73.9924683482152,40.7221343295825],[-73.992532420084,40.7220055331982],[-73.9924774946988,40.7219903867888],[-73.9925103697662,40.721925604386],[-73.9925396070137,40.7218591809207],[-73.9925572610943,40.7217967437363],[-73.9926747962056,40.7218305244332],[-73.9927011781008,40.7217647199619],[-73.9927814807152,40.7217879857575],[-73.9928640828198,40.721811917518],[-73.9929980058274,40.7215465371812],[-73.9930717239169,40.7215669933513],[-73.9931184815835,40.7214481722756],[-73.993164844688,40.7213263626249],[-73.9930588347367,40.7212958043708],[-73.9931271513868,40.7211543325985],[-73.9929560325611,40.7211032647977],[-73.9930626760482,40.7208387879104],[-73.9930525982248,40.7208357834383],[-73.9930854352455,40.7207721679307],[-73.9930593229721,40.7207643822224],[-73.9930917630386,40.7207015341231],[-73.9927481514156,40.7205990829705],[-73.9927807461313,40.7205359357883],[-73.9931624787387,40.7206509315991],[-73.9932171925136,40.7206667061895],[-73.9932510605389,40.7206010930578],[-73.9932799282144,40.7205374569488],[-73.9933580143337,40.7205624634923],[-73.9934601165751,40.7203691394553],[-73.9935187166955,40.7199489606942],[-73.9935413885251,40.7199049651167],[-73.9935265367566,40.7199005166743],[-73.9935584203088,40.7198386444417],[-73.9935477206959,40.7198354407081],[-73.9935790456481,40.7197746548137],[-73.9936415965177,40.7196532652444],[-73.993720440891,40.7196768629762],[-73.9937509451135,40.7196176634602],[-73.9936924206244,40.7196001366255],[-73.993724043369,40.7195387721107],[-73.9937914004438,40.719558866312],[-73.9938611726498,40.7195791620545],[-73.9939820492942,40.719342298402],[-73.9940190703562,40.7192115729044],[-73.9940581826249,40.7191324380093],[-73.9941572015451,40.7189445702899],[-73.9940197343585,40.7189033923826],[-73.9940525774287,40.7188399088805],[-73.9941510838936,40.7186494989358],[-73.9941839851642,40.7185859012148],[-73.9942433320139,40.7186045910725],[-73.9942639188791,40.7185647985664],[-73.9942687642926,40.718564711927],[-73.9942811272177,40.7185390272217],[-73.9943046241413,40.7185460654023],[-73.9943729962041,40.7184184840732],[-73.9944539540583,40.7182513024555],[-73.9945213793151,40.7181191828011],[-73.994430037085,40.7180915688758],[-73.9944973186276,40.7179597489535],[-73.994640770251,40.717678698284],[-73.9946610030549,40.7176390555495],[-73.9946938399085,40.7175747220755],[-73.9947137018275,40.7175358069241],[-73.9947257379078,40.7175122247935],[-73.9947589599658,40.7174471343126],[-73.9947041447727,40.7174299391739],[-73.9947375037665,40.7173664346275],[-73.9947215890695,40.7173614203194],[-73.9947542547112,40.7172974211298],[-73.9948245964304,40.7173185364619],[-73.9948569466192,40.7172551537019],[-73.9948638792914,40.717255192438],[-73.994897140901,40.7171883589935],[-73.9949452409044,40.7170661693077],[-73.9950123883438,40.7169346092639],[-73.9949614109054,40.7169189981396],[-73.9949957126411,40.7168517914219],[-73.994921353605,40.7168290209252],[-73.9949544755536,40.7167641252556],[-73.995079859498,40.7168025211004],[-73.9951468931266,40.7166710756997],[-73.9951946856842,40.7165787878628],[-73.9952460000406,40.7164803107144],[-73.9952794322058,40.7164902453792],[-73.9954160735102,40.7162260094627],[-73.9954666544483,40.7162414979551],[-73.9953660021976,40.7160616050539],[-73.9954269009249,40.7158809529466],[-73.9944903994023,40.7155808532005],[-73.994717144795,40.715066076356],[-73.9943121731821,40.7143329839433],[-73.9967416181513,40.7141502007856],[-73.9972961225505,40.7141099709471],[-73.9976516716322,40.7141654531218],[-73.9977505112198,40.7142086109254]]]},"properties":{"FID":3,"cartodb_id":3,"resname":"The Bowery Historic District","address":"The Bowery from Chathan Square to Cooper Square","srdate":"Sat, 30 Dec 1899 00:00:00 GMT","refnum":" ","cntyfips":" ","county":"New York","city":"Manhattan","certcd":" ","multname":"DM","restrict_":" ","theme":" ","tax_parcel":" ","nrnum":"11NR06248","modifiedon":"Tue, 15 Aug 2017 00:00:00 GMT"}}]}