{"type":"FeatureCollection","crs":{"type":"name","properties":{"name":"EPSG:4326"}},"features":[{"type":"Feature","id":1,"geometry":{"type":"Polygon","coordinates":[[[-74.0025145,40.72028826],[-74.00268135,40.72013895],[-74.00273335,40.720176],[-74.0025665,40.72032048],[-74.0025145,40.72028826]]]},"properties":{"FID":1,"cartodb_id":1,"objectid":5,"address":"317 CANAL STREET","yearbuilt":1821,"histdist":"SoHo-Cast Iron Historic District","status_1":"NHL, S/NR-listed, NYCHD","snr":1}},{"type":"Feature","id":2,"geometry":{"type":"Polygon","coordinates":[[[-74.00400637,40.72191928],[-74.00396929,40.72196338],[-74.00365636,40.72180915],[-74.00369119,40.72176721],[-74.00400637,40.72191928]]]},"properties":{"FID":2,"cartodb_id":2,"objectid":15,"address":"323 WEST BROADWAY","yearbuilt":1923,"histdist":"SoHo-Cast Iron Historic District","status_1":"NHL, S/NR-listed, NYCHD","snr":1}},{"type":"Feature","id":3,"geometry":{"type":"Polygon","coordinates":[[[-73.9999495478917,40.726191992409],[-74.0000007279946,40.7261318591711],[-74.00031571443,40.7262869732218],[-74.0002645356999,40.7263471075186],[-73.9999495478917,40.726191992409]]]},"properties":{"FID":3,"cartodb_id":3,"objectid":105,"address":"463 WEST BROADWAY","yearbuilt":1936,"histdist":"SoHo-Cast Iron Historic District","status_1":"NHL, S/NR-listed, NYCHD","snr":1}},{"type":"Feature","id":4,"geometry":{"type":"Polygon","coordinates":[[[-74.00257601,40.72221191],[-74.00278179,40.72196907],[-74.00286385,40.72200896],[-74.00265808,40.72225179],[-74.00257601,40.72221191]]]},"properties":{"FID":4,"cartodb_id":4,"objectid":31,"address":"72 GRAND STREET","yearbuilt":0,"histdist":"SoHo-Cast Iron Historic District","status_1":"NHL, S/NR-listed, NYCHD","snr":1}},{"type":"Feature","id":5,"geometry":{"type":"Polygon","coordinates":[[[-74.0033111645538,40.7224852706822],[-74.0033598142752,40.7224278609246],[-74.0035198998646,40.7225056871206],[-74.0034712503328,40.7225630978652],[-74.0033111645538,40.7224852706822]]]},"properties":{"FID":5,"cartodb_id":5,"objectid":45,"address":"341 WEST BROADWAY","yearbuilt":1930,"histdist":"SoHo-Cast Iron Historic District","status_1":"NHL, S/NR-listed, NYCHD","snr":1}},{"type":"Feature","id":6,"geometry":{"type":"Polygon","coordinates":[[[-74.0033111645538,40.7224852706822],[-74.0034712503328,40.7225630978652],[-74.0034226018181,40.7226205077525],[-74.0032625160682,40.7225426804186],[-74.0033111645538,40.7224852706822]]]},"properties":{"FID":6,"cartodb_id":6,"objectid":46,"address":"343 WEST BROADWAY","yearbuilt":1930,"histdist":"SoHo-Cast Iron Historic District","status_1":"NHL, S/NR-listed, NYCHD","snr":1}},{"type":"Feature","id":7,"geometry":{"type":"Polygon","coordinates":[[[-73.9998494246144,40.7211083238792],[-73.9998980100085,40.7210504581144],[-74.0002105163023,40.7212001830144],[-74.0001616446227,40.7212578589166],[-73.9998494246144,40.7211083238792]]]},"properties":{"FID":7,"cartodb_id":7,"objectid":50,"address":"474 BROADWAY","yearbuilt":1863,"histdist":"SoHo-Cast Iron Historic District","status_1":"NHL, S/NR-listed, NYCHD","snr":1}},{"type":"Feature","id":8,"geometry":{"type":"Polygon","coordinates":[[[-73.9983684897533,40.7254718564615],[-73.9983186143728,40.7255304905417],[-73.9980385478983,40.725393295358],[-73.9980884234227,40.7253346622343],[-73.9983684897533,40.7254718564615]]]},"properties":{"FID":8,"cartodb_id":8,"objectid":77,"address":"163 MERCER STREET","yearbuilt":1867,"histdist":"SoHo-Cast Iron Historic District","status_1":"NHL, S/NR-listed, NYCHD","snr":1}},{"type":"Feature","id":9,"geometry":{"type":"Polygon","coordinates":[[[-73.9990009983931,40.726049422196],[-73.9989511550236,40.7261082790853],[-73.9986370366318,40.7259533584975],[-73.9986868801628,40.725894502748],[-73.9990009983931,40.726049422196]]]},"properties":{"FID":9,"cartodb_id":9,"objectid":104,"address":"141 GREENE STREET","yearbuilt":1825,"histdist":"SoHo-Cast Iron Historic District","status_1":"NHL, S/NR-listed, NYCHD","snr":1}},{"type":"Feature","id":10,"geometry":{"type":"Polygon","coordinates":[[[-74.00456581,40.72177099],[-74.00449379,40.72173842],[-74.00469268,40.72157877],[-74.00475216,40.7216214],[-74.00456581,40.72177099]]]},"properties":{"FID":10,"cartodb_id":10,"objectid":3,"address":"383 CANAL STREET","yearbuilt":1910,"histdist":" ","status_1":"S/NR-listed","snr":1}},{"type":"Feature","id":11,"geometry":{"type":"Polygon","coordinates":[[[-73.9992928911354,40.7222737207626],[-73.9992474965894,40.7223276933583],[-73.9989270748882,40.7221734569538],[-73.9989738531598,40.7221178347799],[-73.9992928911354,40.7222737207626]]]},"properties":{"FID":11,"cartodb_id":11,"objectid":94,"address":"506 BROADWAY","yearbuilt":1856,"histdist":"SoHo-Cast Iron Historic District","status_1":"NHL, S/NR-listed, NYCHD","snr":1}},{"type":"Feature","id":12,"geometry":{"type":"Polygon","coordinates":[[[-74.0016555082123,40.7217657173971],[-74.0018629113046,40.7215219966889],[-74.0021009827767,40.7216371704658],[-74.0018930393311,40.7218822810541],[-74.0016555082123,40.7217657173971]]]},"properties":{"FID":12,"cartodb_id":12,"objectid":51,"address":"90 GRAND STREET","yearbuilt":1867,"histdist":"SoHo-Cast Iron Historic District","status_1":"NHL, S/NR-listed, NYCHD","snr":1}},{"type":"Feature","id":13,"geometry":{"type":"Polygon","coordinates":[[[-73.99913754,40.71864719],[-73.99927032,40.71869336],[-73.99912405,40.71887375],[-73.99901,40.71882972],[-73.99913754,40.71864719]]]},"properties":{"FID":13,"cartodb_id":13,"objectid":7,"address":"217 HESTER STREET","yearbuilt":1915,"histdist":" ","status_1":"S/NR-listed","snr":1}},{"type":"Feature","id":14,"geometry":{"type":"Polygon","coordinates":[[[-74.00023295,40.7215159],[-74.00087657,40.72183176],[-74.00082388,40.72189378],[-74.0001804,40.72157801],[-74.00023295,40.7215159]]]},"properties":{"FID":14,"cartodb_id":14,"objectid":29,"address":"481 BROADWAY","yearbuilt":1868,"histdist":"SoHo-Cast Iron Historic District","status_1":"NHL, S/NR-listed, NYCHD","snr":1}},{"type":"Feature","id":15,"geometry":{"type":"Polygon","coordinates":[[[-73.9994536532665,40.7242424295352],[-73.9995010789372,40.7241860506164],[-73.9998140570424,40.7243390957913],[-73.9997666315275,40.7243954765942],[-73.9994536532665,40.7242424295352]]]},"properties":{"FID":15,"cartodb_id":15,"objectid":63,"address":"102 GREENE STREET","yearbuilt":1881,"histdist":"SoHo-Cast Iron Historic District","status_1":"NHL, S/NR-listed, NYCHD","snr":1}},{"type":"Feature","id":16,"geometry":{"type":"Polygon","coordinates":[[[-73.999931,40.72101117],[-73.99999587,40.72093391],[-74.00030904,40.72108391],[-74.00024375,40.72116096],[-73.999931,40.72101117]]]},"properties":{"FID":16,"cartodb_id":16,"objectid":27,"address":"470 BROADWAY","yearbuilt":1858,"histdist":"SoHo-Cast Iron Historic District","status_1":"NHL, S/NR-listed, NYCHD","snr":1}},{"type":"Feature","id":17,"geometry":{"type":"Polygon","coordinates":[[[-74.0014407402648,40.7218956457947],[-74.0013910891922,40.7219539643231],[-74.0010775813805,40.7218002236485],[-74.0011273887596,40.7217418719552],[-74.0014407402648,40.7218956457947]]]},"properties":{"FID":17,"cartodb_id":17,"objectid":52,"address":"51 MERCER STREET","yearbuilt":1940,"histdist":"SoHo-Cast Iron Historic District","status_1":"NHL, S/NR-listed, NYCHD","snr":1}},{"type":"Feature","id":18,"geometry":{"type":"Polygon","coordinates":[[[-74.00449379,40.72173842],[-74.00447207,40.72172859],[-74.00463402,40.72153673],[-74.00469268,40.72157877],[-74.00449379,40.72173842]]]},"properties":{"FID":18,"cartodb_id":18,"objectid":13,"address":"381 CANAL STREET","yearbuilt":1920,"histdist":" ","status_1":"S/NR-listed","snr":1}},{"type":"Feature","id":19,"geometry":{"type":"Polygon","coordinates":[[[-74.0027044749894,40.7219314876217],[-74.0024986975936,40.7221743317725],[-74.0024229570072,40.7221375196792],[-74.0026287357746,40.7218946738223],[-74.0027044749894,40.7219314876217]]]},"properties":{"FID":19,"cartodb_id":19,"objectid":91,"address":"76 GRAND STREET","yearbuilt":1955,"histdist":"SoHo-Cast Iron Historic District","status_1":"NHL, S/NR-listed, NYCHD","snr":1}},{"type":"Feature","id":20,"geometry":{"type":"Polygon","coordinates":[[[-74.0003344212292,40.7232016712182],[-74.0002874764057,40.7232573102528],[-73.99997503617,40.7231015251824],[-74.0000220095155,40.7230458998281],[-74.0003344212292,40.7232016712182]]]},"properties":{"FID":20,"cartodb_id":20,"objectid":96,"address":"89 MERCER STREET","yearbuilt":1995,"histdist":"SoHo-Cast Iron Historic District","status_1":"NHL, S/NR-listed, NYCHD","snr":1}},{"type":"Feature","id":21,"geometry":{"type":"Polygon","coordinates":[[[-74.0004265690388,40.7204115899],[-74.0004749580287,40.7203543055832],[-74.0007933471073,40.720506713331],[-74.0007465785165,40.7205619734181],[-74.0004265690388,40.7204115899]]]},"properties":{"FID":21,"cartodb_id":21,"objectid":62,"address":"454 BROADWAY","yearbuilt":1863,"histdist":"SoHo-Cast Iron Historic District","status_1":"NHL, S/NR-listed, NYCHD","snr":1}},{"type":"Feature","id":22,"geometry":{"type":"Polygon","coordinates":[[[-73.9918630174165,40.7267712877948],[-73.9918860270694,40.7267040574378],[-73.9921594200413,40.7268398749027],[-73.9920962694978,40.7269141211526],[-73.9918630174165,40.7267712877948]]]},"properties":{"FID":22,"cartodb_id":22,"objectid":85,"address":"352 BOWERY","yearbuilt":1920,"histdist":" ","status_1":"S/NR-listed","snr":1}},{"type":"Feature","id":23,"geometry":{"type":"Polygon","coordinates":[[[-74.00109819,40.72014668],[-74.00078101,40.71999869],[-74.00084372,40.71992515],[-74.00115895,40.72007553],[-74.00109819,40.72014668]]]},"properties":{"FID":23,"cartodb_id":23,"objectid":6,"address":"440 BROADWAY","yearbuilt":1875,"histdist":"SoHo-Cast Iron Historic District","status_1":"NHL, S/NR-listed, NYCHD","snr":1}},{"type":"Feature","id":24,"geometry":{"type":"Polygon","coordinates":[[[-74.0035199,40.72250569],[-74.00335981,40.72242786],[-74.00346655,40.7223019],[-74.00362664,40.72237973],[-74.0035199,40.72250569]]]},"properties":{"FID":24,"cartodb_id":24,"objectid":30,"address":"337 WEST BROADWAY","yearbuilt":1910,"histdist":"SoHo-Cast Iron Historic District","status_1":"NHL, S/NR-listed, NYCHD","snr":1}},{"type":"Feature","id":25,"geometry":{"type":"Polygon","coordinates":[[[-74.0012438,40.72414424],[-74.00140395,40.72395493],[-74.00146769,40.72398539],[-74.00130796,40.7241749],[-74.0012438,40.72414424]]]},"properties":{"FID":25,"cartodb_id":25,"objectid":99,"address":"144 SPRING STREET","yearbuilt":0,"histdist":"SoHo-Cast Iron Historic District","status_1":"NHL, S/NR-listed, NYCHD","snr":1}},{"type":"Feature","id":26,"geometry":{"type":"Polygon","coordinates":[[[-74.0039175734697,40.7223808025015],[-74.0040883708225,40.7221799028126],[-74.0042019737222,40.7222358959582],[-74.0040313636034,40.7224365761132],[-74.0039175734697,40.7223808025015]]]},"properties":{"FID":26,"cartodb_id":26,"objectid":18,"address":"47 GRAND STREET","yearbuilt":1920,"histdist":" ","status_1":"S/NR-listed","snr":1}},{"type":"Feature","id":27,"geometry":{"type":"Polygon","coordinates":[[[-73.99748662054,40.7228739390079],[-73.9977023946607,40.7226091171935],[-73.9978780235149,40.7226815594062],[-73.9976477550384,40.7229508081029],[-73.99748662054,40.7228739390079]]]},"properties":{"FID":27,"cartodb_id":27,"objectid":60,"address":"75 SPRING STREET","yearbuilt":1898,"histdist":"SoHo-Cast Iron Historic District Extension","status_1":"NYCHD, individually S/NR-eligible","snr":1}},{"type":"Feature","id":28,"geometry":{"type":"Polygon","coordinates":[[[-73.9986334731683,40.7225227731897],[-73.9986864944654,40.7224594553772],[-73.9990059049757,40.7226149198302],[-73.9989539443688,40.722676697929],[-73.9986334731683,40.7225227731897]]]},"properties":{"FID":28,"cartodb_id":28,"objectid":49,"address":"518 BROADWAY","yearbuilt":1855,"histdist":"SoHo-Cast Iron Historic District","status_1":"NHL, S/NR-listed, NYCHD","snr":1}},{"type":"Feature","id":29,"geometry":{"type":"Polygon","coordinates":[[[-73.9944921028464,40.727961803622],[-73.9944042069382,40.7280656596414],[-73.9939918274819,40.727859207063],[-73.9940797237623,40.7277553506028],[-73.9944921028464,40.727961803622]]]},"properties":{"FID":29,"cartodb_id":29,"objectid":107,"address":"686 BROADWAY","yearbuilt":1993,"histdist":"NoHo Historic District","status_1":"S/NR-eligible, NYCHD","snr":1}},{"type":"Feature","id":30,"geometry":{"type":"Polygon","coordinates":[[[-74.0001681040698,40.7228728947006],[-74.0002135621298,40.7228190639707],[-74.0005258726113,40.7229747601373],[-74.000480427782,40.7230286225301],[-74.0001681040698,40.7228728947006]]]},"properties":{"FID":30,"cartodb_id":30,"objectid":54,"address":"81 MERCER STREET","yearbuilt":0,"histdist":"SoHo-Cast Iron Historic District","status_1":"NHL, S/NR-listed, NYCHD","snr":1}},{"type":"Feature","id":31,"geometry":{"type":"Polygon","coordinates":[[[-73.9983624300364,40.7250125462597],[-73.9984113864097,40.7249549936333],[-73.998721786467,40.7251070475777],[-73.9986728290405,40.7251646003362],[-73.9983624300364,40.7250125462597]]]},"properties":{"FID":31,"cartodb_id":31,"objectid":103,"address":"149 MERCER STREET","yearbuilt":1826,"histdist":"SoHo-Cast Iron Historic District","status_1":"NHL, S/NR-listed, NYCHD","snr":1}},{"type":"Feature","id":32,"geometry":{"type":"Polygon","coordinates":[[[-74.0013079642956,40.7241749041061],[-74.0014676943441,40.7239853909244],[-74.0015318556633,40.7240160515105],[-74.0013721245126,40.7242055638616],[-74.0013079642956,40.7241749041061]]]},"properties":{"FID":32,"cartodb_id":32,"objectid":55,"address":"146 SPRING STREET","yearbuilt":1819,"histdist":"SoHo-Cast Iron Historic District","status_1":"NHL, S/NR-listed, NYCHD","snr":1}},{"type":"Feature","id":33,"geometry":{"type":"Polygon","coordinates":[[[-74.0009999160028,40.724429947606],[-74.0011495536472,40.724252900649],[-74.0012324463203,40.7242931381657],[-74.0010828112261,40.7244701852294],[-74.0009999160028,40.724429947606]]]},"properties":{"FID":33,"cartodb_id":33,"objectid":56,"address":"143 SPRING STREET","yearbuilt":1818,"histdist":"SoHo-Cast Iron Historic District","status_1":"NHL, S/NR-listed, NYCHD","snr":1}},{"type":"Feature","id":34,"geometry":{"type":"Polygon","coordinates":[[[-73.99803341,40.72517639],[-73.99797778,40.72524211],[-73.99734587,40.72493425],[-73.99740151,40.72486854],[-73.99803341,40.72517639]]]},"properties":{"FID":34,"cartodb_id":34,"objectid":102,"address":"589 BROADWAY","yearbuilt":1900,"histdist":"SoHo-Cast Iron Historic District","status_1":"NHL, S/NR-listed, NYCHD","snr":1}},{"type":"Feature","id":35,"geometry":{"type":"Polygon","coordinates":[[[-74.0000392490655,40.7251888586883],[-73.9999869773023,40.7252507858136],[-73.9997647824555,40.7251407379445],[-73.9998170555482,40.7250788118393],[-74.0000392490655,40.7251888586883]]]},"properties":{"FID":35,"cartodb_id":35,"objectid":65,"address":"120 PRINCE STREET","yearbuilt":1893,"histdist":"SoHo-Cast Iron Historic District","status_1":"NHL, S/NR-listed, NYCHD","snr":1}},{"type":"Feature","id":36,"geometry":{"type":"Polygon","coordinates":[[[-74.0023385194112,40.7203129080484],[-74.0024126590647,40.7202251797274],[-74.0025144962315,40.7202882645889],[-74.0025664956499,40.7203204764621],[-74.002490402283,40.7203863935932],[-74.0023385194112,40.7203129080484]]]},"properties":{"FID":36,"cartodb_id":36,"objectid":59,"address":"3 MERCER STREET","yearbuilt":1821,"histdist":"SoHo-Cast Iron Historic District","status_1":"NHL, S/NR-listed, NYCHD","snr":1}},{"type":"Feature","id":37,"geometry":{"type":"Polygon","coordinates":[[[-74.00331873,40.72094593],[-74.00329717,40.72093366],[-74.00347763,40.72070593],[-74.00354502,40.72075392],[-74.00336975,40.72097497],[-74.00331873,40.72094593]]]},"properties":{"FID":37,"cartodb_id":37,"objectid":20,"address":"345 CANAL STREET","yearbuilt":1920,"histdist":"SoHo-Cast Iron Historic District","status_1":"NHL, S/NR-listed, NYCHD","snr":1}},{"type":"Feature","id":38,"geometry":{"type":"Polygon","coordinates":[[[-74.0009039064107,40.7263349653674],[-74.0006757524592,40.7262230156928],[-74.0007245941251,40.726165327899],[-74.0009527479595,40.7262772766427],[-74.0009233255941,40.726312028407],[-74.0009039064107,40.7263349653674]]]},"properties":{"FID":38,"cartodb_id":38,"objectid":106,"address":"456 WEST BROADWAY","yearbuilt":1994,"histdist":"SoHo-Cast Iron Historic District Extension","status_1":"NHL, S/NR-listed, NYCHD","snr":1}},{"type":"Feature","id":39,"geometry":{"type":"Polygon","coordinates":[[[-74.00102832,40.72185824],[-74.00107758,40.72180022],[-74.00139109,40.72195396],[-74.00136547,40.72198406],[-74.00134167,40.72201201],[-74.00102832,40.72185824]]]},"properties":{"FID":39,"cartodb_id":39,"objectid":28,"address":"53 MERCER STREET","yearbuilt":1868,"histdist":"SoHo-Cast Iron Historic District","status_1":"NHL, S/NR-listed, NYCHD","snr":1}},{"type":"Feature","id":40,"geometry":{"type":"Polygon","coordinates":[[[-73.99947027,40.71801397],[-73.99917784,40.71790854],[-73.99929694,40.71771673],[-73.99958196,40.71791946],[-73.99951358,40.71802959],[-73.99947027,40.71801397]]]},"properties":{"FID":40,"cartodb_id":40,"objectid":11,"address":"114 BAXTER STREET","yearbuilt":1900,"histdist":" ","status_1":"S/NR-listed","snr":1}},{"type":"Feature","id":41,"geometry":{"type":"Polygon","coordinates":[[[-73.9930239783186,40.728961226573],[-73.993458861187,40.7291756254035],[-73.9934054554989,40.729238403122],[-73.9929705723929,40.729024004093],[-73.9930214389309,40.7289642098611],[-73.9930239783186,40.728961226573]]]},"properties":{"FID":41,"cartodb_id":41,"objectid":89,"address":"724 BROADWAY","yearbuilt":1987,"histdist":"NoHo Historic District","status_1":"S/NR-eligible, NYCHD","snr":1}},{"type":"Feature","id":42,"geometry":{"type":"Polygon","coordinates":[[[-74.00292203,40.72141365],[-74.00295057,40.72138001],[-74.00301842,40.72130001],[-74.00333514,40.72145573],[-74.00323819,40.7215691],[-74.00292203,40.72141365]]]},"properties":{"FID":42,"cartodb_id":42,"objectid":21,"address":"18 WOOSTER STREET","yearbuilt":1890,"histdist":"SoHo-Cast Iron Historic District","status_1":"NHL, S/NR-listed, NYCHD","snr":1}},{"type":"Feature","id":43,"geometry":{"type":"Polygon","coordinates":[[[-74.0007245941251,40.726165327899],[-74.0007733172696,40.7261077778754],[-74.000880192492,40.7261602200509],[-74.0010014709888,40.7262197264383],[-74.0009527479595,40.7262772766427],[-74.0007245941251,40.726165327899]]]},"properties":{"FID":43,"cartodb_id":43,"objectid":74,"address":"454 WEST BROADWAY","yearbuilt":1990,"histdist":"SoHo-Cast Iron Historic District Extension","status_1":"NHL, S/NR-listed, NYCHD","snr":1}},{"type":"Feature","id":44,"geometry":{"type":"Polygon","coordinates":[[[-73.9985371013706,40.7221164999279],[-73.9985739775599,40.7220728491287],[-73.9988887310583,40.722219137641],[-73.99887903711,40.7222305632484],[-73.9988519495616,40.7222628327145],[-73.9985371013706,40.7221164999279]]]},"properties":{"FID":44,"cartodb_id":44,"objectid":95,"address":"54 CROSBY STREET","yearbuilt":1900,"histdist":"SoHo-Cast Iron Historic District","status_1":"NHL, S/NR-listed, NYCHD","snr":1}},{"type":"Feature","id":45,"geometry":{"type":"Polygon","coordinates":[[[-73.9958515285353,40.7239365836744],[-73.995917659577,40.7238431941684],[-73.9959720073599,40.7238658106342],[-73.9961162435555,40.7239258335715],[-73.9960419930504,40.7240158450889],[-73.9958515285353,40.7239365836744]]]},"properties":{"FID":45,"cartodb_id":45,"objectid":64,"address":"281 LAFAYETTE STREET","yearbuilt":1910,"histdist":" ","status_1":"S/NR-listed","snr":1}},{"type":"Feature","id":46,"geometry":{"type":"Polygon","coordinates":[[[-73.9993678507156,40.7256162304835],[-73.9996780903086,40.7257692345699],[-73.9996311620431,40.7258246499416],[-73.9993209235092,40.7256716448085],[-73.9993418605158,40.7256469205335],[-73.9993678507156,40.7256162304835]]]},"properties":{"FID":46,"cartodb_id":46,"objectid":72,"address":"140 WOOSTER STREET","yearbuilt":1900,"histdist":"SoHo-Cast Iron Historic District","status_1":"NHL, S/NR-listed, NYCHD","snr":1}},{"type":"Feature","id":47,"geometry":{"type":"Polygon","coordinates":[[[-73.9918860270694,40.7267040574378],[-73.9919105985825,40.7266322651412],[-73.9920966860991,40.7267246729911],[-73.9922095990025,40.726780881436],[-73.9921594200413,40.7268398749027],[-73.9918860270694,40.7267040574378]]]},"properties":{"FID":47,"cartodb_id":47,"objectid":88,"address":"350 BOWERY","yearbuilt":1920,"histdist":" ","status_1":"S/NR-listed","snr":1}},{"type":"Feature","id":48,"geometry":{"type":"Polygon","coordinates":[[[-73.999845348924,40.7249437265369],[-73.9999058043067,40.7249736685348],[-73.9998170555482,40.7250788118393],[-73.9997647824555,40.7251407379445],[-73.9997043281942,40.7251107967947],[-73.999845348924,40.7249437265369]]]},"properties":{"FID":48,"cartodb_id":48,"objectid":66,"address":"118 PRINCE STREET","yearbuilt":1877,"histdist":"SoHo-Cast Iron Historic District","status_1":"NHL, S/NR-listed, NYCHD","snr":1}},{"type":"Feature","id":49,"geometry":{"type":"Polygon","coordinates":[[[-74.0011141731342,40.7248154184874],[-74.0010982078974,40.7248076688508],[-74.0011462657603,40.7247508066108],[-74.0011629932854,40.7247589254305],[-74.0014754120854,40.72491057396],[-74.0014273543899,40.724967436251],[-74.0011141731342,40.7248154184874]]]},"properties":{"FID":49,"cartodb_id":49,"objectid":101,"address":"417 WEST BROADWAY","yearbuilt":1948,"histdist":"SoHo-Cast Iron Historic District","status_1":"NHL, S/NR-listed, NYCHD","snr":1}},{"type":"Feature","id":50,"geometry":{"type":"Polygon","coordinates":[[[-73.99927542,40.72318279],[-73.99937885,40.72305983],[-73.9993985,40.7230361],[-73.99946245,40.72306766],[-73.9997098,40.72318972],[-73.99958642,40.72333626],[-73.99927542,40.72318279]]]},"properties":{"FID":50,"cartodb_id":50,"objectid":37,"address":"96 SPRING STREET","yearbuilt":1900,"histdist":"SoHo-Cast Iron Historic District","status_1":"NHL, S/NR-listed, NYCHD","snr":1}},{"type":"Feature","id":51,"geometry":{"type":"Polygon","coordinates":[[[-74.0015873198363,40.721723528572],[-74.0012742019218,40.7215698694898],[-74.0013227626815,40.72151297661],[-74.0014846014634,40.7215923977825],[-74.001560247453,40.7216295193733],[-74.0016357775152,40.721666585115],[-74.0015873198363,40.721723528572]]]},"properties":{"FID":51,"cartodb_id":51,"objectid":48,"address":"43 MERCER STREET","yearbuilt":1920,"histdist":"SoHo-Cast Iron Historic District","status_1":"NHL, S/NR-listed, NYCHD","snr":1}},{"type":"Feature","id":52,"geometry":{"type":"Polygon","coordinates":[[[-73.9984779052078,40.7245122502261],[-73.9985888256408,40.7243801415301],[-73.9985903348008,40.7243808916547],[-73.9986861072821,40.7242668432943],[-73.9987686458212,40.7243072050597],[-73.9985619732128,40.7245533604256],[-73.9984779052078,40.7245122502261]]]},"properties":{"FID":52,"cartodb_id":52,"objectid":61,"address":"92 PRINCE STREET","yearbuilt":2001,"histdist":"SoHo-Cast Iron Historic District","status_1":"NHL, S/NR-listed, NYCHD","snr":1}},{"type":"Feature","id":53,"geometry":{"type":"Polygon","coordinates":[[[-74.0028784101574,40.7227432134488],[-74.0029669197216,40.7227862348329],[-74.0031901890278,40.7228947726338],[-74.0031475383337,40.722945103323],[-74.0028840722954,40.7228170442714],[-74.002835748768,40.7227935556525],[-74.0028784101574,40.7227432134488]]]},"properties":{"FID":53,"cartodb_id":53,"objectid":90,"address":"355 WEST BROADWAY","yearbuilt":1880,"histdist":"SoHo-Cast Iron Historic District","status_1":"NHL, S/NR-listed, NYCHD","snr":1}},{"type":"Feature","id":54,"geometry":{"type":"Polygon","coordinates":[[[-74.0005829825952,40.7236556817723],[-74.0008967951151,40.7238090445994],[-74.0008455194105,40.7238696726933],[-74.0008356431405,40.7238648451769],[-74.0007786397569,40.7239322306828],[-74.0004755826624,40.7237841219194],[-74.0005829825952,40.7236556817723]]]},"properties":{"FID":54,"cartodb_id":55,"objectid":97,"address":"83 GREENE STREET","yearbuilt":1880,"histdist":"SoHo-Cast Iron Historic District","status_1":"NHL, S/NR-listed, NYCHD","snr":1}},{"type":"Feature","id":55,"geometry":{"type":"Polygon","coordinates":[[[-73.9997269395417,40.7257115507936],[-73.9994167013145,40.7255585459174],[-73.9994887969789,40.7254734130286],[-73.9996355514257,40.7255457902402],[-73.9997148738006,40.7255849103627],[-73.9997990349754,40.7256264167922],[-73.9997269395417,40.7257115507936]]]},"properties":{"FID":55,"cartodb_id":56,"objectid":79,"address":"134 WOOSTER STREET","yearbuilt":1947,"histdist":"SoHo-Cast Iron Historic District","status_1":"NHL, S/NR-listed, NYCHD","snr":1}},{"type":"Feature","id":56,"geometry":{"type":"Polygon","coordinates":[[[-74.0024190476685,40.7227599068214],[-74.0025005600288,40.722663720751],[-74.002663913248,40.7227431231539],[-74.0026619580783,40.722745430325],[-74.0027355309632,40.7227811922769],[-74.0026559765011,40.7228750722611],[-74.0024190476685,40.7227599068214]]]},"properties":{"FID":56,"cartodb_id":57,"objectid":53,"address":"47 WOOSTER STREET","yearbuilt":1945,"histdist":"SoHo-Cast Iron Historic District","status_1":"NHL, S/NR-listed, NYCHD","snr":1}},{"type":"Feature","id":57,"geometry":{"type":"Polygon","coordinates":[[[-74.00403136,40.72243658],[-74.00420197,40.7222359],[-74.00422303,40.72221113],[-74.0043266,40.72226218],[-74.00428198,40.72231466],[-74.00413511,40.72248742],[-74.00403136,40.72243658]]]},"properties":{"FID":57,"cartodb_id":58,"objectid":17,"address":"43 GRAND STREET","yearbuilt":1920,"histdist":" ","status_1":"S/NR-listed","snr":1}},{"type":"Feature","id":58,"geometry":{"type":"Polygon","coordinates":[[[-73.998670723223,40.7251670766835],[-73.9986728290405,40.7251646003362],[-73.998721786467,40.7251070475777],[-73.9987976206412,40.7251441953142],[-73.9989964761361,40.724910421422],[-73.9992362366811,40.7250278694743],[-73.9989863188192,40.7253216739428],[-73.998670723223,40.7251670766835]]]},"properties":{"FID":58,"cartodb_id":59,"objectid":78,"address":"103 PRINCE STREET","yearbuilt":1910,"histdist":"SoHo-Cast Iron Historic District","status_1":"NHL, S/NR-listed, NYCHD","snr":1}},{"type":"Feature","id":59,"geometry":{"type":"Polygon","coordinates":[[[-73.9918291279785,40.7268703071243],[-73.9921313860311,40.7270555295531],[-73.9921648892536,40.7270161408835],[-73.992198391337,40.7269767531251],[-73.9922640818216,40.7270170436014],[-73.9920610707184,40.7272557204433],[-73.9917497870358,40.7271021248849],[-73.9918291279785,40.7268703071243]]]},"properties":{"FID":59,"cartodb_id":60,"objectid":84,"address":"358 BOWERY","yearbuilt":1915,"histdist":" ","status_1":"S/NR-listed","snr":1}},{"type":"Feature","id":60,"geometry":{"type":"Polygon","coordinates":[[[-73.9951545889851,40.7257518576977],[-73.9950720284402,40.7257096022709],[-73.9951104302149,40.7256641137938],[-73.9950392669844,40.7256431180595],[-73.9951729590419,40.7254810114025],[-73.9954243912469,40.7255916186132],[-73.9952484698225,40.7257999055658],[-73.9951545889851,40.7257518576977]]]},"properties":{"FID":60,"cartodb_id":61,"objectid":69,"address":"324 LAFAYETTE STREET","yearbuilt":1897,"histdist":"NoHo Historic District","status_1":"S/NR Eligible, NYCHD","snr":1}},{"type":"Feature","id":61,"geometry":{"type":"Polygon","coordinates":[[[-74.0028784101574,40.7227432134488],[-74.0029146282892,40.7227004734376],[-74.0025993012762,40.7225472007867],[-74.0026983380746,40.7224303312748],[-74.0030157314579,40.7225846086258],[-74.0029646551108,40.7226448828612],[-74.003051097901,40.7226869001314],[-74.0029669197216,40.7227862348329],[-74.0028784101574,40.7227432134488]]]},"properties":{"FID":61,"cartodb_id":62,"objectid":47,"address":"41 WOOSTER STREET","yearbuilt":1900,"histdist":"SoHo-Cast Iron Historic District","status_1":"NHL, S/NR-listed, NYCHD","snr":1}},{"type":"Feature","id":62,"geometry":{"type":"Polygon","coordinates":[[[-73.9920762528326,40.7281115290149],[-73.9922263806484,40.7279340381572],[-73.9922611373036,40.7279503054879],[-73.9923300540961,40.7279825591426],[-73.9923803331297,40.7280067357109],[-73.9923852142448,40.7280009655873],[-73.9927073907823,40.7281592949875],[-73.9925506128106,40.7283446483473],[-73.9920762528326,40.7281115290149]]]},"properties":{"FID":62,"cartodb_id":63,"objectid":83,"address":"403 LAFAYETTE STREET","yearbuilt":1931,"histdist":"NoHo Historic District","status_1":"S/NR-eligible, NYCHD","snr":1}},{"type":"Feature","id":63,"geometry":{"type":"Polygon","coordinates":[[[-73.9972884290965,40.7235949831192],[-73.9973909366711,40.723473154734],[-73.9977061105547,40.7236246153867],[-73.9976562963243,40.7236838192631],[-73.9979768088964,40.7238378331216],[-73.9979219119581,40.7239030767787],[-73.9976013993092,40.7237490626849],[-73.9975411994203,40.7237164567083],[-73.9972884290965,40.7235949831192]]]},"properties":{"FID":63,"cartodb_id":64,"objectid":68,"address":"558 BROADWAY","yearbuilt":1870,"histdist":"SoHo-Cast Iron Historic District","status_1":"NHL, S/NR-listed, NYCHD","snr":1}},{"type":"Feature","id":64,"geometry":{"type":"Polygon","coordinates":[[[-74.0035653,40.72315511],[-74.00335361,40.72305109],[-74.00347043,40.72291245],[-74.0036832,40.7230169],[-74.00371905,40.72297436],[-74.00400819,40.7231167],[-74.00388545,40.7232612],[-74.00359598,40.72311869],[-74.0035653,40.72315511]]]},"properties":{"FID":64,"cartodb_id":65,"objectid":34,"address":"356 WEST BROADWAY","yearbuilt":1918,"histdist":" ","status_1":"S/NR-listed","snr":1}},{"type":"Feature","id":65,"geometry":{"type":"Polygon","coordinates":[[[-74.0018917362602,40.7242175468231],[-74.0017620506028,40.7241523348709],[-74.0017778435052,40.7241335959347],[-74.0017160020461,40.7241040458029],[-74.0017974909891,40.7240073640537],[-74.0021109375768,40.7241636169107],[-74.0020333405648,40.7242556845601],[-74.0019094773422,40.724196497115],[-74.0018917362602,40.7242175468231]]]},"properties":{"FID":65,"cartodb_id":66,"objectid":98,"address":"395 WEST BROADWAY","yearbuilt":1937,"histdist":"SoHo-Cast Iron Historic District","status_1":"NHL, S/NR-listed, NYCHD","snr":1}},{"type":"Feature","id":66,"geometry":{"type":"Polygon","coordinates":[[[-74.00276518,40.72053953],[-74.00276387,40.72053708],[-74.002859,40.72042383],[-74.00285952,40.72042408],[-74.00294334,40.72032564],[-74.00299805,40.72036462],[-74.002912,40.72046562],[-74.00282565,40.72056816],[-74.00276518,40.72053953]]]},"properties":{"FID":66,"cartodb_id":67,"objectid":23,"address":"327 CANAL STREET","yearbuilt":1819,"histdist":"SoHo-Cast Iron Historic District","status_1":"NHL, S/NR-listed, NYCHD","snr":1}},{"type":"Feature","id":67,"geometry":{"type":"Polygon","coordinates":[[[-74.00271344,40.72049248],[-74.00280844,40.72037641],[-74.00288188,40.72028184],[-74.00294334,40.72032564],[-74.00285952,40.72042408],[-74.002859,40.72042383],[-74.00276387,40.72053708],[-74.00274927,40.72050982],[-74.00271344,40.72049248]]]},"properties":{"FID":67,"cartodb_id":68,"objectid":22,"address":"325 CANAL STREET","yearbuilt":1819,"histdist":"SoHo-Cast Iron Historic District","status_1":"NHL, S/NR-listed, NYCHD","snr":1}},{"type":"Feature","id":68,"geometry":{"type":"Polygon","coordinates":[[[-74.002490402283,40.7203863935932],[-74.0025664956499,40.7203204764621],[-74.0027333469029,40.7201759993085],[-74.0027840007095,40.7202120941698],[-74.0026862809522,40.7202966741048],[-74.0026872846822,40.7202971604052],[-74.0026186880425,40.7203568909459],[-74.0025498581102,40.720415159973],[-74.002490402283,40.7203863935932]]]},"properties":{"FID":68,"cartodb_id":69,"objectid":57,"address":"319 CANAL STREET","yearbuilt":1915,"histdist":"SoHo-Cast Iron Historic District","status_1":"NHL, S/NR-listed, NYCHD","snr":1}},{"type":"Feature","id":69,"geometry":{"type":"Polygon","coordinates":[[[-74.00347625,40.72129071],[-74.00317575,40.72111451],[-74.00319408,40.7210929],[-74.00331873,40.72094593],[-74.00336975,40.72097497],[-74.00354502,40.72075392],[-74.00361127,40.72080111],[-74.00344111,40.72101559],[-74.00362298,40.72111912],[-74.00347625,40.72129071]]]},"properties":{"FID":69,"cartodb_id":70,"objectid":16,"address":"349 CANAL STREET","yearbuilt":1928,"histdist":"SoHo-Cast Iron Historic District","status_1":"NHL, S/NR-listed, NYCHD","snr":1}},{"type":"Feature","id":70,"geometry":{"type":"Polygon","coordinates":[[[-73.99475455,40.72641318],[-73.99453998,40.72630748],[-73.99471879,40.72605543],[-73.99495661,40.72617197],[-73.99475455,40.72641318]]]},"properties":{"FID":70,"cartodb_id":72,"objectid":112,"address":"55 BLEECKER STREET","yearbuilt":1929,"histdist":"NoHo Historic District","status_1":"S/NR-eligible, NYCHD","snr":1}},{"type":"Feature","id":71,"geometry":{"type":"Polygon","coordinates":[[[-73.9931037,40.72886751],[-73.99267364,40.7286555],[-73.99279584,40.72851082],[-73.99322652,40.72872313],[-73.99321664,40.72873476],[-73.99316668,40.72879348],[-73.9931037,40.72886751]]]},"properties":{"FID":71,"cartodb_id":54,"objectid":109,"address":"410 LAFAYETTE STREET","yearbuilt":0,"histdist":"NoHo Historic District","status_1":"S/NR-eligible, NYCHD","snr":1}},{"type":"Feature","id":72,"geometry":{"type":"Polygon","coordinates":[[[-73.99210453,40.72672215],[-73.99191141,40.72662865],[-73.99193823,40.72655547],[-73.99215281,40.72666388],[-73.99210453,40.72672215]]]},"properties":{"FID":72,"cartodb_id":71,"objectid":111,"address":"348 BOWERY","yearbuilt":1954,"histdist":"The Bowery Historic District","status_1":"S/NR-listed","snr":1}}]}