{"type":"FeatureCollection","features":[{"type":"Feature","geometry":{"bbox":[-73.99590126401951,40.75061096084106,-73.98542576065806,40.75664986238699],"type":"Polygon","coordinates":[[[-73.99333212273112,40.75664986238699],[-73.99310432704307,40.75655402234573],[-73.99301489257,40.75651639465512],[-73.99292807488936,40.75647986725656],[-73.99290410963421,40.75646978411237],[-73.99279784163105,40.75642507203833],[-73.9926961721038,40.7563822958625],[-73.99261799352128,40.756349403446286],[-73.9925352236493,40.75631457780542],[-73.9923776357923,40.75624827505325],[-73.99213402167038,40.75614577399986],[-73.99190221949615,40.756048243624136],[-73.9918202266669,40.7560137451319],[-73.99200044308596,40.75577264985926],[-73.99210001145373,40.755639444390376],[-73.99209783842906,40.755638528471714],[-73.99202624898912,40.75560833853345],[-73.99186576765855,40.7555406407827],[-73.99178576190272,40.75550689395287],[-73.99170885713124,40.755474461785894],[-73.99138356548877,40.755337239540985],[-73.99108009841612,40.75520922321237],[-73.99098084805195,40.75534499222156],[-73.99088814910115,40.75547179840208],[-73.99068579909184,40.755386608170916],[-73.99057194751104,40.75533867602912],[-73.9905303043094,40.75539564218394],[-73.99048897102656,40.755452184353175],[-73.990569494212,40.755486086359305],[-73.99052367474262,40.75554876225727],[-73.99043815153432,40.7556657508483],[-73.99039080223399,40.75573052379637],[-73.9901795256657,40.75564157495597],[-73.98978155223188,40.755474023559216],[-73.98966853608431,40.75542644124543],[-73.9893606573853,40.755296819841014],[-73.98926149775097,40.755429776941945],[-73.98891003009943,40.75591450385674],[-73.98865080685115,40.75580526901082],[-73.98883554089775,40.755550485901445],[-73.98862613911346,40.75546224587645],[-73.9885804157638,40.75544297886775],[-73.98845673481716,40.75539084141868],[-73.98837909252886,40.75535814176746],[-73.98822177686135,40.755291850310044],[-73.98803704371306,40.755546633049676],[-73.98795429450234,40.75551176547921],[-73.98763672837133,40.75537794093389],[-73.98733381735583,40.755247764164494],[-73.98683005831417,40.755036519487625],[-73.98650595334617,40.75489987747047],[-73.98594037763655,40.75466281887539],[-73.98574775189019,40.75458207866222],[-73.98562156554222,40.75452918655966],[-73.98542576065806,40.75444711447179],[-73.98578020083488,40.75396205430512],[-73.98594271505293,40.754030731528836],[-73.98603834520648,40.7538991618758],[-73.9862197590798,40.75364956704001],[-73.98639239910774,40.75341203716566],[-73.98649206000199,40.75327491478026],[-73.9862493388055,40.75317410971141],[-73.98601371699466,40.7530762537799],[-73.98619039764475,40.752832294504785],[-73.98637004992179,40.752585987950766],[-73.98636674501986,40.75258461469021],[-73.98646309113072,40.75245403231325],[-73.98663559012314,40.752217327028426],[-73.98681758610475,40.75196759113759],[-73.9868226777558,40.751969735431075],[-73.9870089515148,40.75172121128734],[-73.98710203584285,40.75159701861997],[-73.98741584252443,40.751729069188805],[-73.98747195758527,40.75143686106111],[-73.98749173579287,40.7512846937717],[-73.98704786832954,40.75109906969073],[-73.98740441146242,40.75061096084106],[-73.98759844217392,40.75069210398385],[-73.9879270441082,40.7508295243211],[-73.98859036191064,40.75110691745793],[-73.9888282366962,40.75120639116149],[-73.98906004066704,40.75130332638088],[-73.98927394480755,40.75139273493081],[-73.98930019268184,40.75140371168448],[-73.98994166884644,40.75167199917614],[-73.99024972900514,40.751800838932155],[-73.9903411388735,40.75167565150056],[-73.99038765363892,40.75161194913629],[-73.99043065329661,40.75155306680815],[-73.99062602070124,40.75128558797376],[-73.99070071022722,40.751183139154925],[-73.99088660938875,40.7512606088369],[-73.99111632836983,40.751356338779345],[-73.99093742528774,40.75160219870651],[-73.99101105749664,40.75163288315717],[-73.99108259034271,40.751662691770555],[-73.99122800692597,40.75172329093991],[-73.9913908786735,40.751791163386606],[-73.99144070283242,40.75181194219397],[-73.99161954752402,40.75156604016982],[-73.9921095892913,40.75177024778945],[-73.99192352034817,40.75202602123899],[-73.99199026158051,40.752053833056415],[-73.99206525473707,40.752085083483635],[-73.99209669667033,40.75209818399704],[-73.9921415693154,40.75211688442925],[-73.99221753624572,40.752148539730435],[-73.9922871709516,40.752177558721215],[-73.9923331440329,40.75219671371163],[-73.9923568074541,40.752206575657766],[-73.99243404011065,40.75223875831095],[-73.99246752840614,40.75225271215255],[-73.99250627633761,40.752268858591144],[-73.99256969470171,40.75229528615228],[-73.99258009359946,40.752299618951106],[-73.99273248380425,40.75236311990667],[-73.99276983126218,40.75231181298482],[-73.9928223117394,40.752333681803755],[-73.99289194824189,40.75236270003322],[-73.99308967372414,40.75244509044955],[-73.9934012462956,40.752574918843536],[-73.99355024985178,40.75237072934688],[-73.99409823205654,40.752603977798024],[-73.99373648767816,40.75309691105654],[-73.99364129410581,40.753226625895415],[-73.99372688019619,40.753263055728574],[-73.99380542708802,40.753296489307075],[-73.99388230760498,40.753329213789776],[-73.99399479194992,40.75337709225999],[-73.99405295786455,40.75340184875957],[-73.99411916280268,40.75343002883089],[-73.99419646732446,40.75346293357946],[-73.99427473663685,40.7534962479706],[-73.99451803185683,40.75359980379387],[-73.99477256140773,40.753708139928094],[-73.99498632900432,40.75379912603035],[-73.99508151808509,40.75366940822547],[-73.99526367845839,40.753421172160564],[-73.99529304169009,40.75343366880979],[-73.99590126401951,40.75369254231752],[-73.99571910364621,40.75394077873019],[-73.99531527409505,40.753768900551655],[-73.99522008231934,40.753898618162424],[-73.99504540850562,40.75413664441701],[-73.99513121827651,40.754173164256656],[-73.99494787482196,40.754423004823984],[-73.99485038156247,40.75455585615572],[-73.99485193654624,40.75455651214381],[-73.99476563899016,40.75467400808081],[-73.99472149937034,40.7547341036695],[-73.99467734897077,40.75479420532822],[-73.9944920112563,40.75471604839166],[-73.99439295852149,40.75467427823307],[-73.99436111414299,40.75466084955329],[-73.99429167077827,40.7546315648963],[-73.99411459397115,40.754872664987545],[-73.9937817349207,40.754732296985104],[-73.99370781165766,40.7547011233358],[-73.99362207734526,40.75466496784537],[-73.99354947730065,40.754634351481535],[-73.99345335127703,40.75476616601469],[-73.9932727656504,40.75500893687896],[-73.99335199705845,40.7550423498456],[-73.993588031196,40.75514188775082],[-73.99382716631789,40.75524273134534],[-73.99391381511525,40.7552792709918],[-73.99406581095965,40.75534336860222],[-73.993884943262,40.75558957375762],[-73.99364632377309,40.7554889436782],[-73.99364389293193,40.755487918881286],[-73.99354810287825,40.75561804346441],[-73.99337212740566,40.755857093798156],[-73.99319295482898,40.756100456089804],[-73.99309466386555,40.75623396072157],[-73.99310772986135,40.75623946911305],[-73.99321823701435,40.7562860560009],[-73.99351160881983,40.756409735003395],[-73.99337638721674,40.75659063135927],[-73.99333212273112,40.75664986238699]]]},"properties":{"USNNum":"06101.018886","USNName":"Garment Center Historic District","Eligibilit":"Listed","Shape__Are":516139.221005,"Shape__Len":4463.3780277}}],"fileName":"cris_Building_District_Garment_Center/Building District USN Polygons selection"}