{"type":"FeatureCollection","features":[{"type":"Feature","geometry":{"type":"Point","coordinates":[-73.98831828721556,40.748611837550854]},"properties":{"Address":"Greeley Square","BBL":1008340001,"Use":"Park/Open Space","image_url":"https://www.mas.org/wp-content/uploads/2025/04/MSMX_Greeley-Square.png","image_sour":"Source: Google Street View (Sept 2024)"}},{"type":"Feature","geometry":{"type":"Point","coordinates":[-73.98910319498363,40.750814380049164]},"properties":{"Address":"34th Street","BBL":1008100001,"Use":"Major Commercial Corridor","image_url":"https://www.mas.org/wp-content/uploads/2025/04/MSMX_Macys.png","image_sour":"Source: Google Street View (Sept 2024)"}},{"type":"Feature","geometry":{"type":"Point","coordinates":[-73.99583650066664,40.75152034804398]},"properties":{"Address":"Moynihan Train Hall","BBL":1007557501,"Use":"Transit Hub","image_url":"https://www.mas.org/wp-content/uploads/2025/04/MSMX_Moynihan-Train-Hall.png","image_sour":"Source: Google Street View (Sept 2024)"}},{"type":"Feature","geometry":{"type":"Point","coordinates":[-73.98652996947808,40.75619789325046]},"properties":{"Address":"Times Square","BBL":1009950001,"Use":"Transit Hub/Major Commercial Corridor","image_url":"https://www.mas.org/wp-content/uploads/2025/04/MSMX_Times-Square.png","image_sour":"Source: Google Street View (Sept 2024)"}},{"type":"Feature","geometry":{"type":"Point","coordinates":[-73.99086475699774,40.75681517117663]},"properties":{"Address":"Port Authority Bus Terminal","BBL":1010320029,"Use":"Transit Hub","image_url":"https://www.mas.org/wp-content/uploads/2025/04/MSMX_Port-Authority-Bus-Terminal.png","image_sour":"Source: Google Street View (Sept 2024)"}},{"type":"Feature","geometry":{"type":"Point","coordinates":[-73.99339344400978,40.75049626534283]},"properties":{"Address":"Madison Square Garden / Penn Station","BBL":1007810001,"Use":"Transit Hub/Attraction","image_url":"https://www.mas.org/wp-content/uploads/2025/04/MSMX_Madison-Square-Garden.png","image_sour":"Source: Google Street View (Sept 2024)"}},{"type":"Feature","geometry":{"type":"Point","coordinates":[-73.98372789561859,40.75381781554372]},"properties":{"Address":"Bryant Park","BBL":1012570002,"Use":"Park/Open Space","image_url":"https://www.mas.org/wp-content/uploads/2025/04/MSMX_Bryant-Park.png","image_sour":"Source: Google Street View (Sept 2024)"}},{"type":"Feature","geometry":{"type":"Point","coordinates":[-73.98570919111849,40.74845327061792]},"properties":{"Address":"Empire State Building","BBL":1008350041,"Use":"Landmark","image_url":"https://www.mas.org/wp-content/uploads/2025/04/MSMX_Empire-State-Building.png","image_sour":"Source: Google Street View (Sept 2024)"}},{"type":"Feature","geometry":{"type":"Point","coordinates":[-73.98797806693892,40.742246228765104]},"properties":{"Address":"Madison Square Park","BBL":1008520001,"Use":"Park/Open Space","image_url":"https://www.mas.org/wp-content/uploads/2025/04/MSMX_Madison-Square-Park.png","image_sour":"Source: Google Street View (Sept 2024)"}},{"type":"Feature","geometry":{"type":"Point","coordinates":[-73.9822660107069,40.753203414038644]},"properties":{"Address":"NYPL Schwarzman Building","BBL":1012570001,"Use":"Landmark","image_url":"https://www.mas.org/wp-content/uploads/2025/04/MSMX_NYPL-Schwarzman.png","image_sour":"Source: Google Street View (Sept 2024)"}},{"type":"Feature","geometry":{"type":"Point","coordinates":[-73.99950646717414,40.749504734986644]},"properties":{"Address":"Chelsea Park","BBL":1007240100,"Use":"Park/Open Space","image_url":"https://www.mas.org/wp-content/uploads/2025/04/MSMX_Chelsea-Park.png","image_sour":"Source: Google Street View (Sept 2024)"}},{"type":"Feature","geometry":{"type":"Point","coordinates":[-73.99605825449399,40.74159310414111]},"properties":{"Address":"Chelsea Green Playground","BBL":1007950066,"Use":"Park/Open Space","image_url":"https://www.mas.org/wp-content/uploads/2025/04/MSMX_Chelsea-Green-Playground.png","image_sour":"Source: Google Street View (Sept 2024)"}},{"type":"Feature","geometry":{"type":"Point","coordinates":[-73.98764660439261,40.750292995749845]},"properties":{"Address":"Herald Square","BBL":1008100045,"Use":"Park/Open Space","image_url":"https://www.mas.org/wp-content/uploads/2025/04/MSMX_Herald-Square.png","image_sour":"Source: Google Street View (Sept 2024)"}},{"type":"Feature","geometry":{"type":"Point","coordinates":[-73.9987054890577,40.74762955218626]},"properties":{"Address":"Penn South Playground","BBL":1007490070,"Use":"Park/Open Space","image_url":"https://www.mas.org/wp-content/uploads/2025/04/MSMX_Penn-South-Playground.png","image_sour":"Source: Google Street View (Sept 2024)"}},{"type":"Feature","geometry":{"type":"Point","coordinates":[-73.99128320367834,40.7589864889876]},"properties":{"Address":"McCaffrey Playground","BBL":1010340005,"Use":"Park/Open Space","image_url":"https://www.mas.org/wp-content/uploads/2025/04/MSMX_McCaffrey-Playground.png","image_sour":"Source: Google Street View (Sept 2024)"}}],"fileName":"msmx_poi/MSMX_POI_QuarterMile"}