{"type":"FeatureCollection","features":[{"type":"Feature","geometry":{"bbox":[-73.9885851149072,40.75451566410682,-73.98808665528131,40.75488960161619],"type":"Polygon","coordinates":[[[-73.98817768312148,40.754628300595584],[-73.98826005131568,40.75451563143628],[-73.98858509146139,40.754652484213324],[-73.98850272364761,40.75476515444044],[-73.98845907344354,40.75482486082454],[-73.9884117206994,40.75488963477605],[-73.98808667975095,40.75475278159826],[-73.98813403161392,40.75468800861529],[-73.98817768312148,40.754628300595584]]]},"properties":{"Site_No_":"18","Site_Area_":10176,"Current_La":"Retail – 20,650,  Office, 23,705","Current_To":44355,"Proposed_D":"189,802 sf Residential (194 units with up to 59 affordable), 20,350 sf Retail. 210,152 sf/ 245 ft total development.","devType":"Projected","Address_BB":"552 7 AVENUE (1007890040) & 556 7 AVENUE (1007890042) & 558 7 AVENUE (1007890043)","Historic_D":"S/NR one one lot at 552 7th Ave; the other two are non-contributing","image_url":"https://www.mas.org/wp-content/uploads/2025/03/msmx-site-18.png","image_sour":"Source: Cyclomedia (Oct 2024)","Quadrant":"Northwest","Shape_Leng":403.581425117,"Shape_Area":10175.7052133}},{"type":"Feature","geometry":{"bbox":[-73.98886461939297,40.75228391099826,-73.9885857746035,40.752573225159736],"type":"Polygon","coordinates":[[[-73.98858578113773,40.752535090568465],[-73.98877404402106,40.75228390220664],[-73.98886461301822,40.752322046511004],[-73.98867634904872,40.75257323409926],[-73.98858578113773,40.752535090568465]]]},"properties":{"Site_No_":"E","Site_Area_":3031,"Current_La":"Retail – 2,500, Office – 12,935","Current_To":15435,"Proposed_D":"56,496 sf Residential (57 units with up to 18 affordable), 6,052 sf Retail. 62,548 sf/345 ft total development.","devType":"Potential","Address_BB":"144 WEST 37 STREET (1008120068)","Historic_D":"S/NR","image_url":"https://www.mas.org/wp-content/uploads/2025/03/msmx-site-e.png","image_sour":"Source: Google Street View (Sept 2024)","Quadrant":"Northwest","Shape_Leng":268.043018132,"Shape_Area":3021.30370444}},{"type":"Feature","geometry":{"bbox":[-73.99250496830838,40.75421729998435,-73.99208036590046,40.75448056489749],"type":"Polygon","coordinates":[[[-73.99211724626014,40.754289106442535],[-73.99217000641852,40.754217277702814],[-73.99250495241671,40.75435853885345],[-73.99241530535105,40.75448058743812],[-73.99234058693469,40.75444907738384],[-73.99208038269616,40.75433929449156],[-73.99211724626014,40.754289106442535]]]},"properties":{"Site_No_":"1","Site_Area_":5404,"Current_La":"Retail – 5,550, Office - 19,537, Warehouse – 4,453","Current_To":25037,"Proposed_D":"100,707 sf Residential (103 units with up to 31 affordable), 10,806 sf Retail. 111,513 sf/215 ft total development.","devType":"Projected","Address_BB":"539 8 AVENUE (1007610031) & 543 8 AVENUE (1007610032)","Historic_D":"S/NR","image_url":"https://www.mas.org/wp-content/uploads/2025/03/msmx-site-01.png","image_sour":"Source: Cyclomedia (Oct 2024)","Quadrant":"Northwest","Shape_Leng":314.080993978,"Shape_Area":5404.15336383}},{"type":"Feature","geometry":{"bbox":[-73.99304965064317,40.752356449293714,-73.99264612763832,40.75260461891846],"type":"Polygon","coordinates":[[[-73.99264614233594,40.75247148098273],[-73.99272989198793,40.75235642955603],[-73.99304963674383,40.75248966562083],[-73.99296565657009,40.75260463887459],[-73.99264614233594,40.75247148098273]]]},"properties":{"Site_No_":"9","Site_Area_":4838,"Current_La":"Retail – 9,400","Current_To":9400,"Proposed_D":"89,476 sf Residential (91 units with up to 28 affordable), 9,676 sf Retail. 99,152 sf/305 ft total development.","devType":"Projected","Address_BB":"490 8 AVENUE (1007840080)","Historic_D":"Non contributing S/NR","image_url":"https://www.mas.org/wp-content/uploads/2025/03/msmx-site-09.png","image_sour":"Source: Cyclomedia (Oct 2024)","Quadrant":"Northwest","Shape_Leng":297.791872322,"Shape_Area":4838.38146966}},{"type":"Feature","geometry":{"bbox":[-73.99076133549941,40.75274126910028,-73.99042886475974,40.753059076242494],"type":"Polygon","coordinates":[[[-73.990428879138,40.75295900486305],[-73.99058716662597,40.75274125499951],[-73.99065314033709,40.75276863569429],[-73.990761325477,40.75281353464392],[-73.99058282683005,40.75305908893233],[-73.99049080293791,40.75302077385832],[-73.99047472184753,40.75301407822085],[-73.99049480205534,40.75298645324146],[-73.990428879138,40.75295900486305]]]},"properties":{"Site_No_":"12","Site_Area_":5378,"Current_La":"Retail – 5,631, Office – 20,820","Current_To":28680,"Proposed_D":"99,909 sf Residential (102 units with up to 31 affordable), 10,754 sf Retail. 110,5663 sf/315 ft total development.","devType":"Projected","Address_BB":"223 WEST 36 STREET (1007860031) & 225 WEST 36 STREET (1007860029)","Historic_D":"S/NR","image_url":"https://www.mas.org/wp-content/uploads/2025/03/msmx-site-12.png","image_sour":"Source: Cyclomedia (Oct 2024)","Quadrant":"Northwest","Shape_Leng":314.311738934,"Shape_Area":5377.66746462}},{"type":"Feature","geometry":{"bbox":[-73.99033624208087,40.75339440596787,-73.99002962075235,40.75369983224351],"type":"Polygon","coordinates":[[[-73.99002962827971,40.753649540768],[-73.99021510436032,40.75339439574147],[-73.99033623478932,40.75344466774602],[-73.99015073889515,40.753699842663245],[-73.99002962827971,40.753649540768]]]},"properties":{"Site_No_":"13","Site_Area_":4061,"Current_La":"Retail – 2,500, Office – 18,680","Current_To":21180,"Proposed_D":"75,001 sf Residential (76 units with up to 23 affordable), 8,122 sf Retail. 83,123 sf/345 ft total development.","devType":"Projected","Address_BB":"221 WEST 37 STREET  (1007870031)","Historic_D":"S/NR","image_url":"https://www.mas.org/wp-content/uploads/2025/03/msmx-site-13.png","image_sour":"Source: Google Street View (Sept 2024)","Quadrant":"Northwest","Shape_Leng":288.909974903,"Shape_Area":4061.13227981}},{"type":"Feature","geometry":{"bbox":[-73.9891723569155,40.753678713601026,-73.98880465929999,40.75398683147607],"type":"Polygon","coordinates":[[[-73.98880467385283,40.753900240669],[-73.98896663340315,40.753678694079866],[-73.98903599604229,40.753707896882844],[-73.9891077412515,40.75373810487745],[-73.9891723428405,40.75376530533102],[-73.98901038376391,40.75398685128653],[-73.98894578202449,40.753959650743],[-73.98887403676011,40.75392944356858],[-73.98880467385283,40.753900240669]]]},"properties":{"Site_No_":"15","Site_Area_":8135,"Current_La":"Retail – 14,496 , Office – 32,360, Warehouse – 1,000, Industrial – 13,160","Current_To":46856,"Proposed_D":"151,508 sf Residential (155 units with up to 47 affordable), 16,268 sf Retail. 167,776 sf/275 ft total development.","devType":"Projected","Address_BB":"203 WEST 38 STREET (1007880045) & 205 WEST 38 STREET (1007880044) & 207 WEST 38 STREET (1007880043)","Historic_D":"S/NR with exception of 207 W 38th St, which is non-contributing","image_url":"https://www.mas.org/wp-content/uploads/2025/03/msmx-site-15.png","image_sour":"Source: Cyclomedia (Oct 2024)","Quadrant":"Northwest","Shape_Leng":314.992736288,"Shape_Area":6016.24023767}},{"type":"Feature","geometry":{"bbox":[-73.98849642331513,40.751331956487086,-73.98821301591177,40.75162200871796],"type":"Polygon","coordinates":[[[-73.98821302358029,40.75157866912726],[-73.98839292454241,40.751331946104294],[-73.98841272767547,40.751340286831386],[-73.98849641578965,40.75137553559843],[-73.9883166880721,40.75162201927997],[-73.98821302358029,40.75157866912726]]]},"properties":{"Site_No_":"36","Site_Area_":7944,"Current_La":"Retail - 14,334, Office - 25,793","Current_To":40127,"Proposed_D":"148,398 sf Residential (151 units with up to 46 affordable), 15,866 sf Retail. 164,264 sf/335 ft total development.","devType":"Projected","Address_BB":"128 WEST 36 STREET (1008110049)","Historic_D":"Non contributing S/NR","image_url":"https://www.mas.org/wp-content/uploads/2025/03/msmx-site-36.png","image_sour":"Source: Cyclomedia (Oct 2024)","Quadrant":"Northwest","Shape_Leng":271.02452523,"Shape_Area":3367.41851354}},{"type":"Feature","geometry":{"bbox":[-73.98861993279576,40.75505366187864,-73.98822031423113,40.75538255196927],"type":"Polygon","coordinates":[[[-73.98822033173255,40.75528358468541],[-73.98838705612648,40.75505363863712],[-73.98854438162829,40.75511993520983],[-73.98861991603579,40.75515176470697],[-73.98845528929016,40.75538257575809],[-73.98837764694137,40.755349876963244],[-73.98822033173255,40.75528358468541]]]},"properties":{"Site_No_":"G","Site_Area_":7088,"Current_La":"Retail – 4,450, Office – 41,137","Current_To":45587,"Proposed_D":"132,361 sf Residential (135 units with up to 41 affordable), 14,174 sf Retail. 146,535 sf/345 ft total development.","devType":"Potential","Address_BB":"209 WEST 40 STREET (1010120026) & 213 WEST 40 STREET (1010120025)","Historic_D":"Non contributing S/NR","image_url":"https://www.mas.org/wp-content/uploads/2025/03/msmx-site-g.png","image_sour":"Source: Cyclomedia (Oct 2024)","Quadrant":"Northwest","Shape_Leng":339.507814752,"Shape_Area":7087.69602722}},{"type":"Feature","geometry":{"bbox":[-73.99142091087965,40.75303963324981,-73.99112716128637,40.753333499092065],"type":"Polygon","coordinates":[[[-73.99130608422561,40.75303962464053],[-73.99142090474356,40.753087278144484],[-73.99124191748906,40.7533335078743],[-73.99112716764574,40.75328575522917],[-73.99130608422561,40.75303962464053]]]},"properties":{"Site_No_":"10","Site_Area_":3714,"Current_La":"Retail – 2,000, Office – 21,606","Current_To":23606,"Proposed_D":"69,382 sf Residential (70 units with up to 21 affordable), 7,428 sf Retail. 76,810 sf/335 ft total development.","devType":"Projected","Address_BB":"247 WEST 36 STREET (1007860018)","Historic_D":"S/NR","image_url":"https://www.mas.org/wp-content/uploads/2025/03/msmx-site-10.png","image_sour":"Source: Google Street View (Sept 2024)","Quadrant":"Northwest","Shape_Leng":277.448921267,"Shape_Area":3714.0916596}},{"type":"Feature","geometry":{"bbox":[-73.9908994793523,40.75314531258645,-73.99061146227436,40.75343625632055],"type":"Polygon","coordinates":[[[-73.99061146868748,40.753390753795564],[-73.99078989351574,40.75314530387656],[-73.99089947312056,40.753190927719345],[-73.9907211279102,40.75343626520659],[-73.99061146868748,40.753390753795564]]]},"properties":{"Site_No_":"11","Site_Area_":3536,"Current_La":"Retail – 2,500, Office – 12, 437","Current_To":14937,"Proposed_D":"66,087 sf Residential (67 units with up to 21 affordable), 7,070 sf Retail. 73,157 sf/325 ft total development.","devType":"Projected","Address_BB":"232 WEST 37 STREET (1007860066)","Historic_D":"S/NR","image_url":"https://www.mas.org/wp-content/uploads/2025/03/msmx-site-11.png","image_sour":"Source: Google Street View (Sept 2024)","Quadrant":"Northwest","Shape_Leng":273.537227671,"Shape_Area":3535.83358783}},{"type":"Feature","geometry":{"bbox":[-73.99137535572265,40.753190964333186,-73.9907211003855,40.75363386677567],"type":"Polygon","coordinates":[[[-73.9907211279102,40.75343626520659],[-73.99089947312056,40.753190927719345],[-73.99095686853654,40.75321482621633],[-73.99112716764574,40.75328575522917],[-73.99124191748906,40.7533335078743],[-73.99137533007556,40.753389053898324],[-73.99119734248663,40.75363390415363],[-73.9907211279102,40.75343626520659]]]},"properties":{"Site_No_":"C","Site_Area_":15336,"Current_La":"Residential – 12,750 Office – 118,016","Current_To":130766,"Proposed_D":"286,462 sf Residential (293 units with up to 88 affordable), 30,670 sf Retail. 317,132 sf/325 ft total development.","devType":"Potential","Address_BB":"240 WEST 37 STREET (1007860068)","Historic_D":"S/NR","image_url":"https://www.mas.org/wp-content/uploads/2025/03/msmx-site-c.png","image_sour":"Source: Cyclomedia (Oct 2024)","Quadrant":"Northwest","Shape_Leng":504.679379404,"Shape_Area":15335.5950622}},{"type":"Feature","geometry":{"bbox":[-73.99034110772926,40.754212342721026,-73.9900566768102,40.75450023800811],"type":"Polygon","coordinates":[[[-73.99016346191726,40.75450024717622],[-73.99009654189392,40.75447207277848],[-73.99005668355721,40.75445503808792],[-73.99023410756539,40.754212333699314],[-73.9903411011989,40.75425737967406],[-73.99016346191726,40.75450024717622]]]},"properties":{"Site_No_":"14","Site_Area_":3429,"Current_La":"Retail – 5,272, Office – 3,828","Current_To":9100,"Proposed_D":"63,724 sf Residential (65 units with up to 20 affordable), 6,856 sf Retail. 70,580 sf/325 ft total development.","devType":"Projected","Address_BB":"243 WEST 38 STREET (1007880024)","Historic_D":"S/NR","image_url":"https://www.mas.org/wp-content/uploads/2025/03/msmx-site-14.png","image_sour":"Source: Google Street View (Sept 2024)","Quadrant":"Northwest","Shape_Leng":270.163328613,"Shape_Area":3428.98045243}},{"type":"Feature","geometry":{"bbox":[-73.9894677396523,40.7549609976904,-73.98916175017227,40.75525899698438],"type":"Polygon","coordinates":[[[-73.9893404542739,40.75496098598219],[-73.98946773118143,40.75501457239332],[-73.98928903600996,40.75525900889002],[-73.98916175888925,40.755205422283375],[-73.9893404542739,40.75496098598219]]]},"properties":{"Site_No_":"17","Site_Area_":4107,"Current_La":"Retail – 7,021, Office – 3,221","Current_To":10242,"Proposed_D":"76,641 sf Residential (78 units with up to 24 affordable), 8,212 sf Retail. 84,853 sf/325 ft total development.","devType":"Projected","Address_BB":"236 WEST 40 STREET (1007890060)","Historic_D":"S/NR","image_url":"https://www.mas.org/wp-content/uploads/2025/03/msmx-site-17.png","image_sour":"Source: Google Street View (Sept 2024)","Quadrant":"Northwest","Shape_Leng":284.39675241,"Shape_Area":4106.88007647}},{"type":"Feature","geometry":{"bbox":[-73.99084507869287,40.75538740290055,-73.99038934161999,40.755821460668415],"type":"MultiPolygon","coordinates":[[[[-73.99080474373136,40.75557565119289],[-73.9905690657173,40.75547642885167],[-73.99056804830921,40.755477820954994],[-73.99048752376453,40.75544391931272],[-73.99052885813398,40.75538737733519],[-73.99084506040035,40.75552050028699],[-73.99080474373136,40.75557565119289]]],[[[-73.99043670745567,40.755657485306905],[-73.99052222844017,40.75554049778365],[-73.99075790793138,40.75563971929979],[-73.99067238602335,40.75575670783258],[-73.99062503465927,40.7558214800911],[-73.99038935593272,40.75572225914343],[-73.99043670745567,40.755657485306905]]]]},"properties":{"Site_No_":"16","Site_Area_":9965,"Current_La":"Retail – 15,071, Office – 1,653, Res – 4,419","Current_To":21143,"Proposed_D":"138,332 sf Residential (141 units with up to 43 affordable), 66,704 sf Office. 205,036 sf/275 ft total development.","devType":"Projected","Address_BB":"608 8 AVENUE (1007890005) & 612 8 AVENUE (1007890079) & 618 8 AVENUE (1007890078)","Historic_D":"S/NR on one lot at 618 8th Ave; the other two have no designation","image_url":"https://www.mas.org/wp-content/uploads/2025/03/msmx-site-16.png","image_sour":"Source: Google Street View (Sept 2024)","Quadrant":"Northwest","Shape_Leng":548.205148691,"Shape_Area":7971.4410589}},{"type":"Feature","geometry":{"bbox":[-73.98459810668173,40.75015485830486,-73.98426612105595,40.750465791149054],"type":"Polygon","coordinates":[[[-73.98426613671178,40.750399504765944],[-73.98444014781825,40.75015483707513],[-73.98452225644188,40.750189307806515],[-73.98459809135626,40.75022114477411],[-73.98442408065671,40.75046581261744],[-73.98440721190413,40.7504587311038],[-73.98434824554694,40.750433975620176],[-73.98426765181203,40.75040014020436],[-73.98426613671178,40.750399504765944]]]},"properties":{"Site_No_":"F","Site_Area_":0,"Current_La":"","Current_To":0,"Proposed_D":"","devType":"Potential","Address_BB":"13 WEST 36 STREET (1008380034) & 11 WEST 36 STREET (1008380035)","Historic_D":"","image_url":"","image_sour":"","Quadrant":"Northeast","Shape_Leng":302.661363209,"Shape_Area":5065.67824682}},{"type":"Feature","geometry":{"bbox":[-73.98548427904463,40.751345333439005,-73.98517800417217,40.75164244308714],"type":"Polygon","coordinates":[[[-73.98517801616164,40.75158855789737],[-73.98535587583675,40.7513453171862],[-73.98541633265897,40.75137069836723],[-73.9854842673031,40.7513992179619],[-73.98530640696313,40.75164245953811],[-73.9852384730284,40.751613939254625],[-73.98517801616164,40.75158855789737]]]},"properties":{"Site_No_":"56","Site_Area_":0,"Current_La":"","Current_To":0,"Proposed_D":"","devType":"Projected","Address_BB":"47 WEST 37 STREET (1008390014) & 45 WEST 37 STREET (1008390015)","Historic_D":"","image_url":"","image_sour":"","Quadrant":"Northeast","Shape_Leng":284.06775711,"Shape_Area":4120.22969382}},{"type":"Feature","geometry":{"bbox":[-73.98557156714865,40.75164249305743,-73.98512638612064,40.7520006191831],"type":"Polygon","coordinates":[[[-73.98512641112718,40.75188862087772],[-73.98530640696313,40.75164245953811],[-73.98537159425685,40.751669825761766],[-73.98557154304709,40.751753769046836],[-73.98539101924216,40.75200065304979],[-73.98519146741613,40.75191616487952],[-73.98512641112718,40.75188862087772]]]},"properties":{"Site_No_":"55","Site_Area_":0,"Current_La":"","Current_To":0,"Proposed_D":"","devType":"Projected","Address_BB":"58 WEST 38 STREET (1008390078) & 60 WEST 38 STREET (1008390079)","Historic_D":"","image_url":"","image_sour":"","Quadrant":"Northeast","Shape_Leng":373.357303996,"Shape_Area":8623.31154983}},{"type":"Feature","geometry":{"bbox":[-73.98546764432676,40.74966229959926,-73.98501571732035,40.75002099150952],"type":"Polygon","coordinates":[[[-73.98501574262488,40.749908492215575],[-73.98519574915385,40.749662264974255],[-73.98526675942898,40.74969165842772],[-73.98533485418989,40.74971984500459],[-73.98540469224068,40.74974875265955],[-73.9854676197853,40.74977479964981],[-73.98528761494688,40.750021026559594],[-73.98522468614019,40.74999498022564],[-73.98515988941067,40.74996815858972],[-73.9851548488991,40.7499660717088],[-73.98508675407265,40.74993788569666],[-73.98501574262488,40.749908492215575]]]},"properties":{"Site_No_":"51","Site_Area_":0,"Current_La":"","Current_To":0,"Proposed_D":"","devType":"Projected","Address_BB":"27 WEST 35 STREET (1008370026) & 25 WEST 35 STREET (1008370027) & 23 WEST 35 STREET (1008370028) & 21 WEST 35 STREET (1008370029)","Historic_D":"","image_url":"","image_sour":"","Quadrant":"Northeast","Shape_Leng":376.808115168,"Shape_Area":8802.46061481}},{"type":"Feature","geometry":{"bbox":[-73.98519578354689,40.74950749943054,-73.98446091209966,40.7500656624195],"type":"Polygon","coordinates":[[[-73.98446092718495,40.75000099067269],[-73.98464448419828,40.74974991014679],[-73.98482173745786,40.74950745074815],[-73.98519574915385,40.749662264974255],[-73.98501574262488,40.749908492215575],[-73.98495934575777,40.749885147551616],[-73.98479801740584,40.74981836914314],[-73.98461721502866,40.75006568339966],[-73.98446092718495,40.75000099067269]]]},"properties":{"Site_No_":"52","Site_Area_":0,"Current_La":"","Current_To":0,"Proposed_D":"","devType":"Projected","Address_BB":"9 WEST 35 STREET (1008370030)","Historic_D":"","image_url":"","image_sour":"","Quadrant":"Northeast","Shape_Leng":647.439089477,"Shape_Area":17192.0713426}},{"type":"Feature","geometry":{"bbox":[-73.98453029417875,40.75045874769985,-73.98423161847593,40.75075605901783],"type":"Polygon","coordinates":[[[-73.98423163076241,40.75070415246402],[-73.98440721190413,40.7504587311038],[-73.98442408065671,40.75046581261744],[-73.98446755932403,40.750484066507994],[-73.98453028218444,40.750510398506016],[-73.98435555232776,40.7507560759171],[-73.98429280157225,40.75072978313999],[-73.98423163076241,40.75070415246402]]]},"properties":{"Site_No_":"54","Site_Area_":0,"Current_La":"","Current_To":0,"Proposed_D":"","devType":"Projected","Address_BB":"16 WEST 37 STREET (1008380060) & 18 WEST 37 STREET (1008380061)","Historic_D":"","image_url":"","image_sour":"","Quadrant":"Northeast","Shape_Leng":281.70572415,"Shape_Area":3976.91492915}},{"type":"Feature","geometry":{"bbox":[-73.98511893220635,40.750595758717665,-73.98455881519033,40.751002763423976],"type":"Polygon","coordinates":[[[-73.98455885262602,40.750841258172436],[-73.98473349040104,40.750595708276705],[-73.98478635491365,40.75061790167151],[-73.9848088842377,40.75062735957149],[-73.98490358411802,40.750667116244045],[-73.98496090355586,40.75069117986039],[-73.98504062680902,40.75072464858104],[-73.98511434599324,40.7507555960432],[-73.98511889607448,40.750757506505735],[-73.98494443107452,40.751002814471896],[-73.98486612661283,40.75097000570011],[-73.98478636805116,40.7509365860477],[-73.98463427989248,40.750872862400065],[-73.98455885262602,40.750841258172436]]]},"properties":{"Site_No_":"53","Site_Area_":0,"Current_La":"","Current_To":0,"Proposed_D":"","devType":"Projected","Address_BB":"26 WEST 37 STREET (1008380065) & 28 WEST 37 STREET (1008380066) & 32 WEST 37 STREET (1008380068) & 34 WEST 37 STREET (1008380069)","Historic_D":"","image_url":"","image_sour":"","Quadrant":"Northeast","Shape_Leng":447.265600579,"Shape_Area":12399.3043364}},{"type":"Feature","geometry":{"bbox":[-73.98403731836224,40.7510444034025,-73.98370466856295,40.7513523278392],"type":"Polygon","coordinates":[[[-73.98370468462676,40.75128665837412],[-73.98388184557483,40.75104438175194],[-73.98395831023666,40.75107648476287],[-73.9840373027281,40.751109648463554],[-73.98385983250297,40.751352349685526],[-73.98378099695714,40.75131897021099],[-73.98370468462676,40.75128665837412]]]},"properties":{"Site_No_":"58","Site_Area_":0,"Current_La":"","Current_To":0,"Proposed_D":"","devType":"Projected","Address_BB":"18 WEST 38 STREET (1008390058) & 20 WEST 38 STREET (1008390059)","Historic_D":"","image_url":"","image_sour":"","Quadrant":"Northeast","Shape_Leng":300.575460337,"Shape_Area":4973.50802201}},{"type":"Feature","geometry":{"bbox":[-73.98477766878315,40.75136593186035,-73.98446899887713,40.75166517757497],"type":"Polygon","coordinates":[[[-73.9844690116762,40.751610279762396],[-73.98464769668998,40.751365914610766],[-73.98471503051397,40.751394183682635],[-73.98475519042205,40.751411044332926],[-73.98477765631927,40.751420476210605],[-73.98459871281194,40.751665194991595],[-73.98453621163696,40.751638731634365],[-73.9844690116762,40.751610279762396]]]},"properties":{"Site_No_":"57","Site_Area_":0,"Current_La":"","Current_To":0,"Proposed_D":"","devType":"Projected","Address_BB":"38 WEST 38 STREET (1008390068) & 40 WEST 38 STREET (1008390069)","Historic_D":"","image_url":"","image_sour":"","Quadrant":"Northeast","Shape_Leng":286.146409524,"Shape_Area":4192.91868448}},{"type":"Feature","geometry":{"bbox":[-73.98456771073597,40.75176163373793,-73.98426679353383,40.752066253082],"type":"Polygon","coordinates":[[[-73.98434739602219,40.75205221452829],[-73.98426680485551,40.75201831654285],[-73.98445368463246,40.75176161840479],[-73.98456769963104,40.75180956961006],[-73.98438082203124,40.75206626860038],[-73.98434739602219,40.75205221452829]]]},"properties":{"Site_No_":"60","Site_Area_":0,"Current_La":"","Current_To":0,"Proposed_D":"","devType":"Projected","Address_BB":"35 WEST 38 STREET (1008400021)","Historic_D":"","image_url":"","image_sour":"","Quadrant":"Northeast","Shape_Leng":285.997475148,"Shape_Area":3858.98910818}},{"type":"Feature","geometry":{"bbox":[-73.983753249061,40.75174463135982,-73.98344147511183,40.75204256333359],"type":"Polygon","coordinates":[[[-73.9834414895692,40.751984401025055],[-73.98361606098567,40.751744611928295],[-73.98371473807718,40.75178611696043],[-73.98375323499413,40.7518023087767],[-73.98357830989592,40.7520425829226],[-73.9834414895692,40.751984401025055]]]},"properties":{"Site_No_":"61","Site_Area_":0,"Current_La":"","Current_To":0,"Proposed_D":"","devType":"Projected","Address_BB":"20 WEST 39 STREET (1008400060)","Historic_D":"","image_url":"","image_sour":"","Quadrant":"Northeast","Shape_Leng":286.783217875,"Shape_Area":4341.43151873}},{"type":"Feature","geometry":{"bbox":[-73.98442345241124,40.752018337832375,-73.98409054351417,40.75232682056403],"type":"Polygon","coordinates":[[[-73.98409055937519,40.75226040837484],[-73.98426680485551,40.75201831654285],[-73.98434739602219,40.75205221452829],[-73.98438082203124,40.75206626860038],[-73.98442343701161,40.752084196362105],[-73.98424678794268,40.752326842038016],[-73.98417094264687,40.75229459031231],[-73.98409055937519,40.75226040837484]]]},"properties":{"Site_No_":"59","Site_Area_":0,"Current_La":"","Current_To":0,"Proposed_D":"","devType":"Projected","Address_BB":"38 WEST 39 STREET (1008400069) & 40 WEST 39 STREET (1008400070)","Historic_D":"","image_url":"","image_sour":"","Quadrant":"Northeast","Shape_Leng":301.049909667,"Shape_Area":5005.48683898}},{"type":"Feature","geometry":{"bbox":[-73.98470609357412,40.752603011544366,-73.9843284500355,40.75293152230789],"type":"Polygon","coordinates":[[[-73.98432846977144,40.75284763161658],[-73.98450657661304,40.752602984881264],[-73.98457083961895,40.7526300120208],[-73.98463999937464,40.75265910065926],[-73.98470607431639,40.752686891028844],[-73.98452795972977,40.75293154927841],[-73.98446188648968,40.75290375462629],[-73.98440257343472,40.7528788044557],[-73.9843927301897,40.75287466379095],[-73.98432846977144,40.75284763161658]]]},"properties":{"Site_No_":"62","Site_Area_":0,"Current_La":"","Current_To":0,"Proposed_D":"","devType":"Projected","Address_BB":"49 WEST 39 STREET (1008410012) & 47 WEST 39 STREET (1008410013) & 45 WEST 39 STREET (1008410014)","Historic_D":"","image_url":"","image_sour":"","Quadrant":"Northeast","Shape_Leng":330.093643981,"Shape_Area":6435.31728412}},{"type":"Feature","geometry":{"bbox":[-73.99076968512398,40.742940408583515,-73.99043787995156,40.74324380319061],"type":"Polygon","coordinates":[[[-73.99043788946965,40.74317748586795],[-73.99061171014353,40.74294039581449],[-73.99069069256005,40.74297356059606],[-73.99076967593626,40.743006725322076],[-73.99059585564967,40.74324381619808],[-73.99051687208062,40.743210651436435],[-73.99043788946965,40.74317748586795]]]},"properties":{"Site_No_":"39","Site_Area_":0,"Current_La":"","Current_To":0,"Proposed_D":"","devType":"Projected","Address_BB":"25 WEST 24 STREET (1008260024) & 23 WEST 24 STREET (1008260025)","Historic_D":"","image_url":"","image_sour":"","Quadrant":"Southeast","Shape_Leng":297.802729388,"Shape_Area":4945.04834435}},{"type":"Feature","geometry":{"bbox":[-73.99083333345807,40.74327721156378,-73.99049765964953,40.74358588079443],"type":"Polygon","coordinates":[[[-73.99065563626891,40.743585893719896],[-73.99049766910817,40.743519563391196],[-73.99067535757061,40.74327719888205],[-73.99083332433361,40.74334352888553],[-73.99065563626891,40.743585893719896]]]},"properties":{"Site_No_":"38","Site_Area_":0,"Current_La":"","Current_To":0,"Proposed_D":"","devType":"Projected","Address_BB":"32 WEST 25 STREET (1008260061)","Historic_D":"","image_url":"","image_sour":"","Quadrant":"Southeast","Shape_Leng":302.203157837,"Shape_Area":5055.0604235}},{"type":"Feature","geometry":{"bbox":[-73.9907967371873,40.74354923415944,-73.98997999927285,40.744200739692495],"type":"Polygon","coordinates":[[[-73.99012523613573,40.74416998011026],[-73.99030363830177,40.743926648562066],[-73.99015066567847,40.74386241495532],[-73.99006594197223,40.74382683998407],[-73.98998006093002,40.74379077778013],[-73.99015718914296,40.743549181278745],[-73.99032779269217,40.74362081886276],[-73.99055343020468,40.74371556338793],[-73.99071771663024,40.74378454667596],[-73.99079670010019,40.743817712049676],[-73.9906195733841,40.744059308772826],[-73.99054058971579,40.74402614403133],[-73.99046351380679,40.7439937803561],[-73.9903769347729,40.743957426166524],[-73.99019853466258,40.74420075849742],[-73.99012523613573,40.74416998011026]]]},"properties":{"Site_No_":"40","Site_Area_":0,"Current_La":"","Current_To":0,"Proposed_D":"","devType":"Projected","Address_BB":"39 WEST 25 STREET (1008270014) & 35 WEST 25 STREET (1008270016) & 29 WEST 25 STREET (1008270017) & 25 WEST 25 STREET (1008270020)","Historic_D":"","image_url":"","image_sour":"","Quadrant":"Southeast","Shape_Leng":809.413505716,"Shape_Area":22754.901089}},{"type":"Feature","geometry":{"bbox":[-73.98947858846815,40.74510198751393,-73.9890691805461,40.74544127246196],"type":"Polygon","coordinates":[[[-73.98920785668889,40.74515276591762],[-73.98924489013068,40.74510196592829],[-73.9893204323307,40.74513375125918],[-73.9894785729435,40.74520029043025],[-73.98930288381489,40.745441294404465],[-73.98914474181431,40.74537475491188],[-73.989069196675,40.7453429687965],[-73.98916165059767,40.74521614885544],[-73.98920785668889,40.74515276591762]]]},"properties":{"Site_No_":"43","Site_Area_":0,"Current_La":"","Current_To":0,"Proposed_D":"","devType":"Projected","Address_BB":"24 WEST 28 STREET (1008290059) & 26 WEST 28 STREET (1008290061)","Historic_D":"","image_url":"","image_sour":"","Quadrant":"Southeast","Shape_Leng":348.798201102,"Shape_Area":7429.54693379}},{"type":"Feature","geometry":{"bbox":[-73.98971853279568,40.745200312100806,-73.98930286760803,40.74554223093667],"type":"Polygon","coordinates":[[[-73.98930288381489,40.745441294404465],[-73.9894785729435,40.74520029043025],[-73.98955456435512,40.745232264719796],[-73.98955767570719,40.745233573363365],[-73.98963837123812,40.74526752667079],[-73.9897185172186,40.74530124863652],[-73.98954282858163,40.745542252973266],[-73.98946268151909,40.745508530803896],[-73.98937887442601,40.74547326805748],[-73.98930288381489,40.745441294404465]]]},"properties":{"Site_No_":"42","Site_Area_":0,"Current_La":"","Current_To":0,"Proposed_D":"","devType":"Projected","Address_BB":"32 WEST 28 STREET (1008290062) & 34 WEST 28 STREET (1008290063) & 36 WEST 28 STREET (1008290064)","Historic_D":"","image_url":"","image_sour":"","Quadrant":"Southeast","Shape_Leng":352.762049619,"Shape_Area":7628.54357169}},{"type":"Feature","geometry":{"bbox":[-73.98995593105435,40.745301269585134,-73.98954281290636,40.74564211857054],"type":"Polygon","coordinates":[[[-73.98954282858163,40.745542252973266],[-73.9897185172186,40.74530124863652],[-73.98979576882616,40.7453337526989],[-73.9898721188991,40.74536587706539],[-73.98995202863317,40.74539949912347],[-73.9899559159984,40.745401135269645],[-73.98978022894632,40.74564213988142],[-73.9896964298764,40.745606881634174],[-73.98962008049305,40.745574757069946],[-73.98954282858163,40.745542252973266]]]},"properties":{"Site_No_":"41","Site_Area_":0,"Current_La":"","Current_To":0,"Proposed_D":"","devType":"Projected","Address_BB":"38 WEST 28 STREET (1008290065) & 40 WEST 28 STREET (1008290066) & 42 WEST 28 STREET (1008290067)","Historic_D":"","image_url":"","image_sour":"","Quadrant":"Southeast","Shape_Leng":351.149630936,"Shape_Area":7547.60967365}},{"type":"Feature","geometry":{"bbox":[-73.992132604447,40.74269344882298,-73.9918061711485,40.74300714874172],"type":"Polygon","coordinates":[[[-73.99180617836116,40.74294850221695],[-73.99199218211447,40.742693439145114],[-73.99205504933644,40.7427197010784],[-73.9921325975216,40.74275209601999],[-73.99194659414219,40.74300715864637],[-73.991869045642,40.7429747649196],[-73.99180617836116,40.74294850221695]]]},"properties":{"Site_No_":"37","Site_Area_":0,"Current_La":"","Current_To":0,"Proposed_D":"","devType":"Projected","Address_BB":"67 WEST 23 STREET (1008250008) & 69 WEST 23 STREET (1008250007)","Historic_D":"","image_url":"","image_sour":"","Quadrant":"Southeast","Shape_Leng":301.312654852,"Shape_Area":4717.25213714}},{"type":"Feature","geometry":{"bbox":[-73.98954337573113,40.74635937075595,-73.98896850722006,40.746768082894995],"type":"Polygon","coordinates":[[[-73.98896853498883,40.7466003835163],[-73.98914609753602,40.74635933400329],[-73.98931124537474,40.74642906693927],[-73.98938466422824,40.746460068549325],[-73.98954334940936,40.74652707080934],[-73.98949748837701,40.74658933034463],[-73.98940682901348,40.74671240765947],[-73.9893657897232,40.74676812026039],[-73.98928912141022,40.74673574815269],[-73.98920710414646,40.74670111784048],[-73.98913368510983,40.74667011678842],[-73.98896853498883,40.7466003835163]]]},"properties":{"Site_No_":"47","Site_Area_":0,"Current_La":"","Current_To":0,"Proposed_D":"","devType":"Projected","Address_BB":"43 WEST 29 STREET (1008310009) & 45 WEST 29 STREET (1008310007) & 39 WEST 29 STREET (1008310010)","Historic_D":"","image_url":"","image_sour":"","Quadrant":"Southeast","Shape_Leng":453.129739031,"Shape_Area":12673.6006303}},{"type":"Feature","geometry":{"bbox":[-73.9892448994231,40.74504440432485,-73.98887456009065,40.74521612148173],"type":"Polygon","coordinates":[[[-73.98888730610827,40.74511493669846],[-73.98890065770259,40.74504437166518],[-73.9891892193455,40.74507843364517],[-73.98924489013068,40.74510196592829],[-73.98920785668889,40.74515276591762],[-73.98916165059767,40.74521614885544],[-73.98887456574356,40.74518227033206],[-73.98888730610827,40.74511493669846]]]},"properties":{"Site_No_":"44","Site_Area_":0,"Current_La":"","Current_To":0,"Proposed_D":"","devType":"Projected","Address_BB":"1177 BROADWAY (1008290055) & 1179 BROADWAY (1008290056)","Historic_D":"","image_url":"","image_sour":"","Quadrant":"Southeast","Shape_Leng":277.390539886,"Shape_Area":4515.98946465}},{"type":"Feature","geometry":{"bbox":[-73.98811693465771,40.7450133984537,-73.98752128419554,40.74565064638901],"type":"Polygon","coordinates":[[[-73.98769885323986,40.74526394971177],[-73.98788013432383,40.74501337377881],[-73.98795906150407,40.74504661763579],[-73.98811691687351,40.74511310527088],[-73.98793563640872,40.74536368165675],[-73.98797352194309,40.74537963868628],[-73.98803438900312,40.745405275144165],[-73.98785684640167,40.74565068225632],[-73.98779597918733,40.745625046458045],[-73.98767916591815,40.74557584462609],[-73.98760023824889,40.745542600496016],[-73.98752131066011,40.74550935639547],[-73.98769885323986,40.74526394971177]]]},"properties":{"Site_No_":"46","Site_Area_":0,"Current_La":"","Current_To":0,"Proposed_D":"","devType":"Projected","Address_BB":"WEST 28 STREET (1008300032) & 7 WEST 28 STREET (1008300034) & 6 WEST 29 STREET (1008300048) & 10 WEST 29 STREET (1008300051) & 12 WEST 29 STREET (1008300052)","Historic_D":"","image_url":"","image_sour":"","Quadrant":"Southeast","Shape_Leng":625.059744289,"Shape_Area":18660.8368011}},{"type":"Feature","geometry":{"bbox":[-73.98954831530394,40.745950136751844,-73.98916501522244,40.746279639144255],"type":"Polygon","coordinates":[[[-73.98916502922641,40.74619353288546],[-73.98934433089751,40.74595011806079],[-73.98941410196724,40.74597957771182],[-73.98947870329599,40.746006855743566],[-73.98954264427582,40.74603385417201],[-73.98954830179552,40.74603624226107],[-73.98936899975668,40.74627965815279],[-73.98916502922641,40.74619353288546]]]},"properties":{"Site_No_":"45","Site_Area_":0,"Current_La":"","Current_To":0,"Proposed_D":"","devType":"Projected","Address_BB":"36 WEST 29 STREET (1008300069)","Historic_D":"","image_url":"","image_sour":"","Quadrant":"Southeast","Shape_Leng":332.593146206,"Shape_Area":6571.18337}},{"type":"Feature","geometry":{"bbox":[-73.98842610256952,40.746181539017066,-73.98778888412578,40.7466509646141],"type":"Polygon","coordinates":[[[-73.9877889266324,40.74641905876963],[-73.98796079471948,40.746181491319675],[-73.98803645490281,40.74621265992262],[-73.98802571106381,40.74622751082007],[-73.98830900700982,40.74620075680575],[-73.98842609085172,40.74624898840093],[-73.9883923589863,40.7464320809536],[-73.98837905815395,40.74650397812282],[-73.98835202045024,40.746651022940554],[-73.98786458425555,40.746450225308905],[-73.9877889266324,40.74641905876963]]]},"properties":{"Site_No_":"48","Site_Area_":0,"Current_La":"","Current_To":0,"Proposed_D":"","devType":"Projected","Address_BB":"1204 BROADWAY (1008310019) & 28 WEST 30 STREET (1008310055) & 1214 BROADWAY (1008310059) & 1212 BROADWAY (1008310061)","Historic_D":"","image_url":"","image_sour":"","Quadrant":"Southeast","Shape_Leng":570.153834525,"Shape_Area":18520.4955234}},{"type":"Feature","geometry":{"bbox":[-73.9878815945222,40.74542723543068,-73.9867580917743,40.74638627132463],"type":"Polygon","coordinates":[[[-73.98675823094071,40.74568610854535],[-73.98694820933547,40.7454271334416],[-73.98742723691878,40.74562888829213],[-73.98766716564313,40.74572994488124],[-73.98774921513505,40.74576450393236],[-73.98783489246792,40.74580059018902],[-73.98765150212601,40.74605407834063],[-73.9877150387499,40.746080252014046],[-73.98780301601347,40.74611649380997],[-73.98780618930188,40.74611780183846],[-73.9878814632673,40.7461488116302],[-73.9877095923422,40.74638637678738],[-73.98763114390236,40.74635405960365],[-73.98754316553932,40.74631781700746],[-73.98747550380757,40.74628994373835],[-73.98739033768467,40.74625485784794],[-73.98706987415568,40.746122841028736],[-73.98724174679234,40.745885276148485],[-73.98675823094071,40.74568610854535]]]},"properties":{"Site_No_":"49","Site_Area_":0,"Current_La":"","Current_To":0,"Proposed_D":"","devType":"Projected","Address_BB":"11 WEST 29 STREET (1008310028) & 9 WEST 29 STREET (1008310029) & 3 WEST 29 STREET (1008310030) & 270 5 AVENUE (1008310033) & 8 WEST 30 STREET (1008310048) & 16 WEST 30 STREET (1008310049) & 18 WEST 30 STREET (1008310050) & 20 WEST 30 STREET (1008310051)","Historic_D":"","image_url":"","image_sour":"","Quadrant":"Southeast","Shape_Leng":1118.31062195,"Shape_Area":49922.4249377}},{"type":"Feature","geometry":{"bbox":[-73.98706164934018,40.74621991061166,-73.98672797098611,40.74652974036265],"type":"Polygon","coordinates":[[[-73.98683088044825,40.74632244691492],[-73.9869054616926,40.74621989296063],[-73.98698011431887,40.746251303836],[-73.98706163658224,40.74628560262956],[-73.9868840763081,40.7465297582449],[-73.98680259730011,40.74649539892946],[-73.98672798409577,40.7464639345693],[-73.98677084987088,40.74640499299844],[-73.98683088044825,40.74632244691492]]]},"properties":{"Site_No_":"50","Site_Area_":0,"Current_La":"","Current_To":0,"Proposed_D":"","devType":"Projected","Address_BB":"5 WEST 30 STREET (1008320036) & 3 WEST 30 STREET (1008320037)","Historic_D":"","image_url":"","image_sour":"","Quadrant":"Southeast","Shape_Leng":302.168908833,"Shape_Area":5026.06289487}},{"type":"Feature","geometry":{"bbox":[-73.99515079165492,40.74882084812153,-73.99482757969888,40.74912595311396],"type":"Polygon","coordinates":[[[-73.99489947511738,40.74909515961949],[-73.99482758442795,40.749065044805754],[-73.9950053662296,40.74882084190728],[-73.9951507872214,40.74888175567934],[-73.99497300391782,40.74912595955259],[-73.99489947511738,40.74909515961949]]]},"properties":{"Site_No_":"4","Site_Area_":0,"Current_La":"","Current_To":0,"Proposed_D":"","devType":"Projected","Address_BB":"253 WEST 29 STREET (1007790008)","Historic_D":"","image_url":"","image_sour":"","Quadrant":"Southwest","Shape_Leng":295.395366298,"Shape_Area":4678.10150574}},{"type":"Feature","geometry":{"bbox":[-73.99424572594948,40.74439593100064,-73.9939131263343,40.744710545641865],"type":"Polygon","coordinates":[[[-73.99391313226869,40.74464559215985],[-73.9940905689711,40.7443959231443],[-73.99416969992541,40.744429162089666],[-73.99424572032119,40.744461095307564],[-73.99406843650361,40.7447105537451],[-73.99405423994838,40.74470461556939],[-73.99399234010939,40.744678724395335],[-73.99391313226869,40.74464559215985]]]},"properties":{"Site_No_":"20","Site_Area_":0,"Current_La":"","Current_To":0,"Proposed_D":"","devType":"Projected","Address_BB":"145 WEST 24 STREET (1008000015) & 147 WEST 24 STREET (1008000014)","Historic_D":"","image_url":"","image_sour":"","Quadrant":"Southwest","Shape_Leng":304.938169365,"Shape_Area":5075.96324125}},{"type":"Feature","geometry":{"bbox":[-73.99397823673851,40.744295503568125,-73.99364551011158,40.74465594813279],"type":"Polygon","coordinates":[[[-73.99364551684843,40.74458531646907],[-73.99385148883644,40.744295496871516],[-73.99397823196409,40.74434832641564],[-73.99383761991031,40.744613588474515],[-73.99381539507253,40.74465595738047],[-73.99364551684843,40.74458531646907]]]},"properties":{"Site_No_":"21","Site_Area_":0,"Current_La":"","Current_To":0,"Proposed_D":"","devType":"Projected","Address_BB":"139 WEST 24 STREET (1008000019)","Historic_D":"","image_url":"","image_sour":"","Quadrant":"Southwest","Shape_Leng":334.547226111,"Shape_Area":5618.87416397}},{"type":"Feature","geometry":{"bbox":[-73.99269048384839,40.74455443992388,-73.99236938804684,40.74486507454791],"type":"Polygon","coordinates":[[[-73.99236939492512,40.744805020623225],[-73.99254749199069,40.744554430760225],[-73.99261205550818,40.74458155184939],[-73.9926904772595,40.74461449451951],[-73.99251237969017,40.744865083932645],[-73.99243395762346,40.74483214181122],[-73.99236939492512,40.744805020623225]]]},"properties":{"Site_No_":"22","Site_Area_":0,"Current_La":"","Current_To":0,"Proposed_D":"","devType":"Projected","Address_BB":"117 WEST 25 STREET (1008010028) & 115 WEST 25 STREET (1008010029)","Historic_D":"","image_url":"","image_sour":"","Quadrant":"Southwest","Shape_Leng":298.087883027,"Shape_Area":4697.18705938}},{"type":"Feature","geometry":{"bbox":[-73.99397422692998,40.7459841407642,-73.99358068178319,40.74622243289314],"type":"Polygon","coordinates":[[[-73.99361858923378,40.746036847481925],[-73.99365692096487,40.74598412372655],[-73.99397421485867,40.74611760175152],[-73.99393588330017,40.7461703256115],[-73.9938979888816,40.74622245014084],[-73.99358069464296,40.74608897115531],[-73.99361858923378,40.746036847481925]]]},"properties":{"Site_No_":"23","Site_Area_":0,"Current_La":"","Current_To":0,"Proposed_D":"","devType":"Projected","Address_BB":"289 7 AVENUE (1008020004) & 287 7 AVENUE (1008020003)","Historic_D":"","image_url":"","image_sour":"","Quadrant":"Southwest","Shape_Leng":288.243813077,"Shape_Area":4385.59095772}},{"type":"Feature","geometry":{"bbox":[-73.99140231977258,40.74596072943132,-73.9911030352792,40.7462518963877],"type":"Polygon","coordinates":[[[-73.99110304233432,40.74619906719515],[-73.9912763346374,40.74596071995797],[-73.99133993446192,40.74598739401643],[-73.99140231295482,40.746013558541904],[-73.99122902096498,40.7462519060506],[-73.99116664220685,40.746225741348404],[-73.99110304233432,40.74619906719515]]]},"properties":{"Site_No_":"28","Site_Area_":0,"Current_La":"","Current_To":0,"Proposed_D":"","devType":"Projected","Address_BB":"108 WEST 28 STREET (1008030046) & 110 WEST 28 STREET (1008030047)","Historic_D":"","image_url":"","image_sour":"","Quadrant":"Southwest","Shape_Leng":278.185694386,"Shape_Area":3955.63606624}},{"type":"Feature","geometry":{"bbox":[-73.99270965258346,40.74772613176347,-73.9922168128725,40.74799942903193],"type":"Polygon","coordinates":[[[-73.99221681665759,40.74796703098989],[-73.99239272553436,40.74772611126757],[-73.99246976324267,40.74775851295191],[-73.99270963800045,40.74785939176595],[-73.9926626831439,40.747923701483536],[-73.9926192312597,40.74798321149108],[-73.9923793561946,40.747882333244426],[-73.99229385367936,40.747999434212076],[-73.99221681665759,40.74796703098989]]]},"properties":{"Site_No_":"31","Site_Area_":0,"Current_La":"","Current_To":0,"Proposed_D":"","devType":"Projected","Address_BB":"341 7 AVENUE (1008050001) & 343 7 AVENUE (1008050002) & 167 WEST 29 STREET (1008050005)","Historic_D":"","image_url":"","image_sour":"","Quadrant":"Southwest","Shape_Leng":401.485033911,"Shape_Area":6368.04462943}},{"type":"Feature","geometry":{"bbox":[-73.99483339518481,40.74871715964077,-73.99458005248852,40.748991945292886],"type":"Polygon","coordinates":[[[-73.9946530808837,40.7489919487061],[-73.99458005497698,40.74896135874682],[-73.99475783829041,40.748717156226824],[-73.99483339273054,40.748748805074804],[-73.9946530808837,40.7489919487061]]]},"properties":{"Site_No_":"A","Site_Area_":0,"Current_La":"","Current_To":0,"Proposed_D":"","devType":"Potential","Address_BB":"247 WEST 29 STREET (1007790012)","Historic_D":"","image_url":"","image_sour":"","Quadrant":"Southwest","Shape_Leng":250.399645081,"Shape_Area":2389.8871401}},{"type":"Feature","geometry":{"bbox":[-73.99381540130686,40.74852043965908,-73.99334711221348,40.74888995064777],"type":"Polygon","coordinates":[[[-73.99334712438234,40.748768098219436],[-73.99352744094027,40.74852042383733],[-73.99358663528987,40.74854522107204],[-73.99366092507287,40.74857634088353],[-73.99373910730029,40.748609090974306],[-73.99381539011024,40.74864104630855],[-73.99363416685165,40.748889966870216],[-73.99355812412718,40.7488576819786],[-73.99348018847145,40.74882459303835],[-73.99334712438234,40.748768098219436]]]},"properties":{"Site_No_":"7","Site_Area_":0,"Current_La":"","Current_To":0,"Proposed_D":"","devType":"Projected","Address_BB":"216 WEST 30 STREET (1007790053) & 220 WEST 30 STREET (1007790055) & 222 WEST 30 STREET (1007790056)","Historic_D":"","image_url":"","image_sour":"","Quadrant":"Southwest","Shape_Leng":388.981503176,"Shape_Area":9418.70341507}},{"type":"Feature","geometry":{"bbox":[-73.99425886305495,40.74879558744845,-73.99400192006466,40.749077650493085],"type":"Polygon","coordinates":[[[-73.99400192290518,40.74904610193909],[-73.99418430756124,40.748795583708194],[-73.9942588603638,40.74882681483243],[-73.99407624299239,40.74907765433943],[-73.99400192290518,40.74904610193909]]]},"properties":{"Site_No_":"B","Site_Area_":0,"Current_La":"","Current_To":0,"Proposed_D":"","devType":"Potential","Address_BB":"234 WEST 30 STREET (1007790062)","Historic_D":"","image_url":"","image_sour":"","Quadrant":"Southwest","Shape_Leng":255.956541958,"Shape_Area":2461.99180549}},{"type":"Feature","geometry":{"bbox":[-73.9948994805418,40.74902431081979,-73.99454621103885,40.74934876551103],"type":"Polygon","coordinates":[[[-73.99454621689894,40.74927718460383],[-73.99473031982765,40.749024303204806],[-73.99482758442795,40.749065044805754],[-73.99489947511738,40.74909515961949],[-73.99471483849628,40.74934877337189],[-73.99454621689894,40.74927718460383]]]},"properties":{"Site_No_":"5","Site_Area_":0,"Current_La":"","Current_To":0,"Proposed_D":"","devType":"Projected","Address_BB":"250 WEST 30 STREET (1007790069)","Historic_D":"","image_url":"","image_sour":"","Quadrant":"Southwest","Shape_Leng":317.944665233,"Shape_Area":5643.18034015}},{"type":"Feature","geometry":{"bbox":[-73.99312660379962,40.74550245500025,-73.99270014495079,40.745851000192594],"type":"Polygon","coordinates":[[[-73.99270015643836,40.745746159747604],[-73.99287734687186,40.74550243985563],[-73.99303318696315,40.745568000195014],[-73.99312659298324,40.7456072947788],[-73.99294940329273,40.7458510157207],[-73.99292629695356,40.745841295171765],[-73.9928559969253,40.74581172091081],[-73.99270015643836,40.745746159747604]]]},"properties":{"Site_No_":"25","Site_Area_":0,"Current_La":"","Current_To":0,"Proposed_D":"","devType":"Projected","Address_BB":"147 WEST 26 STREET (1008020014) & 141 WEST 26 STREET (1008020017)","Historic_D":"","image_url":"","image_sour":"","Quadrant":"Southwest","Shape_Leng":360.781173659,"Shape_Area":8008.18465825}},{"type":"Feature","geometry":{"bbox":[-73.99223972490722,40.74516875728187,-73.99190695565278,40.745477899480484],"type":"Polygon","coordinates":[[[-73.99198758663078,40.745446383235226],[-73.99190696360162,40.745412464625666],[-73.9920841569303,40.74516874669502],[-73.99223971728532,40.74523419138641],[-73.99206252534277,40.74547791030675],[-73.99198758663078,40.745446383235226]]]},"properties":{"Site_No_":"26","Site_Area_":0,"Current_La":"","Current_To":0,"Proposed_D":"","devType":"Projected","Address_BB":"117 WEST 26 STREET (1008020029)","Historic_D":"","image_url":"","image_sour":"","Quadrant":"Southwest","Shape_Leng":301.449847632,"Shape_Area":4998.16182956}},{"type":"Feature","geometry":{"bbox":[-73.99198759312527,40.745392382712936,-73.99168072752991,40.745691851924576],"type":"Polygon","coordinates":[[[-73.99168073427313,40.74563785140289],[-73.9918592068911,40.74539237371002],[-73.99190696360162,40.745412464625666],[-73.99198758663078,40.745446383235226],[-73.99180911423275,40.74569186112644],[-73.99168073427313,40.74563785140289]]]},"properties":{"Site_No_":"D","Site_Area_":0,"Current_La":"","Current_To":0,"Proposed_D":"","devType":"Potential","Address_BB":"112 WEST 27 STREET (1008020050)","Historic_D":"","image_url":"","image_sour":"","Quadrant":"Southwest","Shape_Leng":285.700091876,"Shape_Area":4154.59649416}},{"type":"Feature","geometry":{"bbox":[-73.99250452570637,40.7472150771514,-73.99217703689268,40.74752300120488],"type":"Polygon","coordinates":[[[-73.99217704430156,40.747459907682035],[-73.99235408326147,40.74721506726291],[-73.99242799963602,40.747246000954476],[-73.99243771583453,40.74725006713884],[-73.99250451862427,40.74727802310162],[-73.99232737278021,40.74752301131749],[-73.99226061800732,40.7474949891658],[-73.99217704430156,40.747459907682035]]]},"properties":{"Site_No_":"29","Site_Area_":0,"Current_La":"","Current_To":0,"Proposed_D":"","devType":"Projected","Address_BB":"154 WEST 29 STREET (1008040068) & 156 WEST 29 STREET (1008040069)","Historic_D":"","image_url":"","image_sour":"","Quadrant":"Southwest","Shape_Leng":298.819110158,"Shape_Area":4844.8894577}},{"type":"Feature","geometry":{"bbox":[-73.99111721689206,40.747291951589446,-73.99058056743314,40.74774813696176],"type":"Polygon","coordinates":[[[-73.9905805885541,40.74759875732861],[-73.99074794962573,40.747292207799276],[-73.99074894849073,40.74729192259946],[-73.99095554345412,40.74733135446375],[-73.99108492426244,40.747355733401776],[-73.99109817650334,40.74735769483369],[-73.9910337255343,40.747468696089534],[-73.9911171886455,40.74750379738632],[-73.99093875673927,40.747748165697416],[-73.9905805885541,40.74759875732861]]]},"properties":{"Site_No_":"33","Site_Area_":0,"Current_La":"","Current_To":0,"Proposed_D":"","devType":"Projected","Address_BB":"122 WEST 30 STREET (1008050075)","Historic_D":"","image_url":"","image_sour":"","Quadrant":"Southwest","Shape_Leng":506.583281663,"Shape_Area":15197.908227}},{"type":"Feature","geometry":{"bbox":[-73.9919644414829,40.74746071726425,-73.99152004008691,40.748056632966005],"type":"Polygon","coordinates":[[[-73.9916363048053,40.74779299452023],[-73.99166660622599,40.74773486039016],[-73.99158577929308,40.747700871277644],[-73.9917616101242,40.74746070293507],[-73.99196443119669,40.747545996445496],[-73.99180299381611,40.74784470292635],[-73.99182722800528,40.74785263487336],[-73.99167826656742,40.748056644506406],[-73.99152004848641,40.747990645811996],[-73.9916575905752,40.747802275307635],[-73.9916363048053,40.74779299452023]]]},"properties":{"Site_No_":"32","Site_Area_":0,"Current_La":"","Current_To":0,"Proposed_D":"","devType":"Projected","Address_BB":"140 WEST 30 STREET (1008050087)","Historic_D":"","image_url":"","image_sour":"","Quadrant":"Southwest","Shape_Leng":558.034054947,"Shape_Area":12133.5923937}},{"type":"Feature","geometry":{"bbox":[-73.9906331402034,40.74793719568113,-73.99014372848123,40.74833324316233],"type":"Polygon","coordinates":[[[-73.99014374381342,40.74822961206316],[-73.99035541745789,40.747937172761056],[-73.99049407867427,40.74797036580869],[-73.99063313085964,40.74800365074658],[-73.99039449283205,40.748333264347664],[-73.99026894596814,40.74828136698084],[-73.99014374381342,40.74822961206316]]]},"properties":{"Site_No_":"35","Site_Area_":0,"Current_La":"","Current_To":0,"Proposed_D":"","devType":"Projected","Address_BB":"120 WEST 31 STREET (1008060054) & 124 WEST 31 STREET (1008060056)","Historic_D":"","image_url":"","image_sour":"","Quadrant":"Southwest","Shape_Leng":418.458780208,"Shape_Area":10229.7779439}},{"type":"Feature","geometry":{"bbox":[-73.99567867541788,40.748221837678884,-73.99531048616569,40.74858555863288],"type":"Polygon","coordinates":[[[-73.99531049051625,40.748523755157095],[-73.99553185435514,40.74822183207693],[-73.99567867141889,40.748283487305535],[-73.99553485922904,40.74847960844327],[-73.9954903866455,40.74854025709934],[-73.99545716381488,40.74858556451132],[-73.99531049051625,40.748523755157095]]]},"properties":{"Site_No_":"2","Site_Area_":0,"Current_La":"","Current_To":0,"Proposed_D":"","devType":"Projected","Address_BB":"253 WEST 28 STREET (1007780007)","Historic_D":"","image_url":"","image_sour":"","Quadrant":"Southwest","Shape_Leng":344.890071906,"Shape_Area":5853.69944437}},{"type":"Feature","geometry":{"bbox":[-73.99394793131651,40.74748733003933,-73.9934156051266,40.74812149461652],"type":"Polygon","coordinates":[[[-73.99368796420585,40.74761611500317],[-73.99378285265652,40.747487321247085],[-73.99394792501941,40.747556647038536],[-73.99375786533676,40.747814608515725],[-73.99383484474549,40.74784693758748],[-73.99391509385832,40.74788063914028],[-73.99373765541445,40.74812151257647],[-73.99365747266158,40.748087721723365],[-73.9935758210547,40.748053310977234],[-73.99341561853844,40.74798579709773],[-73.99364095221111,40.74767992968354],[-73.99368796420585,40.74761611500317]]]},"properties":{"Site_No_":"3","Site_Area_":0,"Current_La":"","Current_To":0,"Proposed_D":"","devType":"Projected","Address_BB":"207 WEST 28 STREET (1007780034) & 210 WEST 29 STREET (1007780046) & 212 WEST 29 STREET (1007780047)","Historic_D":"","image_url":"","image_sour":"","Quadrant":"Southwest","Shape_Leng":620.527105239,"Shape_Area":15882.51609}},{"type":"Feature","geometry":{"bbox":[-73.9939931813156,40.74833214725802,-73.99366091891665,40.748641037910765],"type":"Polygon","coordinates":[[[-73.99366092507287,40.74857634088353],[-73.99383871083823,40.74833213909868],[-73.9939168928664,40.74836488982378],[-73.99399317548209,40.74839684420376],[-73.99381539011024,40.74864104630855],[-73.99373910730029,40.748609090974306],[-73.99366092507287,40.74857634088353]]]},"properties":{"Site_No_":"6","Site_Area_":0,"Current_La":"","Current_To":0,"Proposed_D":"","devType":"Projected","Address_BB":"225 WEST 29 STREET (1007790025) & 223 WEST 29 STREET (1007790026)","Historic_D":"","image_url":"","image_sour":"","Quadrant":"Southwest","Shape_Leng":301.119066513,"Shape_Area":4969.12761791}},{"type":"Feature","geometry":{"bbox":[-73.9930201321025,40.74831408331193,-73.99265376887924,40.74857997564767],"type":"Polygon","coordinates":[[[-73.99273664593719,40.74835970889324],[-73.99276982148119,40.7483140678714],[-73.99302012096976,40.74842033891263],[-73.99298694543413,40.748465980674645],[-73.99295149957359,40.74851474423046],[-73.99290407213756,40.748579991339874],[-73.99265378059602,40.74847372281098],[-73.99270119983987,40.74840847237274],[-73.99273664593719,40.74835970889324]]]},"properties":{"Site_No_":"8","Site_Area_":0,"Current_La":"","Current_To":0,"Proposed_D":"","devType":"Projected","Address_BB":"356 7 AVENUE (1007790043) & 358 7 AVENUE (1007790044) & 360 7 AVENUE (1007790045)","Historic_D":"","image_url":"","image_sour":"","Quadrant":"Southwest","Shape_Leng":291.779532688,"Shape_Area":5278.94097845}},{"type":"Feature","geometry":{"bbox":[-73.99295492910187,40.746305184617356,-73.9926988585372,40.746596373816146],"type":"Polygon","coordinates":[[[-73.99269886281164,40.7465573708004],[-73.9928616241458,40.74630517887242],[-73.99295492496383,40.746344315549926],[-73.9927918709672,40.746596379674635],[-73.9927785988674,40.74659081310247],[-73.99269886281164,40.7465573708004]]]},"properties":{"Site_No_":"27","Site_Area_":0,"Current_La":"","Current_To":0,"Proposed_D":"","devType":"Projected","Address_BB":"149 WEST 27 STREET (1008030011)","Historic_D":"","image_url":"","image_sour":"","Quadrant":"Southwest","Shape_Leng":263.654623955,"Shape_Area":3013.62698227}},{"type":"Feature","geometry":{"bbox":[-73.99213481011913,40.74707974281028,-73.99185388950333,40.747367918141116],"type":"Polygon","coordinates":[[[-73.991853894842,40.74732425793889],[-73.99203070457652,40.74707973565422],[-73.9921255626812,40.747119433044865],[-73.99213480497671,40.74712330036237],[-73.99195792069504,40.74736792545175],[-73.991853894842,40.74732425793889]]]},"properties":{"Site_No_":"30","Site_Area_":0,"Current_La":"","Current_To":0,"Proposed_D":"","devType":"Projected","Address_BB":"142 WEST 29 STREET (1008040063)","Historic_D":"","image_url":"","image_sour":"","Quadrant":"Southwest","Shape_Leng":269.228017063,"Shape_Area":3347.97646906}},{"type":"Feature","geometry":{"bbox":[-73.99112913041573,40.74825858677666,-73.99079232914842,40.74856522939535],"type":"Polygon","coordinates":[[[-73.99079233847894,40.74849772180646],[-73.99096576833567,40.74825857407923],[-73.99112912142662,40.748326093699085],[-73.9909556956099,40.74856524233906],[-73.99079233847894,40.74849772180646]]]},"properties":{"Site_No_":"34","Site_Area_":0,"Current_La":"","Current_To":0,"Proposed_D":"","devType":"Projected","Address_BB":"140 WEST 31 STREET (1008060063)","Historic_D":"","image_url":"","image_sour":"","Quadrant":"Southwest","Shape_Leng":302.034595263,"Shape_Area":5125.7780027}},{"type":"Feature","geometry":{"bbox":[-73.99390785716038,40.74338152000491,-73.99323748477516,40.74397958416412],"type":"Polygon","coordinates":[[[-73.99332635663907,40.74374806766288],[-73.99359309394893,40.743381502925196],[-73.99382534710129,40.74347839992675],[-73.9939078451544,40.74351281758909],[-73.99372606059998,40.74376263863055],[-73.993673566242,40.743740737462765],[-73.99358800384151,40.74385832292929],[-73.99349975508315,40.743979599264875],[-73.9933965677804,40.743936549327664],[-73.99334024696581,40.74391305213949],[-73.99323749587965,40.74387018412933],[-73.99332635663907,40.74374806766288]]]},"properties":{"Site_No_":"19","Site_Area_":0,"Current_La":"","Current_To":0,"Proposed_D":"","devType":"Projected","Address_BB":"131 WEST 23 STREET (1007990024)","Historic_D":"","image_url":"","image_sour":"","Quadrant":"Southwest","Shape_Leng":605.936346113,"Shape_Area":18592.4224513}}],"fileName":"msmx_sites/MapPLUTO_x_MSMX_bySite_Merge"}