{"type":"FeatureCollection","features":[{"type":"Feature","geometry":{"bbox":[-73.98672667123982,40.74935159774068,-73.98277373662354,40.753028566403486],"type":"Polygon","coordinates":[[[-73.98672649561128,40.75023305352043],[-73.98468856265819,40.753028836844344],[-73.98277394631133,40.75221769081831],[-73.98296173797894,40.75196075133887],[-73.98280406467885,40.751897913130826],[-73.98461432098217,40.74935133495152],[-73.98672649561128,40.75023305352043]]]},"properties":{"Shape_Leng":3650.5733168,"Shape_Area":763785.565929,"Quadrant":"Northeast"}},{"type":"Feature","geometry":{"bbox":[-73.99344953570409,40.750720171797184,-73.9873780881064,40.7562962189466],"type":"Polygon","coordinates":[[[-73.9878367149958,40.7507197158513],[-73.99011335015261,40.75170370574592],[-73.99036420081882,40.75136041818204],[-73.99318503972904,40.75251046366198],[-73.99294951907625,40.752861296382996],[-73.99344930431114,40.753073294998686],[-73.99167960993596,40.75551907683733],[-73.99118553312618,40.75530497738149],[-73.99041708561045,40.75629651184185],[-73.98769510713753,40.755145253572344],[-73.98879831216594,40.75355716365251],[-73.98737873053793,40.75290567578541],[-73.9878367149958,40.7507197158513]]]},"properties":{"Shape_Leng":6434.52973085,"Shape_Area":1999693.70613,"Quadrant":"Northwest"}},{"type":"Feature","geometry":{"bbox":[-73.99234163533508,40.741941155309384,-73.98634892380936,40.74767749461093],"type":"Polygon","coordinates":[[[-73.98872457213231,40.747677751671155],[-73.98634912884891,40.74667685108758],[-73.98855377456512,40.74361832790972],[-73.98939942782941,40.743965601034844],[-73.98953409429329,40.743190826306936],[-73.98959880984746,40.74322000498934],[-73.99052893442968,40.74194102050683],[-73.99234154750896,40.74270520663833],[-73.99208623380112,40.743064944579466],[-73.99197362015832,40.74301925407326],[-73.99002862720579,40.7458368397618],[-73.99011031379202,40.74585877503873],[-73.98872457213231,40.747677751671155]]]},"properties":{"Shape_Leng":5835.5624064,"Shape_Area":1391819.80815,"Quadrant":"Southeast"}},{"type":"Feature","geometry":{"bbox":[-73.99572148638558,40.7435006986416,-73.98962922231824,40.749452898209],"type":"Polygon","coordinates":[[[-73.98962943933569,40.74805883368721],[-73.99296953757141,40.743500563533175],[-73.99489653654922,40.74428027606155],[-73.99425586192082,40.745212182918614],[-73.99465378556793,40.74536638230992],[-73.99335050401453,40.74721254536672],[-73.99572118259496,40.74823090438778],[-73.99479424650214,40.74945324744801],[-73.99162667584875,40.74808791955571],[-73.99114557232643,40.74873922509672],[-73.98962943933569,40.74805883368721]]]},"properties":{"Shape_Leng":6813.6231505,"Shape_Area":1694455.13012,"Quadrant":"Southwest"}}],"fileName":"msmx_quadrants/MSMX_Boundary"}