{"type":"FeatureCollection","features":[{"type":"Feature","geometry":{"bbox":[-73.98849834230661,40.748403660497274,-73.98818147213407,40.74893421696101],"type":"Polygon","coordinates":[[[-73.98827506259721,40.7484036379849],[-73.98849832607816,40.748497657465144],[-73.98818147213407,40.74893421696101],[-73.98827506259721,40.7484036379849]]]},"properties":{"Address":"Greeley Square","BBL":1008340001,"Shape_Leng":447.424799428,"Shape_Area":6423.28350432}},{"type":"Feature","geometry":{"bbox":[-73.98482130909673,40.7529812309212,-73.98263445401368,40.754654389852],"type":"Polygon","coordinates":[[[-73.98263460684784,40.75406812752107],[-73.98342575022835,40.75298103857281],[-73.98482117551026,40.753567492594456],[-73.98403004980973,40.754654591787194],[-73.98263460684784,40.75406812752107]]]},"properties":{"Address":"Bryant Park","BBL":1012570002,"Shape_Leng":1788.79775208,"Shape_Area":199957.373655}},{"type":"Feature","geometry":{"bbox":[-73.98898516832713,40.741172208541414,-73.9867284726713,40.74333437884578],"type":"Polygon","coordinates":[[[-73.98674099060467,40.74275561653691],[-73.98673373750785,40.74275064018039],[-73.98672967009705,40.7427445652312],[-73.98672859152158,40.74273773676461],[-73.9867309182362,40.74273064925892],[-73.9873518695667,40.74192863997427],[-73.98747127207771,40.74178648385361],[-73.98767145497268,40.741572659085705],[-73.98777168506773,40.74147569474212],[-73.98788439035098,40.741377212520625],[-73.98795091940364,40.74132717565314],[-73.98804836461528,40.741264373241194],[-73.98813799348704,40.7412155191051],[-73.98819179505243,40.74118956914594],[-73.9882096944295,40.74118259999515],[-73.9882311151269,40.741176796085234],[-73.98826406505053,40.74117222867402],[-73.98828461733099,40.74117213940968],[-73.98831092246286,40.74117577343659],[-73.98835072652143,40.741185389773584],[-73.98892014626672,40.74142637983685],[-73.98893917873737,40.74143823472328],[-73.98895165058411,40.74144858535414],[-73.98896583510675,40.74146445830564],[-73.98897752012097,40.741484479555226],[-73.98898389563676,40.741505275911194],[-73.98898510976412,40.74152644079701],[-73.98898086951257,40.74154842084796],[-73.9889754915949,40.74156709136125],[-73.9889633701473,40.741616573354634],[-73.98895133926894,40.74166568641374],[-73.98894005571667,40.74170988032425],[-73.98892874156087,40.74175413747815],[-73.98892392708302,40.741772972350624],[-73.98891744499771,40.741798338329126],[-73.98890588432157,40.74184190475735],[-73.98887047742048,40.74196420214145],[-73.98883013456653,40.742085476037275],[-73.98880855428135,40.74214280081927],[-73.98878485375081,40.74220574526262],[-73.98873464716412,40.74232497124655],[-73.98864674689766,40.74251910582238],[-73.98859160301684,40.74263643902556],[-73.98855587241948,40.74271246358008],[-73.98853221571729,40.74275976895694],[-73.98852341243636,40.74277583083196],[-73.98850669291215,40.742806402436656],[-73.9884792920055,40.742852412454155],[-73.9884499686557,40.74289785095642],[-73.98843156101177,40.74292498570454],[-73.98841230969717,40.742952681724326],[-73.98837833170836,40.742999184315096],[-73.98834390456395,40.74304629464064],[-73.98832951452027,40.743068554733846],[-73.98831237952878,40.74309201122084],[-73.9882782489108,40.743138705515214],[-73.98824939654939,40.743178375225874],[-73.98821992417706,40.74321887895803],[-73.98819076676416,40.743258956215065],[-73.98816161393847,40.74329902284014],[-73.9881407427546,40.7433276841698],[-73.9881346437273,40.74333171955821],[-73.98812669902075,40.74333418579403],[-73.98811838807185,40.74333453062086],[-73.98811035820277,40.743332814675306],[-73.98674099060467,40.74275561653691]]]},"properties":{"Address":"Madison Square Park","BBL":1008520001,"Shape_Leng":2121.70663879,"Shape_Area":279356.409118}},{"type":"Feature","geometry":{"bbox":[-74.0002992309558,40.74914831842925,-73.99924220717307,40.749923435937845],"type":"Polygon","coordinates":[[[-73.9995934157875,40.749148318100325],[-74.0002992322927,40.74944595281825],[-73.99993718372868,40.74992343841347],[-73.99924221050671,40.749630375181304],[-73.9995934157875,40.749148318100325]],[[-73.99964446506873,40.74963947725107],[-73.9997795366032,40.74969643479401],[-73.99975692490517,40.749727488617296],[-73.99986209881156,40.74977183900688],[-74.0000614038607,40.749498111236164],[-73.9998211599414,40.74939680368908],[-73.99964446506873,40.74963947725107]]]},"properties":{"Address":"Chelsea Park","BBL":1007240100,"Shape_Leng":1225.61622305,"Shape_Area":36430.7091006}},{"type":"Feature","geometry":{"bbox":[-73.99630967268824,40.74140644570008,-73.99580312848435,40.741780634217236],"type":"Polygon","coordinates":[[[-73.9958031377078,40.74163421125951],[-73.9959705982128,40.741406434336135],[-73.99630966478338,40.741549161513504],[-73.9961510108586,40.74178064636886],[-73.9958031377078,40.74163421125951]]]},"properties":{"Address":"Chelsea Green Playground","BBL":1007950066,"Shape_Leng":407.752786198,"Shape_Area":10342.8946119}},{"type":"Feature","geometry":{"bbox":[-73.98782979967447,40.749904267123064,-73.98745405250827,40.750525773310954],"type":"Polygon","coordinates":[[[-73.98781820788155,40.749904279282795],[-73.98781914107428,40.7499042659964],[-73.98782008899774,40.749904313950225],[-73.98782102590967,40.74990442222143],[-73.98782193596858,40.749904590223295],[-73.98782278221442,40.74990481025491],[-73.98782369686963,40.749905112532055],[-73.98782452560047,40.74990545830324],[-73.98782531086962,40.74990585183962],[-73.98782604530727,40.749906296068225],[-73.9878267299016,40.749906789400264],[-73.98782736179416,40.74990733116663],[-73.98782792525539,40.74990791090708],[-73.98782842589686,40.74990852226406],[-73.98782884710945,40.74990915544732],[-73.98782918790116,40.749909814558514],[-73.98782945948977,40.749910515825334],[-73.98782965792358,40.74991122344384],[-73.98782977143253,40.74991192963073],[-73.98782979814267,40.74991265195377],[-73.98782975367855,40.749913372847956],[-73.98782960843647,40.74991414576796],[-73.98782853953303,40.749918761432475],[-73.9877002638704,40.75047379492453],[-73.98769410641123,40.75050043899623],[-73.98769248709797,40.75050337729894],[-73.98769043071576,40.75050635286874],[-73.9876880270589,40.75050919906209],[-73.98768532674247,40.7505118751428],[-73.98768233087122,40.75051435383694],[-73.9876790559446,40.750516633558675],[-73.98767553618102,40.750518687036326],[-73.98767368721542,40.7505195876904],[-73.98767180590414,40.75052050440386],[-73.98766787788168,40.75052206884461],[-73.98766528791406,40.75052289554676],[-73.98766378456278,40.75052337250008],[-73.98765956742486,40.7505244077601],[-73.98765524506165,40.750525155635984],[-73.98765085058648,40.75052561822275],[-73.98764641282116,40.750525794102145],[-73.98764199271092,40.75052567625373],[-73.9876375864078,40.75052526408945],[-73.98763324682109,40.750524572172765],[-73.98762922036138,40.75052364562344],[-73.98760609008085,40.75051389381071],[-73.98751168073673,40.750474309387926],[-73.98749555941045,40.750465886332535],[-73.9874845972262,40.75045818398183],[-73.9874733593823,40.75044745461036],[-73.98746394032362,40.750434288669204],[-73.98745834917528,40.7504260375051],[-73.98745407531194,40.750404689665764],[-73.9874566706704,40.7503851483775],[-73.9874640581768,40.75037272340212],[-73.98747261059637,40.750361250688826],[-73.98758152989282,40.75021513753135],[-73.98759709679521,40.75019425564578],[-73.98763211515694,40.75017502913852],[-73.98763862238579,40.75017057778247],[-73.98764663442789,40.75016306379285],[-73.98765262564928,40.75015602519264],[-73.98777176517326,40.74998860146216],[-73.98777419675177,40.74998514321188],[-73.98777635018165,40.749981347699375],[-73.98777824871833,40.74997699071697],[-73.98777903170853,40.74997481890001],[-73.98780665350809,40.749916814105575],[-73.98781180092332,40.7499062319843],[-73.98781288207466,40.74990563066688],[-73.98781368409293,40.749905268168966],[-73.98781454704861,40.74990494708915],[-73.98781541846273,40.749904692854464],[-73.98781632759703,40.74990449618205],[-73.98781699656998,40.74990439653027],[-73.98781724233201,40.749904362087754],[-73.98781820788155,40.749904279282795]]]},"properties":{"Address":"Herald Square","BBL":1008100045,"Shape_Leng":523.994931386,"Shape_Area":9114.78827271}},{"type":"Feature","geometry":{"bbox":[-73.99914227099474,40.74710214387176,-73.99826870692021,40.747898490257285],"type":"Polygon","coordinates":[[[-73.99826871452609,40.74760581801767],[-73.99863254085305,40.74710213894792],[-73.99870370678379,40.747131880354594],[-73.99851690311402,40.747390491994985],[-73.9985890108071,40.747420777358414],[-73.9990034293473,40.74759483930132],[-73.9991422639005,40.747653151680105],[-73.99896504169145,40.74789849861907],[-73.99826871452609,40.74760581801767]]]},"properties":{"Address":"Penn South Playground","BBL":1007490070,"Shape_Leng":859.754820343,"Shape_Area":24893.4946311}},{"type":"Feature","geometry":{"bbox":[-73.99168272462946,40.758740660531416,-73.990893507405,40.75921566063014],"type":"Polygon","coordinates":[[[-73.99136365841056,40.75918342600856],[-73.99128734634999,40.759151310312205],[-73.99120165360122,40.759115247106806],[-73.99105018569456,40.75905150260633],[-73.99097249422616,40.759018805492104],[-73.9908935388613,40.75898557782144],[-73.99107229135295,40.75874061484159],[-73.99168269255821,40.75899750039963],[-73.99154426412478,40.75918721548187],[-73.99148067385075,40.759160450902215],[-73.99144035318206,40.759215702559864],[-73.99136365841056,40.75918342600856]]]},"properties":{"Address":"McCaffrey Playground","BBL":1010340005,"Shape_Leng":590.684475226,"Shape_Area":19263.38445}}],"fileName":"msmx_os/MSMX_OS_QuarterMile"}